STATION,DATE,REPORT_TYPE,SOURCE,AWND,BackupDirection,BackupDistance,BackupDistanceUnit,BackupElements,BackupElevation,BackupElevationUnit,BackupEquipment,BackupLatitude,BackupLongitude,BackupName,CDSD,CLDD,DSNW,DYHF,DYTS,DailyAverageDewPointTemperature,DailyAverageDryBulbTemperature,DailyAverageRelativeHumidity,DailyAverageSeaLevelPressure,DailyAverageStationPressure,DailyAverageWetBulbTemperature,DailyAverageWindSpeed,DailyCoolingDegreeDays,DailyDepartureFromNormalAverageTemperature,DailyHeatingDegreeDays,DailyMaximumDryBulbTemperature,DailyMinimumDryBulbTemperature,DailyPeakWindDirection,DailyPeakWindSpeed,DailyPrecipitation,DailySnowDepth,DailySnowfall,DailySustainedWindDirection,DailySustainedWindSpeed,DailyWeather,HDSD,HTDD,HourlyAltimeterSetting,HourlyDewPointTemperature,HourlyDryBulbTemperature,HourlyPrecipitation,HourlyPresentWeatherType,HourlyPressureChange,HourlyPressureTendency,HourlyRelativeHumidity,HourlySeaLevelPressure,HourlySkyConditions,HourlyStationPressure,HourlyVisibility,HourlyWetBulbTemperature,HourlyWindDirection,HourlyWindGustSpeed,HourlyWindSpeed,MonthlyAverageRH,MonthlyDaysWithGT001Precip,MonthlyDaysWithGT010Precip,MonthlyDaysWithGT32Temp,MonthlyDaysWithGT90Temp,MonthlyDaysWithLT0Temp,MonthlyDaysWithLT32Temp,MonthlyDepartureFromNormalAverageTemperature,MonthlyDepartureFromNormalCoolingDegreeDays,MonthlyDepartureFromNormalHeatingDegreeDays,MonthlyDepartureFromNormalMaximumTemperature,MonthlyDepartureFromNormalMinimumTemperature,MonthlyDepartureFromNormalPrecipitation,MonthlyDewpointTemperature,MonthlyGreatestPrecip,MonthlyGreatestPrecipDate,MonthlyGreatestSnowDepth,MonthlyGreatestSnowDepthDate,MonthlyGreatestSnowfall,MonthlyGreatestSnowfallDate,MonthlyMaxSeaLevelPressureValue,MonthlyMaxSeaLevelPressureValueDate,MonthlyMaxSeaLevelPressureValueTime,MonthlyMaximumTemperature,MonthlyMeanTemperature,MonthlyMinSeaLevelPressureValue,MonthlyMinSeaLevelPressureValueDate,MonthlyMinSeaLevelPressureValueTime,MonthlyMinimumTemperature,MonthlySeaLevelPressure,MonthlyStationPressure,MonthlyTotalLiquidPrecipitation,MonthlyTotalSnowfall,MonthlyWetBulb,NormalsCoolingDegreeDay,NormalsHeatingDegreeDay,REM,REPORT_TYPE.1,SOURCE.1,ShortDurationEndDate005,ShortDurationEndDate010,ShortDurationEndDate015,ShortDurationEndDate020,ShortDurationEndDate030,ShortDurationEndDate045,ShortDurationEndDate060,ShortDurationEndDate080,ShortDurationEndDate100,ShortDurationEndDate120,ShortDurationEndDate150,ShortDurationEndDate180,ShortDurationPrecipitationValue005,ShortDurationPrecipitationValue010,ShortDurationPrecipitationValue015,ShortDurationPrecipitationValue020,ShortDurationPrecipitationValue030,ShortDurationPrecipitationValue045,ShortDurationPrecipitationValue060,ShortDurationPrecipitationValue080,ShortDurationPrecipitationValue100,ShortDurationPrecipitationValue120,ShortDurationPrecipitationValue150,ShortDurationPrecipitationValue180,Sunrise,Sunset,WindEquipmentChangeDate
72787094119,2024-09-01 00:53:00,FM-15,7,,,,,,,,,,,,,,,,,,,,,,,,,,,,,,,,,,,,,,,30.02,42.0,63.0,0.00,,0.01,6.0,47.0,29.96,FEW:02 110,27.71,10.00,52.0,040,,5.0,,,,,,,,,,,,,,,,,,,,,,,,,,,,,,,,,,,,,MET09909/01/24 00:53:02 METAR KDEW 010853Z 04004KT 10SM FEW110 17/06 A3002 RMK AO2 SLP146 T01720056 56002,FM-15,7,,,,,,,,,,,,,,,,,,,,,,,,,,,
72787094119,2024-09-01 01:53:00,FM-15,7,,,,,,,,,,,,,,,,,,,,,,,,,,,,,,,,,,,,,,,30.02,43.0,66.0,0.00,,,,43.0,29.96,CLR:00,27.71,10.00,54.0,360,,6.0,,,,,,,,,,,,,,,,,,,,,,,,,,,,,,,,,,,,,MET09009/01/24 01:53:02 METAR KDEW 010953Z 36005KT 10SM CLR 19/06 A3002 RMK AO2 SLP145 T01890061,FM-15,7,,,,,,,,,,,,,,,,,,,,,,,,,,,
72787094119,2024-09-01 02:53:00,FM-15,7,,,,,,,,,,,,,,,,,,,,,,,,,,,,,,,,,,,,,,,30.01,44.0,66.0,0.00,,,,45.0,29.95,FEW:02 110,27.7,10.00,54.0,020,,6.0,,,,,,,,,,,,,,,,,,,,,,,,,,,,,,,,,,,,,MET09309/01/24 02:53:02 METAR KDEW 011053Z 02005KT 10SM FEW110 19/07 A3001 RMK AO2 SLP142 T01890067,FM-15,7,,,,,,,,,,,,,,,,,,,,,,,,,,,
72787094119,2024-09-01 03:53:00,FM-15,7,,,,,,,,,,,,,,,,,,,,,,,,,,,,,,,,,,,,,,,30.01,44.0,64.0,0.00,,0.01,5.0,48.0,29.95,CLR:00,27.7,10.00,53.0,010,,6.0,,,,,,,,,,,,,,,,,,,,,,,,,,,,,,,,,,,,,MET10809/01/24 03:53:02 METAR KDEW 011153Z 01005KT 10SM CLR 18/07 A3001 RMK AO2 SLP142 T01780067 10206 20144 55003,FM-15,7,,,,,,,,,,,,,,,,,,,,,,,,,,,
72787094119,2024-09-01 04:53:00,FM-15,7,,,,,,,,,,,,,,,,,,,,,,,,,,,,,,,,,,,,,,,30.0,42.0,54.0,0.00,,,,64.0,29.96,CLR:00,27.68,10.00,48.0,170,,3.0,,,,,,,,,,,,,,,,,,,,,,,,,,,,,,,,,,,,,MET09009/01/24 04:53:02 METAR KDEW 011253Z 17003KT 10SM CLR 12/06 A3000 RMK AO2 SLP144 T01220056,FM-15,7,,,,,,,,,,,,,,,,,,,,,,,,,,,
72787094119,2024-09-01 05:53:00,FM-15,7,,,,,,,,,,,,,,,,,,,,,,,,,,,,,,,,,,,,,,,30.01,43.0,55.0,0.00,,,,64.0,29.97,CLR:00,27.7,10.00,49.0,000,,0.0,,,,,,,,,,,,,,,,,,,,,,,,,,,,,,,,,,,,,MET09009/01/24 05:53:02 METAR KDEW 011353Z 00000KT 10SM CLR 13/06 A3001 RMK AO2 SLP148 T01280061,FM-15,7,,,,,,,,,,,,,,,,,,,,,,,,,,,
72787094119,2024-09-01 06:53:00,FM-15,7,,,,,,,,,,,,,,,,,,,,,,,,,,,,,,,,,,,,,,,30.02,48.0,65.0,0.00,,-0.01,3.0,54.0,29.98,CLR:00,27.71,10.00,56.0,000,,0.0,,,,,,,,,,,,,,,,,,,,,,,,,,,,,,,,,,,,,MET09609/01/24 06:53:02 METAR KDEW 011453Z 00000KT 10SM CLR 18/09 A3002 RMK AO2 SLP152 T01830089 53003,FM-15,7,,,,,,,,,,,,,,,,,,,,,,,,,,,
72787094119,2024-09-01 07:53:00,FM-15,7,,,,,,,,,,,,,,,,,,,,,,,,,,,,,,,,,,,,,,,30.02,46.0,76.0,0.00,,,,35.0,29.97,CLR:00,27.71,10.00,59.0,050,,8.0,,,,,,,,,,,,,,,,,,,,,,,,,,,,,,,,,,,,,MET09009/01/24 07:53:02 METAR KDEW 011553Z 05007KT 10SM CLR 24/08 A3002 RMK AO2 SLP150 T02440078,FM-15,7,,,,,,,,,,,,,,,,,,,,,,,,,,,
72787094119,2024-09-01 08:53:00,FM-15,7,,,,,,,,,,,,,,,,,,,,,,,,,,,,,,,,,,,,,,,30.01,47.0,80.0,0.00,,,,31.0,29.97,FEW:02 110,27.7,10.00,61.0,360,,5.0,,,,,,,,,,,,,,,,,,,,,,,,,,,,,,,,,,,,,MET09309/01/24 08:53:02 METAR KDEW 011653Z 36004KT 10SM FEW110 27/08 A3001 RMK AO2 SLP150 T02670083,FM-15,7,,,,,,,,,,,,,,,,,,,,,,,,,,,
72787094119,2024-09-01 09:53:00,FM-15,7,,,,,,,,,,,,,,,,,,,,,,,,,,,,,,,,,,,,,,,30.0,47.0,85.0,0.00,,0.01,8.0,27.0,29.96,BKN:07 110,27.68,10.00,63.0,050,,7.0,,,,,,,,,,,,,,,,,,,,,,,,,,,,,,,,,,,,,MET11109/01/24 09:53:02 METAR KDEW 011753Z 05006KT 10SM BKN110 29/08 A3000 RMK AO2 SLP144 T02940083 10300 20117 58005,FM-15,7,,,,,,,,,,,,,,,,,,,,,,,,,,,
72787094119,2024-09-01 10:53:00,FM-15,7,,,,,,,,,,,,,,,,,,,,,,,,,,,,,,,,,,,,,,,29.98,45.0,90.0,0.00,,,,21.0,29.93,OVC:08 110,27.67,10.00,63.0,100,,6.0,,,,,,,,,,,,,,,,,,,,,,,,,,,,,,,,,,,,,MET09309/01/24 10:53:02 METAR KDEW 011853Z 10005KT 10SM OVC110 32/07 A2998 RMK AO2 SLP135 T03220072,FM-15,7,,,,,,,,,,,,,,,,,,,,,,,,,,,
72787094119,2024-09-01 11:53:00,FM-15,7,,,,,,,,,,,,,,,,,,,,,,,,,,,,,,,,,,,,,,,29.97,43.0,93.0,0.00,,,,18.0,29.91,OVC:08 110,27.66,10.00,64.0,000,,0.0,,,,,,,,,,,,,,,,,,,,,,,,,,,,,,,,,,,,,MET09309/01/24 11:53:02 METAR KDEW 011953Z 00000KT 10SM OVC110 34/06 A2997 RMK AO2 SLP129 T03390061,FM-15,7,,,,,,,,,,,,,,,,,,,,,,,,,,,
72787094119,2024-09-01 12:53:00,FM-15,7,,,,,,,,,,,,,,,,,,,,,,,,,,,,,,,,,,,,,,,29.95,43.0,95.0,0.00,,0.05,8.0,17.0,29.89,BKN:07 110,27.64,10.00,64.0,000,,0.0,,,,,,,,,,,,,,,,,,,,,,,,,,,,,,,,,,,,,MET09909/01/24 12:53:02 METAR KDEW 012053Z 00000KT 10SM BKN110 35/06 A2995 RMK AO2 SLP122 T03500061 58017,FM-15,7,,,,,,,,,,,,,,,,,,,,,,,,,,,
72787094119,2024-09-01 13:53:00,FM-15,7,,,,,,,,,,,,,,,,,,,,,,,,,,,,,,,,,,,,,,,29.93,39.0,95.0,0.00,,,,14.0,29.87,BKN:07 110,27.62,10.00,63.0,260,,7.0,,,,,,,,,,,,,,,,,,,,,,,,,,,,,,,,,,,,,MET09309/01/24 13:53:02 METAR KDEW 012153Z 26006KT 10SM BKN110 35/04 A2993 RMK AO2 SLP115 T03500039,FM-15,7,,,,,,,,,,,,,,,,,,,,,,,,,,,
72787094119,2024-09-01 14:53:00,FM-15,7,,,,,,,,,,,,,,,,,,,,,,,,,,,,,,,,,,,,,,,29.91,39.0,96.0,0.00,,,,14.0,29.85,BKN:07 110,27.6,10.00,63.0,290,,6.0,,,,,,,,,,,,,,,,,,,,,,,,,,,,,,,,,,,,,MET09309/01/24 14:53:02 METAR KDEW 012253Z 29005KT 10SM BKN110 36/04 A2991 RMK AO2 SLP109 T03560039,FM-15,7,,,,,,,,,,,,,,,,,,,,,,,,,,,
72787094119,2024-09-01 15:53:00,FM-15,7,,,,,,,,,,,,,,,,,,,,,,,,,,,,,,,,,,,,,,,29.9,38.0,97.0,0.00,,0.05,6.0,13.0,29.84,BKN:07 110,27.59,10.00,63.0,VRB,,3.0,,,,,,,,,,,,,,,,,,,,,,,,,,,,,,,,,,,,,MET11109/01/24 15:53:02 METAR KDEW 012353Z VRB03KT 10SM BKN110 36/03 A2990 RMK AO2 SLP105 T03610033 10361 20300 56016,FM-15,7,,,,,,,,,,,,,,,,,,,,,,,,,,,
72787094119,2024-09-01 16:53:00,FM-15,7,,,,,,,,,,,,,,,,,,,,,,,,,,,,,,,,,,,,,,,29.88,37.0,95.0,0.00,,,,13.0,29.83,BKN:07 110,27.57,10.00,62.0,000,,0.0,,,,,,,,,,,,,,,,,,,,,,,,,,,,,,,,,,,,,MET09309/01/24 16:53:03 METAR KDEW 020053Z 00000KT 10SM BKN110 35/03 A2988 RMK AO2 SLP103 T03500028,FM-15,7,,,,,,,,,,,,,,,,,,,,,,,,,,,
72787094119,2024-09-01 17:53:00,FM-15,7,,,,,,,,,,,,,,,,,,,,,,,,,,,,,,,,,,,,,,,29.87,38.0,92.0,0.00,,,,15.0,29.82,BKN:07 110,27.56,10.00,62.0,000,,0.0,,,,,,,,,,,,,,,,,,,,,,,,,,,,,,,,,,,,,MET09309/01/24 17:53:03 METAR KDEW 020153Z 00000KT 10SM BKN110 33/03 A2987 RMK AO2 SLP099 T03330033,FM-15,7,,,,,,,,,,,,,,,,,,,,,,,,,,,
72787094119,2024-09-01 18:53:00,FM-15,7,,,,,,,,,,,,,,,,,,,,,,,,,,,,,,,,,,,,,,,29.87,40.0,75.0,0.00,,0.02,5.0,28.0,29.83,BKN:07 110,27.56,10.00,56.0,000,,0.0,,,,,,,,,,,,,,,,,,,,,,,,,,,,,,,,,,,,,MET09909/01/24 18:53:03 METAR KDEW 020253Z 00000KT 10SM BKN110 24/04 A2987 RMK AO2 SLP103 T02390044 55008,FM-15,7,,,,,,,,,,,,,,,,,,,,,,,,,,,
72787094119,2024-09-01 19:53:00,FM-15,7,,,,,,,,,,,,,,,,,,,,,,,,,,,,,,,,,,,,,,,29.89,40.0,71.0,0.00,,,,32.0,29.84,SCT:04 110,27.58,10.00,54.0,000,,0.0,,,,,,,,,,,,,,,,,,,,,,,,,,,,,,,,,,,,,MET09309/01/24 19:53:03 METAR KDEW 020353Z 00000KT 10SM SCT110 22/04 A2989 RMK AO2 SLP105 T02170044,FM-15,7,,,,,,,,,,,,,,,,,,,,,,,,,,,
72787094119,2024-09-01 20:53:00,FM-15,7,,,,,,,,,,,,,,,,,,,,,,,,,,,,,,,,,,,,,,,29.9,39.0,67.0,0.00,,,,36.0,29.85,FEW:02 110,27.59,10.00,52.0,000,,0.0,,,,,,,,,,,,,,,,,,,,,,,,,,,,,,,,,,,,,MET09309/01/24 20:53:03 METAR KDEW 020453Z 00000KT 10SM FEW110 19/04 A2990 RMK AO2 SLP108 T01940039,FM-15,7,,,,,,,,,,,,,,,,,,,,,,,,,,,
72787094119,2024-09-01 21:53:00,FM-15,7,,,,,,,,,,,,,,,,,,,,,,,,,,,,,,,,,,,,,,,29.9,39.0,62.0,0.00,,-0.02,1.0,43.0,29.85,FEW:02 120,27.59,10.00,50.0,000,,0.0,,,,,,,,,,,,,,,,,,,,,,,,,,,,,,,,,,,,,MET11109/01/24 21:53:03 METAR KDEW 020553Z 00000KT 10SM FEW120 17/04 A2990 RMK AO2 SLP109 T01670039 10361 20167 51008,FM-15,7,,,,,,,,,,,,,,,,,,,,,,,,,,,
72787094119,2024-09-01 22:53:00,FM-15,7,,,,,,,,,,,,,,,,,,,,,,,,,,,,,,,,,,,,,,,29.9,39.0,60.0,0.00,,,,46.0,29.85,FEW:02 120,27.59,10.00,49.0,340,,3.0,,,,,,,,,,,,,,,,,,,,,,,,,,,,,,,,,,,,,MET09309/01/24 22:53:03 METAR KDEW 020653Z 34003KT 10SM FEW120 16/04 A2990 RMK AO2 SLP108 T01560039,FM-15,7,,,,,,,,,,,,,,,,,,,,,,,,,,,
72787094119,2024-09-01 23:53:00,FM-15,7,,,,,,,,,,,,,,,,,,,,,,,,,,,,,,,,,,,,,,,29.9,40.0,63.0,0.00,,,,43.0,29.85,CLR:00,27.59,10.00,51.0,060,,3.0,,,,,,,,,,,,,,,,,,,,,,,,,,,,,,,,,,,,,MET10009/01/24 23:53:03 METAR KDEW 020753Z 06003KT 10SM CLR 17/04 A2990 RMK AO2 SLP107 T01720044 403610117,FM-15,7,,,,,,,,,,,,,,,,,,,,,,,,,,,
72787094119,2024-09-01 23:59:00,SOD  ,6,,,,,,,,,,,,,,,,,,75.0,,,27.64,,3.1,10.0,8.6,0.0,97.0,53.0,040,13,0.00,,,30.0,9.0,,,,,,,,,,,,,,,,,,,,,,,,,,,,,,,,,,,,,,,,,,,,,,,,,,,,,,,,SOD69624 HR PRECIPITATION (IN): 0.00 24 HR MAX TEMP (F): 9724 HR MIN TEMP (F): 53AVERAGE STATION PRESSURE(D):27.642 MINIMUM SEA LEVEL PRESSURE:29.82 TIME OF OCCURRENCE:1825 PEAK WIND SPEED (MPH): 13 PEAK WIND DIR (DEG): 40 PEAK WIND TIME (LST):      FASTEST 2MIN SPEED (MPH):  9FASTEST 2MIN DIR (DEG): 30 FASTEST 2MIN TIME (LST):     AVERAGE WIND SPEED (MPH): 3.1 24 HR AVG TEMP (F): 75DEPART FROM NORMAL: 13  HEATING DEGREE DAYS:  0 COOLING DEGREE DAYS: 10 LATEST DAY MAX TEMP (0700-1900 LST): 97 LATEST NIGHT MIN TEMP(1900-0800 LST):53 HOURLY INCREMENTAL PRECIPITATION VALUES (IN):0.00 0.00 0.00 0.00 0.00 0.00 0.00 0.00 0.00 0.00 0.00 0.00 0.00 0.00 0.00 0.00 0.00 0.00 0.00 0.00 0.00 0.00 0.00 0.00,SOD  ,6,,,,,,,,,,,,,,,,,,,,,,,,,509.0,1829.0,
72787094119,2024-09-02 00:53:00,FM-15,7,,,,,,,,,,,,,,,,,,,,,,,,,,,,,,,,,,,,,,,29.9,38.0,55.0,0.00,,0.0,5.0,53.0,29.85,CLR:00,27.59,10.00,47.0,350,,3.0,,,,,,,,,,,,,,,,,,,,,,,,,,,,,,,,,,,,,MET09609/02/24 00:53:02 METAR KDEW 020853Z 35003KT 10SM CLR 13/03 A2990 RMK AO2 SLP109 T01280033 55000,FM-15,7,,,,,,,,,,,,,,,,,,,,,,,,,,,
72787094119,2024-09-02 01:53:00,FM-15,7,,,,,,,,,,,,,,,,,,,,,,,,,,,,,,,,,,,,,,,29.91,39.0,54.0,0.00,,,,57.0,29.86,SCT:04 110,27.6,10.00,47.0,030,,3.0,,,,,,,,,,,,,,,,,,,,,,,,,,,,,,,,,,,,,MET09309/02/24 01:53:02 METAR KDEW 020953Z 03003KT 10SM SCT110 12/04 A2991 RMK AO2 SLP111 T01220039,FM-15,7,,,,,,,,,,,,,,,,,,,,,,,,,,,
72787094119,2024-09-02 02:53:00,FM-15,7,,,,,,,,,,,,,,,,,,,,,,,,,,,,,,,,,,,,,,,29.9,39.0,54.0,0.00,,,,57.0,29.85,CLR:00,27.59,10.00,47.0,000,,0.0,,,,,,,,,,,,,,,,,,,,,,,,,,,,,,,,,,,,,MET09009/02/24 02:53:02 METAR KDEW 021053Z 00000KT 10SM CLR 12/04 A2990 RMK AO2 SLP110 T01220039,FM-15,7,,,,,,,,,,,,,,,,,,,,,,,,,,,
72787094119,2024-09-02 03:53:00,FM-15,7,,,,,,,,,,,,,,,,,,,,,,,,,,,,,,,,,,,,,,,29.89,38.0,51.0,0.00,,0.01,8.0,61.0,29.84,CLR:00,27.58,10.00,45.0,010,,3.0,,,,,,,,,,,,,,,,,,,,,,,,,,,,,,,,,,,,,MET10809/02/24 03:53:02 METAR KDEW 021153Z 01003KT 10SM CLR 11/03 A2989 RMK AO2 SLP106 T01060033 10178 20106 58003,FM-15,7,,,,,,,,,,,,,,,,,,,,,,,,,,,
72787094119,2024-09-02 04:53:00,FM-15,7,,,,,,,,,,,,,,,,,,,,,,,,,,,,,,,,,,,,,,,29.9,41.0,52.0,0.00,,,,66.0,29.85,CLR:00,27.59,10.00,47.0,000,,0.0,,,,,,,,,,,,,,,,,,,,,,,,,,,,,,,,,,,,,MET09009/02/24 04:53:02 METAR KDEW 021253Z 00000KT 10SM CLR 11/05 A2990 RMK AO2 SLP108 T01110050,FM-15,7,,,,,,,,,,,,,,,,,,,,,,,,,,,
72787094119,2024-09-02 05:53:00,FM-15,7,,,,,,,,,,,,,,,,,,,,,,,,,,,,,,,,,,,,,,,29.9,38.0,51.0,0.00,,,,61.0,29.86,CLR:00,27.59,10.00,45.0,000,,0.0,,,,,,,,,,,,,,,,,,,,,,,,,,,,,,,,,,,,,MET09009/02/24 05:53:02 METAR KDEW 021353Z 00000KT 10SM CLR 11/03 A2990 RMK AO2 SLP111 T01060033,FM-15,7,,,,,,,,,,,,,,,,,,,,,,,,,,,
72787094119,2024-09-02 06:53:00,FM-15,7,,,,,,,,,,,,,,,,,,,,,,,,,,,,,,,,,,,,,,,29.89,44.0,68.0,0.00,,0.0,8.0,42.0,29.85,CLR:00,27.58,10.00,55.0,040,,3.0,,,,,,,,,,,,,,,,,,,,,,,,,,,,,,,,,,,,,MET09609/02/24 06:53:02 METAR KDEW 021453Z 04003KT 10SM CLR 20/07 A2989 RMK AO2 SLP108 T02000067 58000,FM-15,7,,,,,,,,,,,,,,,,,,,,,,,,,,,
72787094119,2024-09-02 07:53:00,FM-15,7,,,,,,,,,,,,,,,,,,,,,,,,,,,,,,,,,,,,,,,29.92,45.0,75.0,0.00,,,,34.0,29.87,CLR:00,27.61,10.00,58.0,VRB,,9.0,,,,,,,,,,,,,,,,,,,,,,,,,,,,,,,,,,,,,MET09709/02/24 07:53:02 METAR KDEW 021553Z 16008KT 10SM CLR 24/07 A2992 RMK AO2 PRESRR SLP116 T02390072,FM-15,7,,,,,,,,,,,,,,,,,,,,,,,,,,,
72787094119,2024-09-02 08:53:00,FM-15,7,,,,,,,,,,,,,,,,,,,,,,,,,,,,,,,,,,,,,,,29.93,46.0,76.0,0.00,,,,35.0,29.89,CLR:00,27.62,10.00,59.0,170,,9.0,,,,,,,,,,,,,,,,,,,,,,,,,,,,,,,,,,,,,MET09009/02/24 08:53:02 METAR KDEW 021653Z 17008KT 10SM CLR 24/08 A2993 RMK AO2 SLP121 T02440078,FM-15,7,,,,,,,,,,,,,,,,,,,,,,,,,,,
72787094119,2024-09-02 09:53:00,FM-15,7,,,,,,,,,,,,,,,,,,,,,,,,,,,,,,,,,,,,,,,29.94,47.0,75.0,0.00,,-0.04,1.0,37.0,29.9,CLR:00,27.63,10.00,59.0,150,,8.0,,,,,,,,,,,,,,,,,,,,,,,,,,,,,,,,,,,,,MET10809/02/24 09:53:02 METAR KDEW 021753Z 15007KT 10SM CLR 24/08 A2994 RMK AO2 SLP126 T02390083 10244 20100 51015,FM-15,7,,,,,,,,,,,,,,,,,,,,,,,,,,,
72787094119,2024-09-02 10:53:00,FM-15,7,,,,,,,,,,,,,,,,,,,,,,,,,,,,,,,,,,,,,,,29.91,44.0,79.0,0.00,,,,29.0,29.87,CLR:00,27.6,10.00,59.0,000,,0.0,,,,,,,,,,,,,,,,,,,,,,,,,,,,,,,,,,,,,MET09009/02/24 10:53:02 METAR KDEW 021853Z 00000KT 10SM CLR 26/07 A2991 RMK AO2 SLP114 T02610067,FM-15,7,,,,,,,,,,,,,,,,,,,,,,,,,,,
72787094119,2024-09-02 11:53:00,FM-15,7,,,,,,,,,,,,,,,,,,,,,,,,,,,,,,,,,,,,,,,29.92,42.0,80.0,0.00,,,,26.0,29.88,CLR:00,27.61,10.00,59.0,230,,5.0,,,,,,,,,,,,,,,,,,,,,,,,,,,,,,,,,,,,,MET09009/02/24 11:53:02 METAR KDEW 021953Z 23004KT 10SM CLR 27/06 A2992 RMK AO2 SLP118 T02670056,FM-15,7,,,,,,,,,,,,,,,,,,,,,,,,,,,
72787094119,2024-09-02 12:53:00,FM-15,7,,,,,,,,,,,,,,,,,,,,,,,,,,,,,,,,,,,,,,,29.93,47.0,79.0,0.00,,0.01,5.0,32.0,29.9,CLR:00,27.62,10.00,60.0,170,,5.0,,,,,,,,,,,,,,,,,,,,,,,,,,,,,,,,,,,,,MET09609/02/24 12:53:02 METAR KDEW 022053Z 17004KT 10SM CLR 26/08 A2993 RMK AO2 SLP124 T02610083 55003,FM-15,7,,,,,,,,,,,,,,,,,,,,,,,,,,,
72787094119,2024-09-02 13:53:00,FM-15,7,,,,,,,,,,,,,,,,,,,,,,,,,,,,,,,,,,,,,,,29.93,45.0,81.0,0.00,,,,28.0,29.9,CLR:00,27.62,10.00,60.0,190,,9.0,,,,,,,,,,,,,,,,,,,,,,,,,,,,,,,,,,,,,MET09009/02/24 13:53:02 METAR KDEW 022153Z 19008KT 10SM CLR 27/07 A2993 RMK AO2 SLP125 T02720072,FM-15,7,,,,,,,,,,,,,,,,,,,,,,,,,,,
72787094119,2024-09-02 14:53:00,FM-15,7,,,,,,,,,,,,,,,,,,,,,,,,,,,,,,,,,,,,,,,29.92,45.0,80.0,0.00,,,,29.0,29.89,CLR:00,27.61,10.00,60.0,170,,3.0,,,,,,,,,,,,,,,,,,,,,,,,,,,,,,,,,,,,,MET09009/02/24 14:53:02 METAR KDEW 022253Z 17003KT 10SM CLR 27/07 A2992 RMK AO2 SLP121 T02670072,FM-15,7,,,,,,,,,,,,,,,,,,,,,,,,,,,
72787094119,2024-09-02 15:53:00,FM-15,7,,,,,,,,,,,,,,,,,,,,,,,,,,,,,,,,,,,,,,,29.89,42.0,81.0,0.00,,0.04,8.0,25.0,29.86,CLR:00,27.58,10.00,59.0,330,,6.0,,,,,,,,,,,,,,,,,,,,,,,,,,,,,,,,,,,,,MET10809/02/24 15:53:02 METAR KDEW 022353Z 33005KT 10SM CLR 27/06 A2989 RMK AO2 SLP113 T02720056 10278 20239 58012,FM-15,7,,,,,,,,,,,,,,,,,,,,,,,,,,,
72787094119,2024-09-02 16:53:00,FM-15,7,,,,,,,,,,,,,,,,,,,,,,,,,,,,,,,,,,,,,,,29.87,43.0,84.0,0.00,,,,24.0,29.84,FEW:02 120,27.56,10.00,61.0,060,,9.0,,,,,,,,,,,,,,,,,,,,,,,,,,,,,,,,,,,,,MET09309/02/24 16:53:03 METAR KDEW 030053Z 06008KT 10SM FEW120 29/06 A2987 RMK AO2 SLP104 T02890061,FM-15,7,,,,,,,,,,,,,,,,,,,,,,,,,,,
72787094119,2024-09-02 17:53:00,FM-15,7,,,,,,,,,,,,,,,,,,,,,,,,,,,,,,,,,,,,,,,29.86,44.0,78.0,0.00,,,,30.0,29.83,BKN:07 110,27.55,10.00,59.0,340,,5.0,,,,,,,,,,,,,,,,,,,,,,,,,,,,,,,,,,,,,MET09309/02/24 17:53:03 METAR KDEW 030153Z 34004KT 10SM BKN110 26/07 A2986 RMK AO2 SLP103 T02560067,FM-15,7,,,,,,,,,,,,,,,,,,,,,,,,,,,
72787094119,2024-09-02 18:53:00,FM-15,7,,,,,,,,,,,,,,,,,,,,,,,,,,,,,,,,,,,,,,,29.87,44.0,68.0,0.00,,0.02,5.0,42.0,29.84,SCT:04 110,27.56,10.00,55.0,060,,3.0,,,,,,,,,,,,,,,,,,,,,,,,,,,,,,,,,,,,,MET09909/02/24 18:53:03 METAR KDEW 030253Z 06003KT 10SM SCT110 20/07 A2987 RMK AO2 SLP105 T02000067 55006,FM-15,7,,,,,,,,,,,,,,,,,,,,,,,,,,,
72787094119,2024-09-02 19:53:00,FM-15,7,,,,,,,,,,,,,,,,,,,,,,,,,,,,,,,,,,,,,,,29.88,42.0,60.0,0.00,,,,52.0,29.84,CLR:00,27.57,10.00,51.0,330,,3.0,,,,,,,,,,,,,,,,,,,,,,,,,,,,,,,,,,,,,MET09009/02/24 19:53:01 METAR KDEW 030353Z 33003KT 10SM CLR 16/06 A2988 RMK AO2 SLP106 T01560056,FM-15,7,,,,,,,,,,,,,,,,,,,,,,,,,,,
72787094119,2024-09-02 20:53:00,FM-15,7,,,,,,,,,,,,,,,,,,,,,,,,,,,,,,,,,,,,,,,29.89,42.0,61.0,0.00,,,,50.0,29.85,FEW:02 120,27.58,10.00,51.0,320,,6.0,,,,,,,,,,,,,,,,,,,,,,,,,,,,,,,,,,,,,MET09309/02/24 20:53:01 METAR KDEW 030453Z 32005KT 10SM FEW120 16/06 A2989 RMK AO2 SLP108 T01610056,FM-15,7,,,,,,,,,,,,,,,,,,,,,,,,,,,
72787094119,2024-09-02 21:53:00,FM-15,7,,,,,,,,,,,,,,,,,,,,,,,,,,,,,,,,,,,,,,,29.89,43.0,60.0,0.00,,-0.01,1.0,53.0,29.85,CLR:00,27.58,10.00,51.0,000,,0.0,,,,,,,,,,,,,,,,,,,,,,,,,,,,,,,,,,,,,MET10809/02/24 21:53:01 METAR KDEW 030553Z 00000KT 10SM CLR 16/06 A2989 RMK AO2 SLP109 T01560061 10289 20139 51004,FM-15,7,,,,,,,,,,,,,,,,,,,,,,,,,,,
72787094119,2024-09-02 22:53:00,FM-15,7,,,,,,,,,,,,,,,,,,,,,,,,,,,,,,,,,,,,,,,29.92,43.0,60.0,0.00,,,,53.0,29.88,CLR:00,27.61,10.00,51.0,000,,0.0,,,,,,,,,,,,,,,,,,,,,,,,,,,,,,,,,,,,,MET09709/02/24 22:53:01 METAR KDEW 030653Z 00000KT 10SM CLR 16/06 A2992 RMK AO2 PRESRR SLP119 T01560061,FM-15,7,,,,,,,,,,,,,,,,,,,,,,,,,,,
72787094119,2024-09-02 23:53:00,FM-15,7,,,,,,,,,,,,,,,,,,,,,,,,,,,,,,,,,,,,,,,29.92,43.0,59.0,0.00,,,,56.0,29.88,CLR:00,27.61,10.00,51.0,000,,0.0,,,,,,,,,,,,,,,,,,,,,,,,,,,,,,,,,,,,,MET10009/02/24 23:53:01 METAR KDEW 030753Z 00000KT 10SM CLR 15/06 A2992 RMK AO2 SLP117 T01500061 402890100,FM-15,7,,,,,,,,,,,,,,,,,,,,,,,,,,,
72787094119,2024-09-02 23:59:00,SOD  ,6,,,,,,,,,,,,,,,,,,67.0,,,27.6,,3.9,2.0,0.8,0.0,84.0,50.0,210,21,0.00,,,200.0,17.0,,,,,,,,,,,,,,,,,,,,,,,,,,,,,,,,,,,,,,,,,,,,,,,,,,,,,,,,SOD69624 HR PRECIPITATION (IN): 0.00 24 HR MAX TEMP (F): 8424 HR MIN TEMP (F): 50AVERAGE STATION PRESSURE(D):27.595 MINIMUM SEA LEVEL PRESSURE:29.83 TIME OF OCCURRENCE:1841 PEAK WIND SPEED (MPH): 21 PEAK WIND DIR (DEG):210 PEAK WIND TIME (LST):      FASTEST 2MIN SPEED (MPH): 17FASTEST 2MIN DIR (DEG):200 FASTEST 2MIN TIME (LST):     AVERAGE WIND SPEED (MPH): 3.9 24 HR AVG TEMP (F): 67DEPART FROM NORMAL:  6  HEATING DEGREE DAYS:  0 COOLING DEGREE DAYS:  2 LATEST DAY MAX TEMP (0700-1900 LST): 84 LATEST NIGHT MIN TEMP(1900-0800 LST):50 HOURLY INCREMENTAL PRECIPITATION VALUES (IN):0.00 0.00 0.00 0.00 0.00 0.00 0.00 0.00 0.00 0.00 0.00 0.00 0.00 0.00 0.00 0.00 0.00 0.00 0.00 0.00 0.00 0.00 0.00 0.00,SOD  ,6,,,,,,,,,,,,,,,,,,,,,,,,,510.0,1827.0,
72787094119,2024-09-03 00:53:00,FM-15,7,,,,,,,,,,,,,,,,,,,,,,,,,,,,,,,,,,,,,,,29.91,43.0,61.0,0.00,,-0.02,0.0,52.0,29.87,CLR:00,27.6,10.00,52.0,360,,5.0,,,,,,,,,,,,,,,,,,,,,,,,,,,,,,,,,,,,,MET09609/03/24 00:53:01 METAR KDEW 030853Z 36004KT 10SM CLR 16/06 A2991 RMK AO2 SLP115 T01610061 50007,FM-15,7,,,,,,,,,,,,,,,,,,,,,,,,,,,
72787094119,2024-09-03 01:53:00,FM-15,7,,,,,,,,,,,,,,,,,,,,,,,,,,,,,,,,,,,,,,,29.95,44.0,60.0,0.00,,,,56.0,29.91,FEW:02 120,27.64,10.00,52.0,100,,5.0,,,,,,,,,,,,,,,,,,,,,,,,,,,,,,,,,,,,,MET09309/03/24 01:53:01 METAR KDEW 030953Z 10004KT 10SM FEW120 16/07 A2995 RMK AO2 SLP127 T01560067,FM-15,7,,,,,,,,,,,,,,,,,,,,,,,,,,,
72787094119,2024-09-03 02:53:00,FM-15,7,,,,,,,,,,,,,,,,,,,,,,,,,,,,,,,,,,,,,,,29.97,46.0,59.0,0.00,,,,62.0,29.93,FEW:02 120,27.66,10.00,52.0,170,,7.0,,,,,,,,,,,,,,,,,,,,,,,,,,,,,,,,,,,,,MET09309/03/24 02:53:01 METAR KDEW 031053Z 17006KT 10SM FEW120 15/08 A2997 RMK AO2 SLP136 T01500078,FM-15,7,,,,,,,,,,,,,,,,,,,,,,,,,,,
72787094119,2024-09-03 03:53:00,FM-15,7,,,,,,,,,,,,,,,,,,,,,,,,,,,,,,,,,,,,,,,30.01,46.0,61.0,0.00,,-0.09,1.0,58.0,29.97,CLR:00,27.7,10.00,53.0,190,,5.0,,,,,,,,,,,,,,,,,,,,,,,,,,,,,,,,,,,,,MET10809/03/24 03:53:01 METAR KDEW 031153Z 19004KT 10SM CLR 16/08 A3001 RMK AO2 SLP148 T01610078 10167 20139 51030,FM-15,7,,,,,,,,,,,,,,,,,,,,,,,,,,,
72787094119,2024-09-03 04:53:00,FM-15,7,,,,,,,,,,,,,,,,,,,,,,,,,,,,,,,,,,,,,,,30.03,51.0,63.0,0.00,,,,65.0,29.98,BKN:07 120,27.71,10.00,56.0,200,,6.0,,,,,,,,,,,,,,,,,,,,,,,,,,,,,,,,,,,,,MET09309/03/24 04:53:01 METAR KDEW 031253Z 20005KT 10SM BKN120 17/11 A3003 RMK AO2 SLP152 T01720106,FM-15,7,,,,,,,,,,,,,,,,,,,,,,,,,,,
72787094119,2024-09-03 05:53:00,FM-15,7,,,,,,,,,,,,,,,,,,,,,,,,,,,,,,,,,,,,,,,30.04,52.0,61.0,0.00,,,,72.0,30.01,FEW:02 120,27.72,10.00,56.0,170,,5.0,,,,,,,,,,,,,,,,,,,,,,,,,,,,,,,,,,,,,MET09309/03/24 05:53:01 METAR KDEW 031353Z 17004KT 10SM FEW120 16/11 A3004 RMK AO2 SLP161 T01610111,FM-15,7,,,,,,,,,,,,,,,,,,,,,,,,,,,
72787094119,2024-09-03 06:53:00,FM-15,7,,,,,,,,,,,,,,,,,,,,,,,,,,,,,,,,,,,,,,,30.05,51.0,65.0,0.00,,-0.04,1.0,61.0,30.02,CLR:00,27.73,10.00,57.0,150,,3.0,,,,,,,,,,,,,,,,,,,,,,,,,,,,,,,,,,,,,MET09609/03/24 06:53:01 METAR KDEW 031453Z 15003KT 10SM CLR 18/11 A3005 RMK AO2 SLP165 T01830106 51014,FM-15,7,,,,,,,,,,,,,,,,,,,,,,,,,,,
72787094119,2024-09-03 07:53:00,FM-15,7,,,,,,,,,,,,,,,,,,,,,,,,,,,,,,,,,,,,,,,30.06,51.0,68.0,0.00,,,,55.0,30.04,CLR:00,27.74,10.00,58.0,180,,7.0,,,,,,,,,,,,,,,,,,,,,,,,,,,,,,,,,,,,,MET09009/03/24 07:53:01 METAR KDEW 031553Z 18006KT 10SM CLR 20/11 A3006 RMK AO2 SLP173 T02000106,FM-15,7,,,,,,,,,,,,,,,,,,,,,,,,,,,
72787094119,2024-09-03 08:53:00,FM-15,7,,,,,,,,,,,,,,,,,,,,,,,,,,,,,,,,,,,,,,,30.08,51.0,70.0,0.00,,,,51.0,30.06,CLR:00,27.76,10.00,59.0,200,,7.0,,,,,,,,,,,,,,,,,,,,,,,,,,,,,,,,,,,,,MET09009/03/24 08:53:01 METAR KDEW 031653Z 20006KT 10SM CLR 21/11 A3008 RMK AO2 SLP179 T02110106,FM-15,7,,,,,,,,,,,,,,,,,,,,,,,,,,,
72787094119,2024-09-03 09:53:00,FM-15,7,,,,,,,,,,,,,,,,,,,,,,,,,,,,,,,,,,,,,,,30.09,52.0,71.0,0.00,,-0.04,1.0,51.0,30.06,FEW:02 120,27.77,10.00,60.0,VRB,,6.0,,,,,,,,,,,,,,,,,,,,,,,,,,,,,,,,,,,,,MET11109/03/24 09:53:01 METAR KDEW 031753Z VRB05KT 10SM FEW120 22/11 A3009 RMK AO2 SLP181 T02170111 10222 20156 51013,FM-15,7,,,,,,,,,,,,,,,,,,,,,,,,,,,
72787094119,2024-09-03 10:53:00,FM-15,7,,,,,,,,,,,,,,,,,,,,,,,,,,,,,,,,,,,,,,,30.09,53.0,75.0,0.00,,,,46.0,30.06,FEW:02 110,27.77,10.00,62.0,190,,10.0,,,,,,,,,,,,,,,,,,,,,,,,,,,,,,,,,,,,,MET09309/03/24 10:53:01 METAR KDEW 031853Z 19009KT 10SM FEW110 24/12 A3009 RMK AO2 SLP179 T02390117,FM-15,7,,,,,,,,,,,,,,,,,,,,,,,,,,,
72787094119,2024-09-03 11:53:00,FM-15,7,,,,,,,,,,,,,,,,,,,,,,,,,,,,,,,,,,,,,,,30.1,52.0,76.0,0.00,,,,43.0,30.06,FEW:02 100,27.78,10.00,62.0,160,,8.0,,,,,,,,,,,,,,,,,,,,,,,,,,,,,,,,,,,,,MET09309/03/24 11:53:01 METAR KDEW 031953Z 16007KT 10SM FEW100 24/11 A3010 RMK AO2 SLP181 T02440111,FM-15,7,,,,,,,,,,,,,,,,,,,,,,,,,,,
72787094119,2024-09-03 12:53:00,FM-15,7,,,,,,,,,,,,,,,,,,,,,,,,,,,,,,,,,,,,,,,30.09,52.0,79.0,0.00,,-0.0,0.0,39.0,30.05,FEW:02 110,27.77,10.00,63.0,VRB,17.0,6.0,,,,,,,,,,,,,,,,,,,,,,,,,,,,,,,,,,,,,MET10209/03/24 12:53:01 METAR KDEW 032053Z VRB05G15KT 10SM FEW110 26/11 A3009 RMK AO2 SLP177 T02610111 50000,FM-15,7,,,,,,,,,,,,,,,,,,,,,,,,,,,
72787094119,2024-09-03 13:53:00,FM-15,7,,,,,,,,,,,,,,,,,,,,,,,,,,,,,,,,,,,,,,,30.08,51.0,81.0,0.00,,,,35.0,30.04,BKN:07 110,27.76,10.00,63.0,210,20.0,10.0,,,,,,,,,,,,,,,,,,,,,,,,,,,,,,,,,,,,,MET09609/03/24 13:53:01 METAR KDEW 032153Z 21009G17KT 10SM BKN110 27/11 A3008 RMK AO2 SLP174 T02720106,FM-15,7,,,,,,,,,,,,,,,,,,,,,,,,,,,
72787094119,2024-09-03 14:53:00,FM-15,7,,,,,,,,,,,,,,,,,,,,,,,,,,,,,,,,,,,,,,,30.07,50.0,82.0,0.00,,,,33.0,30.03,BKN:07 110,27.75,10.00,63.0,230,18.0,10.0,,,,,,,,,,,,,,,,,,,,,,,,,,,,,,,,,,,,,MET09609/03/24 14:53:02 METAR KDEW 032253Z 23009G16KT 10SM BKN110 28/10 A3007 RMK AO2 SLP169 T02780100,FM-15,7,,,,,,,,,,,,,,,,,,,,,,,,,,,
72787094119,2024-09-03 15:53:00,FM-15,7,,,,,,,,,,,,,,,,,,,,,,,,,,,,,,,,,,,,,,,30.06,50.0,83.0,0.00,,0.03,6.0,32.0,30.02,BKN:07 110,27.74,10.00,63.0,180,,10.0,,,,,,,,,,,,,,,,,,,,,,,,,,,,,,,,,,,,,MET11109/03/24 15:53:02 METAR KDEW 032353Z 18009KT 10SM BKN110 28/10 A3006 RMK AO2 SLP166 T02830100 10283 20217 56009,FM-15,7,,,,,,,,,,,,,,,,,,,,,,,,,,,
72787094119,2024-09-03 16:53:00,FM-15,7,,,,,,,,,,,,,,,,,,,,,,,,,,,,,,,,,,,,,,,30.06,50.0,82.0,0.00,,,,33.0,30.01,BKN:07 110,27.74,10.00,63.0,180,,10.0,,,,,,,,,,,,,,,,,,,,,,,,,,,,,,,,,,,,,MET09309/03/24 16:53:01 METAR KDEW 040053Z 18009KT 10SM BKN110 28/10 A3006 RMK AO2 SLP163 T02780100,FM-15,7,,,,,,,,,,,,,,,,,,,,,,,,,,,
72787094119,2024-09-03 17:53:00,FM-15,7,,,,,,,,,,,,,,,,,,,,,,,,,,,,,,,,,,,,,,,30.06,50.0,78.0,0.00,,,,37.0,30.02,BKN:07 110,27.74,10.00,61.0,190,,9.0,,,,,,,,,,,,,,,,,,,,,,,,,,,,,,,,,,,,,MET09309/03/24 17:53:01 METAR KDEW 040153Z 19008KT 10SM BKN110 26/10 A3006 RMK AO2 SLP167 T02560100,FM-15,7,,,,,,,,,,,,,,,,,,,,,,,,,,,
72787094119,2024-09-03 18:53:00,FM-15,7,,,,,,,,,,,,,,,,,,,,,,,,,,,,,,,,,,,,,,,30.07,51.0,70.0,0.00,,-0.01,3.0,51.0,30.04,SCT:04 110,27.75,10.00,59.0,170,,6.0,,,,,,,,,,,,,,,,,,,,,,,,,,,,,,,,,,,,,MET09909/03/24 18:53:01 METAR KDEW 040253Z 17005KT 10SM SCT110 21/11 A3007 RMK AO2 SLP172 T02110106 53003,FM-15,7,,,,,,,,,,,,,,,,,,,,,,,,,,,
72787094119,2024-09-03 19:53:00,FM-15,7,,,,,,,,,,,,,,,,,,,,,,,,,,,,,,,,,,,,,,,30.09,49.0,67.0,0.00,,,,53.0,30.06,FEW:02 110,27.77,10.00,57.0,180,,5.0,,,,,,,,,,,,,,,,,,,,,,,,,,,,,,,,,,,,,MET09309/03/24 19:53:01 METAR KDEW 040353Z 18004KT 10SM FEW110 19/09 A3009 RMK AO2 SLP178 T01940094,FM-15,7,,,,,,,,,,,,,,,,,,,,,,,,,,,
72787094119,2024-09-03 20:53:00,FM-15,7,,,,,,,,,,,,,,,,,,,,,,,,,,,,,,,,,,,,,,,30.11,45.0,62.0,0.00,,,,54.0,30.08,FEW:02 110,27.79,10.00,53.0,170,,3.0,,,,,,,,,,,,,,,,,,,,,,,,,,,,,,,,,,,,,MET09309/03/24 20:53:01 METAR KDEW 040453Z 17003KT 10SM FEW110 17/07 A3011 RMK AO2 SLP186 T01670072,FM-15,7,,,,,,,,,,,,,,,,,,,,,,,,,,,
72787094119,2024-09-03 21:53:00,FM-15,7,,,,,,,,,,,,,,,,,,,,,,,,,,,,,,,,,,,,,,,30.12,46.0,61.0,0.00,,-0.04,1.0,58.0,30.09,FEW:02 120,27.8,10.00,53.0,000,,0.0,,,,,,,,,,,,,,,,,,,,,,,,,,,,,,,,,,,,,MET11109/03/24 21:53:01 METAR KDEW 040553Z 00000KT 10SM FEW120 16/08 A3012 RMK AO2 SLP190 T01610078 10289 20150 51015,FM-15,7,,,,,,,,,,,,,,,,,,,,,,,,,,,
72787094119,2024-09-03 22:53:00,FM-15,7,,,,,,,,,,,,,,,,,,,,,,,,,,,,,,,,,,,,,,,30.13,46.0,59.0,0.00,,,,62.0,30.1,FEW:02 110,27.81,10.00,52.0,000,,0.0,,,,,,,,,,,,,,,,,,,,,,,,,,,,,,,,,,,,,MET09309/03/24 22:53:01 METAR KDEW 040653Z 00000KT 10SM FEW110 15/08 A3013 RMK AO2 SLP194 T01500078,FM-15,7,,,,,,,,,,,,,,,,,,,,,,,,,,,
72787094119,2024-09-03 23:53:00,FM-15,7,,,,,,,,,,,,,,,,,,,,,,,,,,,,,,,,,,,,,,,30.15,45.0,57.0,0.00,,,,64.0,30.12,CLR:00,27.83,10.00,51.0,000,,0.0,,,,,,,,,,,,,,,,,,,,,,,,,,,,,,,,,,,,,MET10009/03/24 23:53:01 METAR KDEW 040753Z 00000KT 10SM CLR 14/07 A3015 RMK AO2 SLP200 T01390072 402890128,FM-15,7,,,,,,,,,,,,,,,,,,,,,,,,,,,
72787094119,2024-09-03 23:59:00,SOD  ,6,,,,,,,,,,,,,,,,,,70.0,,,27.74,,5.9,5.0,3.9,0.0,84.0,55.0,250,20,0.00,,,220.0,14.0,,,,,,,,,,,,,,,,,,,,,,,,,,,,,,,,,,,,,,,,,,,,,,,,,,,,,,,,SOD69624 HR PRECIPITATION (IN): 0.00 24 HR MAX TEMP (F): 8424 HR MIN TEMP (F): 55AVERAGE STATION PRESSURE(D):27.743 MINIMUM SEA LEVEL PRESSURE:29.87 TIME OF OCCURRENCE:0113 PEAK WIND SPEED (MPH): 20 PEAK WIND DIR (DEG):250 PEAK WIND TIME (LST):      FASTEST 2MIN SPEED (MPH): 14FASTEST 2MIN DIR (DEG):220 FASTEST 2MIN TIME (LST):     AVERAGE WIND SPEED (MPH): 5.9 24 HR AVG TEMP (F): 70DEPART FROM NORMAL:  9  HEATING DEGREE DAYS:  0 COOLING DEGREE DAYS:  5 LATEST DAY MAX TEMP (0700-1900 LST): 84 LATEST NIGHT MIN TEMP(1900-0800 LST):57 HOURLY INCREMENTAL PRECIPITATION VALUES (IN):0.00 0.00 0.00 0.00 0.00 0.00 0.00 0.00 0.00 0.00 0.00 0.00 0.00 0.00 0.00 0.00 0.00 0.00 0.00 0.00 0.00 0.00 0.00 0.00,SOD  ,6,,,,,,,,,,,,,,,,,,,,,,,,,512.0,1825.0,
72787094119,2024-09-04 00:53:00,FM-15,7,,,,,,,,,,,,,,,,,,,,,,,,,,,,,,,,,,,,,,,30.16,45.0,54.0,0.00,,-0.04,1.0,72.0,30.13,FEW:02 120,27.83,10.00,49.0,070,,3.0,,,,,,,,,,,,,,,,,,,,,,,,,,,,,,,,,,,,,MET09909/04/24 00:53:02 METAR KDEW 040853Z 07003KT 10SM FEW120 12/07 A3016 RMK AO2 SLP203 T01220072 51013,FM-15,7,,,,,,,,,,,,,,,,,,,,,,,,,,,
72787094119,2024-09-04 01:53:00,FM-15,7,,,,,,,,,,,,,,,,,,,,,,,,,,,,,,,,,,,,,,,30.16,43.0,51.0,0.00,,,,74.0,30.14,FEW:02 120,27.83,10.00,47.0,000,,0.0,,,,,,,,,,,,,,,,,,,,,,,,,,,,,,,,,,,,,MET09309/04/24 01:53:02 METAR KDEW 040953Z 00000KT 10SM FEW120 11/06 A3016 RMK AO2 SLP206 T01060061,FM-15,7,,,,,,,,,,,,,,,,,,,,,,,,,,,
72787094119,2024-09-04 02:53:00,FM-15,7,,,,,,,,,,,,,,,,,,,,,,,,,,,,,,,,,,,,,,,30.18,44.0,51.0,0.00,,,,77.0,30.15,CLR:00,27.85,10.00,47.0,000,,0.0,,,,,,,,,,,,,,,,,,,,,,,,,,,,,,,,,,,,,MET09009/04/24 02:53:02 METAR KDEW 041053Z 00000KT 10SM CLR 11/07 A3018 RMK AO2 SLP211 T01060067,FM-15,7,,,,,,,,,,,,,,,,,,,,,,,,,,,
72787094119,2024-09-04 03:53:00,FM-15,7,,,,,,,,,,,,,,,,,,,,,,,,,,,,,,,,,,,,,,,30.19,44.0,51.0,0.00,,-0.04,3.0,77.0,30.16,CLR:00,27.86,10.00,47.0,050,,3.0,,,,,,,,,,,,,,,,,,,,,,,,,,,,,,,,,,,,,MET10809/04/24 03:53:02 METAR KDEW 041153Z 05003KT 10SM CLR 11/07 A3019 RMK AO2 SLP215 T01060067 10161 20094 53012,FM-15,7,,,,,,,,,,,,,,,,,,,,,,,,,,,
72787094119,2024-09-04 04:53:00,FM-15,7,,,,,,,,,,,,,,,,,,,,,,,,,,,,,,,,,,,,,,,30.21,42.0,47.0,0.00,,,,83.0,30.19,CLR:00,27.88,10.00,45.0,340,,5.0,,,,,,,,,,,,,,,,,,,,,,,,,,,,,,,,,,,,,MET09009/04/24 04:53:02 METAR KDEW 041253Z 34004KT 10SM CLR 08/06 A3021 RMK AO2 SLP222 T00830056,FM-15,7,,,,,,,,,,,,,,,,,,,,,,,,,,,
72787094119,2024-09-04 05:53:00,FM-15,7,,,,,,,,,,,,,,,,,,,,,,,,,,,,,,,,,,,,,,,30.23,43.0,48.0,0.00,,,,83.0,30.21,CLR:00,27.9,10.00,46.0,000,,0.0,,,,,,,,,,,,,,,,,,,,,,,,,,,,,,,,,,,,,MET09009/04/24 05:53:02 METAR KDEW 041353Z 00000KT 10SM CLR 09/06 A3023 RMK AO2 SLP229 T00890061,FM-15,7,,,,,,,,,,,,,,,,,,,,,,,,,,,
72787094119,2024-09-04 06:53:00,FM-15,7,,,,,,,,,,,,,,,,,,,,,,,,,,,,,,,,,,,,,,,30.24,48.0,63.0,0.00,,-0.04,1.0,58.0,30.22,CLR:00,27.91,10.00,55.0,000,,0.0,,,,,,,,,,,,,,,,,,,,,,,,,,,,,,,,,,,,,MET09609/04/24 06:53:02 METAR KDEW 041453Z 00000KT 10SM CLR 17/09 A3024 RMK AO2 SLP232 T01720089 51015,FM-15,7,,,,,,,,,,,,,,,,,,,,,,,,,,,
72787094119,2024-09-04 07:53:00,FM-15,7,,,,,,,,,,,,,,,,,,,,,,,,,,,,,,,,,,,,,,,30.25,51.0,68.0,0.00,,,,55.0,30.22,CLR:00,27.92,10.00,58.0,000,,0.0,,,,,,,,,,,,,,,,,,,,,,,,,,,,,,,,,,,,,MET09009/04/24 07:53:02 METAR KDEW 041553Z 00000KT 10SM CLR 20/11 A3025 RMK AO2 SLP235 T02000106,FM-15,7,,,,,,,,,,,,,,,,,,,,,,,,,,,
72787094119,2024-09-04 08:53:00,FM-15,7,,,,,,,,,,,,,,,,,,,,,,,,,,,,,,,,,,,,,,,30.27,49.0,73.0,0.00,,,,43.0,30.24,FEW:02 120,27.94,10.00,59.0,170,,5.0,,,,,,,,,,,,,,,,,,,,,,,,,,,,,,,,,,,,,MET09309/04/24 08:53:02 METAR KDEW 041653Z 17004KT 10SM FEW120 23/09 A3027 RMK AO2 SLP239 T02280094,FM-15,7,,,,,,,,,,,,,,,,,,,,,,,,,,,
72787094119,2024-09-04 09:53:00,FM-15,7,,,,,,,,,,,,,,,,,,,,,,,,,,,,,,,,,,,,,,,30.27,49.0,76.0,0.00,,-0.02,1.0,39.0,30.24,FEW:02 110,27.94,10.00,60.0,VRB,,3.0,,,,,,,,,,,,,,,,,,,,,,,,,,,,,,,,,,,,,MET11109/04/24 09:53:02 METAR KDEW 041753Z VRB03KT 10SM FEW110 24/09 A3027 RMK AO2 SLP239 T02440094 10244 20072 51008,FM-15,7,,,,,,,,,,,,,,,,,,,,,,,,,,,
72787094119,2024-09-04 10:53:00,FM-15,7,,,,,,,,,,,,,,,,,,,,,,,,,,,,,,,,,,,,,,,30.26,49.0,80.0,0.00,,,,34.0,30.23,SCT:04 110,27.93,10.00,62.0,,,,,,,,,,,,,,,,,,,,,,,,,,,,,,,,,,,,,,,,MET09309/04/24 10:53:02 METAR KDEW 041853Z      KT 10SM SCT110 27/09 A3026 RMK AO2 SLP237 T02670094,FM-15,7,,,,,,,,,,,,,,,,,,,,,,,,,,,
72787094119,2024-09-04 11:53:00,FM-15,7,,,,,,,,,,,,,,,,,,,,,,,,,,,,,,,,,,,,,,,30.26,46.0,84.0,0.00,,,,27.0,30.23,OVC:08 110,27.93,10.00,62.0,330,,5.0,,,,,,,,,,,,,,,,,,,,,,,,,,,,,,,,,,,,,MET09309/04/24 11:53:02 METAR KDEW 041953Z 33004KT 10SM OVC110 29/08 A3026 RMK AO2 SLP236 T02890078,FM-15,7,,,,,,,,,,,,,,,,,,,,,,,,,,,
72787094119,2024-09-04 12:53:00,FM-15,7,,,,,,,,,,,,,,,,,,,,,,,,,,,,,,,,,,,,,,,30.25,44.0,87.0,0.00,,0.01,8.0,22.0,30.22,OVC:08 100,27.92,10.00,62.0,250,,7.0,,,,,,,,,,,,,,,,,,,,,,,,,,,,,,,,,,,,,MET09909/04/24 12:53:02 METAR KDEW 042053Z 25006KT 10SM OVC100 31/07 A3025 RMK AO2 SLP233 T03060067 58004,FM-15,7,,,,,,,,,,,,,,,,,,,,,,,,,,,
72787094119,2024-09-04 13:53:00,FM-15,7,,,,,,,,,,,,,,,,,,,,,,,,,,,,,,,,,,,,,,,30.24,43.0,87.0,0.00,,,,21.0,30.21,OVC:08 110,27.91,10.00,62.0,200,,5.0,,,,,,,,,,,,,,,,,,,,,,,,,,,,,,,,,,,,,MET09309/04/24 13:53:02 METAR KDEW 042153Z 20004KT 10SM OVC110 31/06 A3024 RMK AO2 SLP230 T03060061,FM-15,7,,,,,,,,,,,,,,,,,,,,,,,,,,,
72787094119,2024-09-04 14:53:00,FM-15,7,,,,,,,,,,,,,,,,,,,,,,,,,,,,,,,,,,,,,,,30.23,40.0,89.0,0.00,,,,18.0,30.2,BKN:07 110,27.9,10.00,61.0,VRB,,5.0,,,,,,,,,,,,,,,,,,,,,,,,,,,,,,,,,,,,,MET09309/04/24 14:53:02 METAR KDEW 042253Z VRB04KT 10SM BKN110 32/04 A3023 RMK AO2 SLP226 T03170044,FM-15,7,,,,,,,,,,,,,,,,,,,,,,,,,,,
72787094119,2024-09-04 15:53:00,FM-15,7,,,,,,,,,,,,,,,,,,,,,,,,,,,,,,,,,,,,,,,30.23,39.0,89.0,0.00,,0.02,6.0,17.0,30.19,BKN:07 110,27.9,10.00,61.0,180,,6.0,,,,,,,,,,,,,,,,,,,,,,,,,,,,,,,,,,,,,MET11109/04/24 15:53:02 METAR KDEW 042353Z 18005KT 10SM BKN110 32/04 A3023 RMK AO2 SLP224 T03170039 10322 20244 56008,FM-15,7,,,,,,,,,,,,,,,,,,,,,,,,,,,
72787094119,2024-09-04 16:53:00,FM-15,7,,,,,,,,,,,,,,,,,,,,,,,,,,,,,,,,,,,,,,,30.23,39.0,89.0,0.00,,,,17.0,30.19,BKN:07 110,27.9,10.00,61.0,000,,0.0,,,,,,,,,,,,,,,,,,,,,,,,,,,,,,,,,,,,,MET09309/04/24 16:53:01 METAR KDEW 050053Z 00000KT 10SM BKN110 32/04 A3023 RMK AO2 SLP225 T03170039,FM-15,7,,,,,,,,,,,,,,,,,,,,,,,,,,,
72787094119,2024-09-04 17:53:00,FM-15,7,,,,,,,,,,,,,,,,,,,,,,,,,,,,,,,,,,,,,,,30.22,48.0,78.0,0.00,,,,35.0,30.2,BKN:07 110,27.89,10.00,61.0,170,,6.0,,,,,,,,,,,,,,,,,,,,,,,,,,,,,,,,,,,,,MET09309/04/24 17:53:01 METAR KDEW 050153Z 17005KT 10SM BKN110 26/09 A3022 RMK AO2 SLP227 T02560089,FM-15,7,,,,,,,,,,,,,,,,,,,,,,,,,,,
72787094119,2024-09-04 18:53:00,FM-15,7,,,,,,,,,,,,,,,,,,,,,,,,,,,,,,,,,,,,,,,30.23,40.0,71.0,0.00,,0.0,5.0,32.0,30.2,BKN:07 110,27.9,10.00,55.0,000,,0.0,,,,,,,,,,,,,,,,,,,,,,,,,,,,,,,,,,,,,MET09909/04/24 18:53:01 METAR KDEW 050253Z 00000KT 10SM BKN110 22/04 A3023 RMK AO2 SLP227 T02170044 55000,FM-15,7,,,,,,,,,,,,,,,,,,,,,,,,,,,
72787094119,2024-09-04 19:53:00,FM-15,7,,,,,,,,,,,,,,,,,,,,,,,,,,,,,,,,,,,,,,,30.24,39.0,64.0,0.00,,,,40.0,30.22,FEW:02 110,27.91,10.00,51.0,320,,3.0,,,,,,,,,,,,,,,,,,,,,,,,,,,,,,,,,,,,,MET09309/04/24 19:53:01 METAR KDEW 050353Z 32003KT 10SM FEW110 18/04 A3024 RMK AO2 SLP233 T01780039,FM-15,7,,,,,,,,,,,,,,,,,,,,,,,,,,,
72787094119,2024-09-04 20:53:00,FM-15,7,,,,,,,,,,,,,,,,,,,,,,,,,,,,,,,,,,,,,,,30.25,39.0,61.0,0.00,,,,44.0,30.23,FEW:02 120,27.92,10.00,50.0,050,,3.0,,,,,,,,,,,,,,,,,,,,,,,,,,,,,,,,,,,,,MET09309/04/24 20:53:01 METAR KDEW 050453Z 05003KT 10SM FEW120 16/04 A3025 RMK AO2 SLP236 T01610039,FM-15,7,,,,,,,,,,,,,,,,,,,,,,,,,,,
72787094119,2024-09-04 21:53:00,FM-15,7,,,,,,,,,,,,,,,,,,,,,,,,,,,,,,,,,,,,,,,30.26,39.0,58.0,0.00,,-0.03,1.0,50.0,30.24,SCT:04 110,27.93,10.00,49.0,000,,0.0,,,,,,,,,,,,,,,,,,,,,,,,,,,,,,,,,,,,,MET11109/04/24 21:53:01 METAR KDEW 050553Z 00000KT 10SM SCT110 14/04 A3026 RMK AO2 SLP239 T01440039 10317 20139 51011,FM-15,7,,,,,,,,,,,,,,,,,,,,,,,,,,,
72787094119,2024-09-04 22:53:00,FM-15,7,,,,,,,,,,,,,,,,,,,,,,,,,,,,,,,,,,,,,,,30.27,39.0,56.0,0.00,,,,53.0,30.24,SCT:04 110,27.94,10.00,48.0,000,,0.0,,,,,,,,,,,,,,,,,,,,,,,,,,,,,,,,,,,,,MET09309/04/24 22:53:01 METAR KDEW 050653Z 00000KT 10SM SCT110 13/04 A3027 RMK AO2 SLP240 T01330039,FM-15,7,,,,,,,,,,,,,,,,,,,,,,,,,,,
72787094119,2024-09-04 23:53:00,FM-15,7,,,,,,,,,,,,,,,,,,,,,,,,,,,,,,,,,,,,,,,30.27,38.0,54.0,0.00,,,,55.0,30.24,CLR:00,27.94,10.00,46.0,300,,3.0,,,,,,,,,,,,,,,,,,,,,,,,,,,,,,,,,,,,,MET10009/04/24 23:53:01 METAR KDEW 050753Z 30003KT 10SM CLR 12/03 A3027 RMK AO2 SLP240 T01220033 403220072,FM-15,7,,,,,,,,,,,,,,,,,,,,,,,,,,,
72787094119,2024-09-04 23:59:00,SOD  ,6,,,,,,,,,,,,,,,,,,68.0,,,27.91,,2.7,3.0,2.1,0.0,90.0,45.0,240,15,0.00,,,260.0,9.0,,,,,,,,,,,,,,,,,,,,,,,,,,,,,,,,,,,,,,,,,,,,,,,,,,,,,,,,SOD69224 HR PRECIPITATION (IN): 0.00 24 HR MAX TEMP (F): 9024 HR MIN TEMP (F): 45AVERAGE STATION PRESSURE:27.905 MINIMUM SEA LEVEL PRESSURE:30.12 TIME OF OCCURRENCE:0032 PEAK WIND SPEED (MPH): 15 PEAK WIND DIR (DEG):240 PEAK WIND TIME (LST):      FASTEST 2MIN SPEED (MPH):  9FASTEST 2MIN DIR (DEG):260 FASTEST 2MIN TIME (LST):     AVERAGE WIND SPEED (MPH): 2.7 24 HR AVG TEMP (F): 68DEPART FROM NORMAL:  7  HEATING DEGREE DAYS:  0 COOLING DEGREE DAYS:  3 LATEST DAY MAX TEMP (0700-1900 LST):90  LATEST NIGHT MIN TEMP(1900-0800 LST):45 HOURLY INCREMENTAL PRECIPITATION VALUES (IN):.00 0.00 0.00 0.00 0.00 0.00 0.00 0.00 0.00 0.00 0.00 0.00 0.00 0.00 0.00 0.00 0.00 0.00 0.00 0.00 0.00 0.00 0.00 0.00,SOD  ,6,,,,,,,,,,,,,,,,,,,,,,,,,513.0,1823.0,
72787094119,2024-09-05 00:53:00,FM-15,7,,,,,,,,,,,,,,,,,,,,,,,,,,,,,,,,,,,,,,,30.27,38.0,51.0,0.00,,-0.01,1.0,61.0,30.24,CLR:00,27.94,10.00,45.0,300,,3.0,,,,,,,,,,,,,,,,,,,,,,,,,,,,,,,,,,,,,MET09609/05/24 00:53:02 METAR KDEW 050853Z 30003KT 10SM CLR 11/03 A3027 RMK AO2 SLP240 T01060033 51003,FM-15,7,,,,,,,,,,,,,,,,,,,,,,,,,,,
72787094119,2024-09-05 01:53:00,FM-15,7,,,,,,,,,,,,,,,,,,,,,,,,,,,,,,,,,,,,,,,30.28,39.0,51.0,0.00,,,,64.0,30.24,CLR:00,27.95,10.00,45.0,000,,0.0,,,,,,,,,,,,,,,,,,,,,,,,,,,,,,,,,,,,,MET09009/05/24 01:53:02 METAR KDEW 050953Z 00000KT 10SM CLR 11/04 A3028 RMK AO2 SLP242 T01060039,FM-15,7,,,,,,,,,,,,,,,,,,,,,,,,,,,
72787094119,2024-09-05 02:53:00,FM-15,7,,,,,,,,,,,,,,,,,,,,,,,,,,,,,,,,,,,,,,,30.29,38.0,48.0,0.00,,,,68.0,30.26,CLR:00,27.96,10.00,43.0,000,,0.0,,,,,,,,,,,,,,,,,,,,,,,,,,,,,,,,,,,,,MET09009/05/24 02:53:02 METAR KDEW 051053Z 00000KT 10SM CLR 09/03 A3029 RMK AO2 SLP246 T00890033,FM-15,7,,,,,,,,,,,,,,,,,,,,,,,,,,,
72787094119,2024-09-05 03:53:00,FM-15,7,,,,,,,,,,,,,,,,,,,,,,,,,,,,,,,,,,,,,,,30.29,37.0,47.0,0.00,,-0.02,1.0,69.0,30.26,CLR:00,27.96,10.00,42.0,000,,0.0,,,,,,,,,,,,,,,,,,,,,,,,,,,,,,,,,,,,,MET10809/05/24 03:53:02 METAR KDEW 051153Z 00000KT 10SM CLR 08/03 A3029 RMK AO2 SLP248 T00830028 10156 20078 51006,FM-15,7,,,,,,,,,,,,,,,,,,,,,,,,,,,
72787094119,2024-09-05 04:53:00,FM-15,7,,,,,,,,,,,,,,,,,,,,,,,,,,,,,,,,,,,,,,,30.3,36.0,46.0,0.00,,,,68.0,30.27,CLR:00,27.97,10.00,41.0,000,,0.0,,,,,,,,,,,,,,,,,,,,,,,,,,,,,,,,,,,,,MET09009/05/24 04:53:02 METAR KDEW 051253Z 00000KT 10SM CLR 08/02 A3030 RMK AO2 SLP250 T00780022,FM-15,7,,,,,,,,,,,,,,,,,,,,,,,,,,,
72787094119,2024-09-05 05:53:00,FM-15,7,,,,,,,,,,,,,,,,,,,,,,,,,,,,,,,,,,,,,,,30.3,39.0,49.0,0.00,,,,69.0,30.28,CLR:00,27.97,10.00,44.0,000,,0.0,,,,,,,,,,,,,,,,,,,,,,,,,,,,,,,,,,,,,MET09009/05/24 05:53:02 METAR KDEW 051353Z 00000KT 10SM CLR 09/04 A3030 RMK AO2 SLP255 T00940039,FM-15,7,,,,,,,,,,,,,,,,,,,,,,,,,,,
