STATION,DATE,REPORT_TYPE,SOURCE,AWND,BackupDirection,BackupDistance,BackupDistanceUnit,BackupElements,BackupElevation,BackupElevationUnit,BackupEquipment,BackupLatitude,BackupLongitude,BackupName,CDSD,CLDD,DSNW,DYHF,DYTS,DailyAverageDewPointTemperature,DailyAverageDryBulbTemperature,DailyAverageRelativeHumidity,DailyAverageSeaLevelPressure,DailyAverageStationPressure,DailyAverageWetBulbTemperature,DailyAverageWindSpeed,DailyCoolingDegreeDays,DailyDepartureFromNormalAverageTemperature,DailyHeatingDegreeDays,DailyMaximumDryBulbTemperature,DailyMinimumDryBulbTemperature,DailyPeakWindDirection,DailyPeakWindSpeed,DailyPrecipitation,DailySnowDepth,DailySnowfall,DailySustainedWindDirection,DailySustainedWindSpeed,DailyWeather,HDSD,HTDD,HourlyAltimeterSetting,HourlyDewPointTemperature,HourlyDryBulbTemperature,HourlyPrecipitation,HourlyPresentWeatherType,HourlyPressureChange,HourlyPressureTendency,HourlyRelativeHumidity,HourlySeaLevelPressure,HourlySkyConditions,HourlyStationPressure,HourlyVisibility,HourlyWetBulbTemperature,HourlyWindDirection,HourlyWindGustSpeed,HourlyWindSpeed,MonthlyAverageRH,MonthlyDaysWithGT001Precip,MonthlyDaysWithGT010Precip,MonthlyDaysWithGT32Temp,MonthlyDaysWithGT90Temp,MonthlyDaysWithLT0Temp,MonthlyDaysWithLT32Temp,MonthlyDepartureFromNormalAverageTemperature,MonthlyDepartureFromNormalCoolingDegreeDays,MonthlyDepartureFromNormalHeatingDegreeDays,MonthlyDepartureFromNormalMaximumTemperature,MonthlyDepartureFromNormalMinimumTemperature,MonthlyDepartureFromNormalPrecipitation,MonthlyDewpointTemperature,MonthlyGreatestPrecip,MonthlyGreatestPrecipDate,MonthlyGreatestSnowDepth,MonthlyGreatestSnowDepthDate,MonthlyGreatestSnowfall,MonthlyGreatestSnowfallDate,MonthlyMaxSeaLevelPressureValue,MonthlyMaxSeaLevelPressureValueDate,MonthlyMaxSeaLevelPressureValueTime,MonthlyMaximumTemperature,MonthlyMeanTemperature,MonthlyMinSeaLevelPressureValue,MonthlyMinSeaLevelPressureValueDate,MonthlyMinSeaLevelPressureValueTime,MonthlyMinimumTemperature,MonthlySeaLevelPressure,MonthlyStationPressure,MonthlyTotalLiquidPrecipitation,MonthlyTotalSnowfall,MonthlyWetBulb,NormalsCoolingDegreeDay,NormalsHeatingDegreeDay,REM,REPORT_TYPE.1,SOURCE.1,ShortDurationEndDate005,ShortDurationEndDate010,ShortDurationEndDate015,ShortDurationEndDate020,ShortDurationEndDate030,ShortDurationEndDate045,ShortDurationEndDate060,ShortDurationEndDate080,ShortDurationEndDate100,ShortDurationEndDate120,ShortDurationEndDate150,ShortDurationEndDate180,ShortDurationPrecipitationValue005,ShortDurationPrecipitationValue010,ShortDurationPrecipitationValue015,ShortDurationPrecipitationValue020,ShortDurationPrecipitationValue030,ShortDurationPrecipitationValue045,ShortDurationPrecipitationValue060,ShortDurationPrecipitationValue080,ShortDurationPrecipitationValue100,ShortDurationPrecipitationValue120,ShortDurationPrecipitationValue150,ShortDurationPrecipitationValue180,Sunrise,Sunset,WindEquipmentChangeDate
A0002694297,2024-10-18 07:46:00,FM-15,6,,,,,,,,,,,,,,,,,,,,,,,,,,,,,,,,,,,,,,,30.19,43.0,49.0,,,,,80.0,30.02,BKN:07 21 OVC:08 95,29.97,10.00,46.0,,,,,,,,,,,,,,,,,,,,,,,,,,,,,,,,,,,,,,,,MET10610/18/24 07:46:02 METAR KNRA 181546Z      KT 10SM BKN021 OVC095 09/06 A3019 RMK AO2 SLP165 T00940061 PNO $,FM-15,6,,,,,,,,,,,,,,,,,,,,,,,,,,,2021-11-22
A0002694297,2024-10-18 10:46:00,FM-15,6,,,,,,,,,,,,,,,,,,,,,,,,,,,,,,,,,,,,,,,30.17,45.0,48.0,,,,,89.0,30.0,OVC:08 85,29.95,10.00,47.0,,,,,,,,,,,,,,,,,,,,,,,,,,,,,,,,,,,,,,,,MET10510/18/24 10:46:02 METAR KNRA 181846Z      KT 10SM OVC085 09/07 A3017 RMK AO2 RAE35 SLP160 T00890072 PNO $,FM-15,6,,,,,,,,,,,,,,,,,,,,,,,,,,,2021-11-22
A0002694297,2024-10-18 12:46:00,FM-15,6,,,,,,,,,,,,,,,,,,,,,,,,,,,,,,,,,,,,,,,30.11,44.0,50.0,,,0.08,8.0,80.0,29.94,FEW:02 21 OVC:08 75,29.89,10.00,47.0,,,,,,,,,,,,,,,,,,,,,,,,,,,,,,,,,,,,,,,,MET11810/18/24 12:46:02 METAR KNRA 182046Z      KT 10SM FEW021 OVC075 10/07 A3011 RMK AO2 SLP140 6//// T01000067 58027 PNO $,FM-15,6,,,,,,,,,,,,,,,,,,,,,,,,,,,2021-11-22
A0002694297,2024-10-18 13:46:00,FM-15,6,,,,,,,,,,,,,,,,,,,,,,,,,,,,,,,,,,,,,,,30.08,43.0,51.0,,,,,74.0,29.91,BKN:07 24 OVC:08 75,29.86,10.00,47.0,VRB,34.0,15.0,,,,,,,,,,,,,,,,,,,,,,,,,,,,,,,,,,,,,MET12710/18/24 13:46:02 METAR KNRA 182146Z 15013G30KT 10SM BKN024 OVC075 11/06 A3008 RMK AO2 PK WND 15030/2142 SLP130 T01060061 PNO $,FM-15,6,,,,,,,,,,,,,,,,,,,,,,,,,,,2021-11-22
A0002694297,2024-10-18 14:46:00,FM-15,6,,,,,,,,,,,,,,,,,,,,,,,,,,,,,,,,,,,,,,,30.05,44.0,51.0,,,,,77.0,29.88,BKN:07 28 OVC:08 75,29.83,10.00,48.0,150,31.0,17.0,,,,,,,,,,,,,,,,,,,,,,,,,,,,,,,,,,,,,MET13810/18/24 14:46:02 METAR KNRA 182246Z 15015G27KT 10SM BKN028 OVC075 11/07 A3005 RMK AO2 PK WND 14032/2148 RAB2149E05 SLP119 T01060067 PNO $,FM-15,6,,,,,,,,,,,,,,,,,,,,,,,,,,,2021-11-22
A0002694297,2024-10-18 15:46:00,FM-15,6,,,,,,,,,,,,,,,,,,,,,,,,,,,,,,,,,,,,,,,30.04,44.0,52.0,,-RA:02 |RA |RA,0.07,6.0,75.0,29.87,OVC:08 24,29.82,10.00,48.0,VRB,33.0,13.0,,,,,,,,,,,,,,,,,,,,,,,,,,,,,,,,,,,,,MET15410/18/24 15:46:02 METAR KNRA 182346Z 16011G29KT 10SM -RA OVC024 11/07 A3004 RMK AO2 PK WND 15033/2306 RAB22 SLP114 6//// T01110067 10111 20089 56025 PNO $,FM-15,6,,,,,,,,,,,,,,,,,,,,,,,,,,,2021-11-22
A0002694297,2024-10-18 16:46:00,FM-15,6,,,,,,,,,,,,,,,,,,,,,,,,,,,,,,,,,,,,,,,30.02,45.0,52.0,,-RA:02 |RA |RA,,,77.0,29.86,BKN:07 21 BKN:07 50 OVC:08 70,29.8,10.00,49.0,,,,,,,,,,,,,,,,,,,,,,,,,,,,,,,,,,,,,,,,MET14610/18/24 16:46:01 METAR KNRA 190046Z      KT 10SM -RA BKN021 BKN050 OVC070 11/07 A3002 RMK AO2 PK WND 17029/2348 RAE2358B31 SLP111 T01110072 PNO $,FM-15,6,,,,,,,,,,,,,,,,,,,,,,,,,,,2021-11-22
A0002694297,2024-10-18 17:46:00,FM-15,6,,,,,,,,,,,,,,,,,,,,,,,,,,,,,,,,,,,,,,,30.03,45.0,51.0,,-RA:02 |RA |RA,,,80.0,29.87,OVC:08 18,29.81,10.00,48.0,,,,,,,,,,,,,,,,,,,,,,,,,,,,,,,,,,,,,,,,MET11210/18/24 17:46:01 METAR KNRA 190146Z      KT 10SM -RA OVC018 11/07 A3003 RMK AO2 RAE25B45 SLP114 T01060072 PNO $,FM-15,6,,,,,,,,,,,,,,,,,,,,,,,,,,,2021-11-22
A0002694297,2024-10-18 18:46:00,FM-15,6,,,,,,,,,,,,,,,,,,,,,,,,,,,,,,,,,,,,,,,30.05,47.0,50.0,,-RA:02 |RA |RA,-0.02,3.0,89.0,29.89,BKN:07 17 BKN:07 31 OVC:08 65,29.83,9.00,48.0,,,,,,,,,,,,,,,,,,,,,,,,,,,,,,,,,,,,,,,,MET12810/18/24 18:46:01 METAR KNRA 190246Z      KT 9SM -RA BKN017 BKN031 OVC065 10/08 A3005 RMK AO2 SLP121 6//// T01000083 53006 PNO $,FM-15,6,,,,,,,,,,,,,,,,,,,,,,,,,,,2021-11-22
A0002694297,2024-10-18 21:46:00,FM-15,6,,,,,,,,,,,,,,,,,,,,,,,,,,,,,,,,,,,,,,,30.06,47.0,52.0,,-RA:02 |RA |RA,-0.01,3.0,83.0,29.9,FEW:02 18 OVC:08 65,29.84,10.00,49.0,170,28.0,16.0,,,,,,,,,,,,,,,,,,,,,,,,,,,,,,,,,,,,,MET16610/18/24 21:46:01 METAR KNRA 190546Z 17014G24KT 10SM -RA FEW018 OVC065 11/08 A3006 RMK AO2 PK WND 18026/0530 RAE0447B43 SLP124 6//// T01110083 10111 20100 53003 PNO $,FM-15,6,,,,,,,,,,,,,,,,,,,,,,,,,,,2021-11-22
A0002694297,2024-10-18 22:46:00,FM-15,6,,,,,,,,,,,,,,,,,,,,,,,,,,,,,,,,,,,,,,,30.1,48.0,52.0,,-RA:02 |RA |RA,,,86.0,29.93,BKN:07 16 OVC:08 70,29.88,10.00,50.0,VRB,22.0,9.0,,,,,,,,,,,,,,,,,,,,,,,,,,,,,,,,,,,,,MET13110/18/24 22:46:01 METAR KNRA 190646Z 14008G19KT 10SM -RA BKN016 OVC070 11/09 A3010 RMK AO2 PK WND 18028/0551 SLP135 T01110089 PNO $,FM-15,6,,,,,,,,,,,,,,,,,,,,,,,,,,,2021-11-22
A0002694297,2024-10-18 23:46:00,FM-15,6,,,,,,,,,,,,,,,,,,,,,,,,,,,,,,,,,,,,,,,30.08,49.0,52.0,,-RA:02 |RA |RA,,,89.0,29.92,BKN:07 17 BKN:07 60 OVC:08 70,29.86,10.00,50.0,140,20.0,7.0,,,,,,,,,,,,,,,,,,,,,,,,,,,,,,,,,,,,,MET13010/18/24 23:46:01 METAR KNRA 190746Z 14006G17KT 10SM -RA BKN017 BKN060 OVC070 11/09 A3008 RMK AO2 SLP131 T01110094 401170083 PNO $,FM-15,6,,,,,,,,,,,,,,,,,,,,,,,,,,,2021-11-22
A0002694297,2024-10-18 23:59:00,SOD  ,O,,,,,,,,,,,,,,,,,,,,,,,,,,,,,,,,,,,,RA,,,,,,,,,,,,,,,,,,,,,,,,,,,,,,,,,,,,,,,,,,,,,,,,,,,,,,,,SOD  ,O,,,,,,,,,,,,,,,,,,,,,,,,,636.0,1714.0,2021-11-22
A0002694297,2024-10-19 00:46:00,FM-15,6,,,,,,,,,,,,,,,,,,,,,,,,,,,,,,,,,,,,,,,30.07,50.0,52.0,,,-0.0,0.0,93.0,29.9,SCT:04 18 BKN:07 70 OVC:08 90,29.85,10.00,51.0,150,22.0,9.0,,,,,,,,,,,,,,,,,,,,,,,,,,,,,,,,,,,,,MET13410/19/24 00:46:01 METAR KNRA 190846Z 15008G19KT 10SM SCT018 BKN070 OVC090 11/10 A3007 RMK AO2 RAE45 SLP124 6//// T01110100 50001 PNO $,FM-15,6,,,,,,,,,,,,,,,,,,,,,,,,,,,2021-11-22
A0002694297,2024-10-19 01:46:00,FM-15,6,,,,,,,,,,,,,,,,,,,,,,,,,,,,,,,,,,,,,,,30.06,50.0,53.0,,,,,89.0,29.89,OVC:08 17,29.84,10.00,51.0,150,23.0,13.0,,,,,,,,,,,,,,,,,,,,,,,,,,,,,,,,,,,,,MET10210/19/24 01:46:01 METAR KNRA 190946Z 15011G20KT 10SM OVC017 12/10 A3006 RMK AO2 SLP122 T01170100 PNO $,FM-15,6,,,,,,,,,,,,,,,,,,,,,,,,,,,2021-11-22
A0002694297,2024-10-19 02:46:00,FM-15,6,,,,,,,,,,,,,,,,,,,,,,,,,,,,,,,,,,,,,,,30.03,51.0,54.0,,,,,90.0,29.86,OVC:08 12,29.81,10.00,52.0,160,23.0,11.0,,,,,,,,,,,,,,,,,,,,,,,,,,,,,,,,,,,,,MET10210/19/24 02:46:01 METAR KNRA 191046Z 16010G20KT 10SM OVC012 12/11 A3003 RMK AO2 SLP113 T01220106 PNO $,FM-15,6,,,,,,,,,,,,,,,,,,,,,,,,,,,2021-11-22
A0002694297,2024-10-19 03:46:00,FM-15,6,,,,,,,,,,,,,,,,,,,,,,,,,,,,,,,,,,,,,,,30.03,51.0,55.0,,,0.04,6.0,87.0,29.86,OVC:08 11,29.81,10.00,53.0,170,37.0,22.0,,,,,,,,,,,,,,,,,,,,,,,,,,,,,,,,,,,,,MET15010/19/24 03:46:02 METAR KNRA 191146Z 17019G32KT 10SM OVC011 13/11 A3003 RMK AO2 PK WND 17032/1137 SLP113 6//// 7//// T01280106 10128 20111 56012 PNO $,FM-15,6,,,,,,,,,,,,,,,,,,,,,,,,,,,2021-11-22
A0002694297,2024-10-19 04:46:00,FM-15,6,,,,,,,,,,,,,,,,,,,,,,,,,,,,,,,,,,,,,,,30.03,52.0,56.0,,,,,87.0,29.87,OVC:08 11,29.81,10.00,54.0,160,29.0,17.0,,,,,,,,,,,,,,,,,,,,,,,,,,,,,,,,,,,,,MET12010/19/24 04:46:01 METAR KNRA 191246Z 16015G25KT 10SM OVC011 13/11 A3003 RMK AO2 PK WND 17030/1153 SLP114 T01330111 PNO $,FM-15,6,,,,,,,,,,,,,,,,,,,,,,,,,,,2021-11-22
A0002694297,2024-10-19 05:46:00,FM-15,6,,,,,,,,,,,,,,,,,,,,,,,,,,,,,,,,,,,,,,,30.03,53.0,57.0,,,,,87.0,29.86,OVC:08 12,29.81,10.00,55.0,VRB,29.0,14.0,,,,,,,,,,,,,,,,,,,,,,,,,,,,,,,,,,,,,MET12010/19/24 05:46:01 METAR KNRA 191346Z 16012G25KT 10SM OVC012 14/12 A3003 RMK AO2 PK WND 14030/1327 SLP113 T01390117 PNO $,FM-15,6,,,,,,,,,,,,,,,,,,,,,,,,,,,2021-11-22
A0002694297,2024-10-19 06:46:00,FM-15,6,,,,,,,,,,,,,,,,,,,,,,,,,,,,,,,,,,,,,,,30.05,52.0,57.0,,,-0.02,3.0,83.0,29.88,OVC:08 12,29.83,10.00,54.0,170,34.0,17.0,,,,,,,,,,,,,,,,,,,,,,,,,,,,,,,,,,,,,MET13210/19/24 06:46:01 METAR KNRA 191446Z 17015G30KT 10SM OVC012 14/11 A3005 RMK AO2 PK WND 15030/1440 SLP119 6//// T01390111 53006 PNO $,FM-15,6,,,,,,,,,,,,,,,,,,,,,,,,,,,2021-11-22
A0002694297,2024-10-19 07:46:00,FM-15,6,,,,,,,,,,,,,,,,,,,,,,,,,,,,,,,,,,,,,,,30.04,52.0,57.0,,,,,83.0,29.87,OVC:08 13,29.82,10.00,54.0,170,39.0,20.0,,,,,,,,,,,,,,,,,,,,,,,,,,,,,,,,,,,,,MET12010/19/24 07:46:01 METAR KNRA 191546Z 17017G34KT 10SM OVC013 14/11 A3004 RMK AO2 PK WND 17034/1538 SLP116 T01390111 PNO $,FM-15,6,,,,,,,,,,,,,,,,,,,,,,,,,,,2021-11-22
A0002694297,2024-10-19 09:46:00,FM-15,6,,,,,,,,,,,,,,,,,,,,,,,,,,,,,,,,,,,,,,,30.03,53.0,59.0,,,0.02,8.0,81.0,29.86,BKN:07 15 OVC:08 100,29.81,10.00,56.0,170,38.0,23.0,,,,,,,,,,,,,,,,,,,,,,,,,,,,,,,,,,,,,MET15110/19/24 09:46:02 METAR KNRA 191746Z 17020G33KT 10SM BKN015 OVC100 15/12 A3003 RMK AO2 PK WND 17035/1647 SLP112 6//// T01500117 10150 20128 58007 PNO $,FM-15,6,,,,,,,,,,,,,,,,,,,,,,,,,,,2021-11-22
A0002694297,2024-10-19 10:46:00,FM-15,6,,,,,,,,,,,,,,,,,,,,,,,,,,,,,,,,,,,,,,,30.07,53.0,58.0,,-RA:02 |RA |RA,,,84.0,29.9,OVC:08 16,29.85,10.00,55.0,170,31.0,18.0,,,,,,,,,,,,,,,,,,,,,,,,,,,,,,,,,,,,,MET13010/19/24 10:46:02 METAR KNRA 191846Z 17016G27KT 10SM -RA OVC016 14/12 A3007 RMK AO2 PK WND 15041/1802 RAB26 SLP125 T01440117 PNO $,FM-15,6,,,,,,,,,,,,,,,,,,,,,,,,,,,2021-11-22
A0002694297,2024-10-19 11:46:00,FM-15,6,,,,,,,,,,,,,,,,,,,,,,,,,,,,,,,,,,,,,,,30.02,54.0,60.0,,,,,80.0,29.85,OVC:08 16,29.8,10.00,57.0,170,40.0,23.0,,,,,,,,,,,,,,,,,,,,,,,,,,,,,,,,,,,,,MET12610/19/24 11:46:01 METAR KNRA 191946Z 17020G35KT 10SM OVC016 16/12 A3002 RMK AO2 PK WND 18035/1937 RAE31 SLP108 T01560122 PNO $,FM-15,6,,,,,,,,,,,,,,,,,,,,,,,,,,,2021-11-22
A0002694297,2024-10-19 12:46:00,FM-15,6,,,,,,,,,,,,,,,,,,,,,,,,,,,,,,,,,,,,,,,29.99,54.0,62.0,,,0.04,8.0,75.0,29.82,OVC:08 19,29.78,10.00,58.0,170,39.0,21.0,,,,,,,,,,,,,,,,,,,,,,,,,,,,,,,,,,,,,MET13210/19/24 12:46:02 METAR KNRA 192046Z 17018G34KT 10SM OVC019 17/12 A2999 RMK AO2 PK WND 16039/2013 SLP099 6//// T01670122 58014 PNO $,FM-15,6,,,,,,,,,,,,,,,,,,,,,,,,,,,2021-11-22
A0002694297,2024-10-19 13:46:00,FM-15,6,,,,,,,,,,,,,,,,,,,,,,,,,,,,,,,,,,,,,,,29.99,54.0,62.0,,,,,75.0,29.82,OVC:08 21,29.78,10.00,58.0,170,37.0,22.0,,,,,,,,,,,,,,,,,,,,,,,,,,,,,,,,,,,,,MET12010/19/24 13:46:02 METAR KNRA 192146Z 17019G32KT 10SM OVC021 17/12 A2999 RMK AO2 PK WND 16040/2110 SLP099 T01670122 PNO $,FM-15,6,,,,,,,,,,,,,,,,,,,,,,,,,,,2021-11-22
A0002694297,2024-10-19 14:46:00,FM-15,6,,,,,,,,,,,,,,,,,,,,,,,,,,,,,,,,,,,,,,,30.03,54.0,59.0,,,,,83.0,29.87,OVC:08 18,29.81,10.00,56.0,170,28.0,15.0,,,,,,,,,,,,,,,,,,,,,,,,,,,,,,,,,,,,,MET12910/19/24 14:46:02 METAR KNRA 192246Z 17013G24KT 10SM OVC018 15/12 A3003 RMK AO2 PK WND 16036/2155 RAB09E33 SLP114 T01500122 PNO $,FM-15,6,,,,,,,,,,,,,,,,,,,,,,,,,,,2021-11-22
A0002694297,2024-10-19 15:46:00,FM-15,6,,,,,,,,,,,,,,,,,,,,,,,,,,,,,,,,,,,,,,,30.04,55.0,58.0,,-RA:02 |RA |RA,-0.05,3.0,90.0,29.87,OVC:08 13,29.82,9.00,56.0,180,25.0,15.0,,,,,,,,,,,,,,,,,,,,,,,,,,,,,,,,,,,,,MET15510/19/24 15:46:02 METAR KNRA 192346Z 18013G22KT 9SM -RA OVC013 14/13 A3004 RMK AO2 PK WND 17032/2256 RAB2252 SLP116 6//// T01440128 10167 20144 53018 PNO $,FM-15,6,,,,,,,,,,,,,,,,,,,,,,,,,,,2021-11-22
A0002694297,2024-10-19 16:46:00,FM-15,6,,,,,,,,,,,,,,,,,,,,,,,,,,,,,,,,,,,,,,,30.05,56.0,59.0,,RA:02 BR:1 |RA |RA,,,90.0,29.89,BKN:07 13 OVC:08 28,29.83,2.00,57.0,160,,8.0,,,,,,,,,,,,,,,,,,,,,,,,,,,,,,,,,,,,,MET11110/19/24 16:46:01 METAR KNRA 200046Z 16007KT 2SM RA BR BKN013 OVC028 15/13 A3005 RMK AO2 SLP121 T01500133 PNO $,FM-15,6,,,,,,,,,,,,,,,,,,,,,,,,,,,2021-11-22
A0002694297,2024-10-19 17:46:00,FM-15,6,,,,,,,,,,,,,,,,,,,,,,,,,,,,,,,,,,,,,,,30.04,57.0,59.0,,-RA:02 |RA |RA,,,93.0,29.88,FEW:02 6 BKN:07 48 OVC:08 70,29.82,7.00,58.0,150,18.0,10.0,,,,,,,,,,,,,,,,,,,,,,,,,,,,,,,,,,,,,MET11910/19/24 17:46:01 METAR KNRA 200146Z 15009G16KT 7SM -RA FEW006 BKN048 OVC070 15/14 A3004 RMK AO2 SLP117 T01500139 PNO $,FM-15,6,,,,,,,,,,,,,,,,,,,,,,,,,,,2021-11-22
A0002694297,2024-10-19 18:46:00,FM-15,6,,,,,,,,,,,,,,,,,,,,,,,,,,,,,,,,,,,,,,,30.05,57.0,58.0,,-RA:02 |RA |RA,-0.01,1.0,97.0,29.89,FEW:02 49 BKN:07 75 OVC:08 95,29.83,10.00,57.0,130,,6.0,,,,,,,,,,,,,,,,,,,,,,,,,,,,,,,,,,,,,MET12910/19/24 18:46:01 METAR KNRA 200246Z 13005KT 10SM -RA FEW049 BKN075 OVC095 14/14 A3005 RMK AO2 SLP121 6//// T01440139 51004 PNO $,FM-15,6,,,,,,,,,,,,,,,,,,,,,,,,,,,2021-11-22
A0002694297,2024-10-19 19:46:00,FM-15,6,,,,,,,,,,,,,,,,,,,,,,,,,,,,,,,,,,,,,,,30.06,57.0,59.0,,-RA:02 |RA |RA,,,93.0,29.89,OVC:08 11,29.84,10.00,58.0,VRB,,8.0,,,,,,,,,,,,,,,,,,,,,,,,,,,,,,,,,,,,,MET10310/19/24 19:46:01 METAR KNRA 200346Z 15007KT 10SM -RA OVC011 15/14 A3006 RMK AO2 SLP123 T01500139 PNO $,FM-15,6,,,,,,,,,,,,,,,,,,,,,,,,,,,2021-11-22
A0002694297,2024-10-19 20:46:00,FM-15,6,,,,,,,,,,,,,,,,,,,,,,,,,,,,,,,,,,,,,,,30.05,57.0,59.0,,-RA:02 |RA |RA,,,93.0,29.88,OVC:08 10,29.83,10.00,58.0,150,,6.0,,,,,,,,,,,,,,,,,,,,,,,,,,,,,,,,,,,,,MET10310/19/24 20:46:01 METAR KNRA 200446Z 15005KT 10SM -RA OVC010 15/14 A3005 RMK AO2 SLP118 T01500139 PNO $,FM-15,6,,,,,,,,,,,,,,,,,,,,,,,,,,,2021-11-22
A0002694297,2024-10-19 21:46:00,FM-15,6,,,,,,,,,,,,,,,,,,,,,,,,,,,,,,,,,,,,,,,30.05,52.0,53.0,,-RA:02 |RA |RA,0.01,8.0,96.0,29.88,OVC:08 2,29.83,7.00,52.0,250,,5.0,,,,,,,,,,,,,,,,,,,,,,,,,,,,,,,,,,,,,MET12610/19/24 21:46:01 METAR KNRA 200546Z 25004KT 7SM -RA OVC002 12/11 A3005 RMK AO2 SLP119 6//// T01170111 10150 20117 58002 PNO $,FM-15,6,,,,,,,,,,,,,,,,,,,,,,,,,,,2021-11-22
A0002694297,2024-10-19 22:46:00,FM-15,6,,,,,,,,,,,,,,,,,,,,,,,,,,,,,,,,,,,,,,,30.04,52.0,53.0,,-RA:02 |RA |RA,,,96.0,29.87,BKN:07 3 OVC:08 11,29.82,8.00,52.0,260,,7.0,,,,,,,,,,,,,,,,,,,,,,,,,,,,,,,,,,,,,MET10910/19/24 22:46:01 METAR KNRA 200646Z 26006KT 8SM -RA BKN003 OVC011 12/11 A3004 RMK AO2 SLP116 T01170111 PNO $,FM-15,6,,,,,,,,,,,,,,,,,,,,,,,,,,,2021-11-22
A0002694297,2024-10-19 23:46:00,FM-15,6,,,,,,,,,,,,,,,,,,,,,,,,,,,,,,,,,,,,,,,30.03,52.0,53.0,,-RA:02 |RA |RA,,,96.0,29.86,OVC:08 2,29.81,10.00,52.0,240,,7.0,,,,,,,,,,,,,,,,,,,,,,,,,,,,,,,,,,,,,MET12410/19/24 23:46:01 METAR KNRA 200746Z 24006KT 10SM -RA OVC002 12/11 A3003 RMK AO2 RAE0649B23 SLP113 T01170111 401670111 PNO $,FM-15,6,,,,,,,,,,,,,,,,,,,,,,,,,,,2021-11-22
A0002694297,2024-10-19 23:59:00,SOD  ,O,,,,,,,,,,,,,,,,,,,,,,,,,,,,,,,,,,,,RA BR,,,,,,,,,,,,,,,,,,,,,,,,,,,,,,,,,,,,,,,,,,,,,,,,,,,,,,,,SOD  ,O,,,,,,,,,,,,,,,,,,,,,,,,,637.0,1712.0,2021-11-22
A0002694297,2024-10-20 00:46:00,FM-15,6,,,,,,,,,,,,,,,,,,,,,,,,,,,,,,,,,,,,,,,30.02,51.0,52.0,,-RA:02 BR:1 |RA |RA,0.02,6.0,97.0,29.86,OVC:08 3,29.8,4.00,51.0,260,,7.0,,,,,,,,,,,,,,,,,,,,,,,,,,,,,,,,,,,,,MET11710/20/24 00:46:01 METAR KNRA 200846Z 26006KT 4SM -RA BR OVC003 11/11 A3002 RMK AO2 SLP111 6//// T01110106 56008 PNO $,FM-15,6,,,,,,,,,,,,,,,,,,,,,,,,,,,2021-11-22
A0002694297,2024-10-20 01:46:00,FM-15,6,,,,,,,,,,,,,,,,,,,,,,,,,,,,,,,,,,,,,,,30.01,50.0,51.0,,,,,96.0,29.84,BKN:07 4 OVC:08 18,29.79,7.00,50.0,VRB,,3.0,,,,,,,,,,,,,,,,,,,,,,,,,,,,,,,,,,,,,MET11110/20/24 01:46:01 METAR KNRA 200946Z VRB03KT 7SM BKN004 OVC018 11/10 A3001 RMK AO2 RAE03 SLP105 T01060100 PNO $,FM-15,6,,,,,,,,,,,,,,,,,,,,,,,,,,,2021-11-22
A0002694297,2024-10-20 02:46:00,FM-15,6,,,,,,,,,,,,,,,,,,,,,,,,,,,,,,,,,,,,,,,29.97,50.0,51.0,,BR:1 ||,,,96.0,29.81,OVC:08 4,29.75,4.00,50.0,000,,0.0,,,,,,,,,,,,,,,,,,,,,,,,,,,,,,,,,,,,,MET10110/20/24 02:46:01 METAR KNRA 201046Z 00000KT 4SM BR OVC004 11/10 A2997 RMK AO2 SLP094 T01060100 PNO $,FM-15,6,,,,,,,,,,,,,,,,,,,,,,,,,,,2021-11-22
A0002694297,2024-10-20 03:46:00,FM-15,6,,,,,,,,,,,,,,,,,,,,,,,,,,,,,,,,,,,,,,,29.94,50.0,50.0,,BR:1 ||,0.08,8.0,100.0,29.78,OVC:08 3,29.72,2.50,50.0,000,,0.0,,,,,,,,,,,,,,,,,,,,,,,,,,,,,,,,,,,,,MET13510/20/24 03:46:01 METAR KNRA 201146Z 00000KT 2 1/2SM BR OVC003 10/10 A2994 RMK AO2 SLP083 6//// 7//// T01000100 10117 20100 58027 PNO $,FM-15,6,,,,,,,,,,,,,,,,,,,,,,,,,,,2021-11-22
A0002694297,2024-10-20 04:46:00,FM-15,6,,,,,,,,,,,,,,,,,,,,,,,,,,,,,,,,,,,,,,,29.91,49.0,50.0,,BR:1 ||,,,96.0,29.74,SCT:04 4 OVC:08 10,29.7,4.00,49.0,000,,0.0,,,,,,,,,,,,,,,,,,,,,,,,,,,,,,,,,,,,,MET12010/20/24 04:46:01 METAR KNRA 201246Z 00000KT 4SM BR SCT004 OVC010 10/09 A2991 RMK AO2 CIG 007V012 SLP072 T01000094 PNO $,FM-15,6,,,,,,,,,,,,,,,,,,,,,,,,,,,2021-11-22
A0002694297,2024-10-20 05:46:00,FM-15,6,,,,,,,,,,,,,,,,,,,,,,,,,,,,,,,,,,,,,,,29.86,53.0,54.0,,,,,97.0,29.69,SCT:04 4 BKN:07 10 OVC:08 19,29.65,10.00,53.0,VRB,,7.0,,,,,,,,,,,,,,,,,,,,,,,,,,,,,,,,,,,,,MET11310/20/24 05:46:01 METAR KNRA 201346Z VRB06KT 10SM SCT004 BKN010 OVC019 12/12 A2986 RMK AO2 SLP054 T01220117 PNO $,FM-15,6,,,,,,,,,,,,,,,,,,,,,,,,,,,2021-11-22
A0002694297,2024-10-20 06:46:00,FM-15,6,,,,,,,,,,,,,,,,,,,,,,,,,,,,,,,,,,,,,,,29.83,54.0,57.0,,,0.12,6.0,90.0,29.66,CLR:00,29.62,10.00,55.0,VRB,,9.0,,,,,,,,,,,,,,,,,,,,,,,,,,,,,,,,,,,,,MET10810/20/24 06:46:01 METAR KNRA 201446Z 14008KT 10SM CLR 14/12 A2983 RMK AO2 SLP045 6//// T01390122 56039 PNO $,FM-15,6,,,,,,,,,,,,,,,,,,,,,,,,,,,2021-11-22
A0002694297,2024-10-20 07:46:00,FM-15,6,,,,,,,,,,,,,,,,,,,,,,,,,,,,,,,,,,,,,,,29.81,55.0,58.0,,,,,90.0,29.65,CLR:00,29.59,10.00,56.0,VRB,21.0,9.0,,,,,,,,,,,,,,,,,,,,,,,,,,,,,,,,,,,,,MET09910/20/24 07:46:02 METAR KNRA 201546Z 15008G18KT 10SM CLR 14/13 A2981 RMK AO2 SLP039 T01440128 PNO $,FM-15,6,,,,,,,,,,,,,,,,,,,,,,,,,,,2021-11-22
A0002694297,2024-10-20 08:46:00,FM-15,6,,,,,,,,,,,,,,,,,,,,,,,,,,,,,,,,,,,,,,,29.78,55.0,61.0,,,,,81.0,29.62,CLR:00,29.57,10.00,58.0,160,36.0,21.0,,,,,,,,,,,,,,,,,,,,,,,,,,,,,,,,,,,,,MET11710/20/24 08:46:01 METAR KNRA 201646Z 16018G31KT 10SM CLR 16/13 A2978 RMK AO2 PK WND 16033/1631 SLP030 T01610128 PNO $,FM-15,6,,,,,,,,,,,,,,,,,,,,,,,,,,,2021-11-22
A0002694297,2024-10-20 09:46:00,FM-15,6,,,,,,,,,,,,,,,,,,,,,,,,,,,,,,,,,,,,,,,29.77,54.0,62.0,,,0.06,6.0,75.0,29.61,CLR:00,29.55,10.00,57.0,160,32.0,17.0,,,,,,,,,,,,,,,,,,,,,,,,,,,,,,,,,,,,,MET14110/20/24 09:46:02 METAR KNRA 201746Z 16015G28KT 10SM CLR 17/12 A2977 RMK AO2 PK WND 13033/1708 SLP026 6//// T01670122 10167 20100 56019 PNO $,FM-15,6,,,,,,,,,,,,,,,,,,,,,,,,,,,2021-11-22
A0002694297,2024-10-20 10:46:00,FM-15,6,,,,,,,,,,,,,,,,,,,,,,,,,,,,,,,,,,,,,,,29.76,54.0,62.0,,,,,75.0,29.59,CLR:00,29.54,10.00,57.0,150,33.0,15.0,,,,,,,,,,,,,,,,,,,,,,,,,,,,,,,,,,,,,MET11710/20/24 10:46:02 METAR KNRA 201846Z 15013G29KT 10SM CLR 17/12 A2976 RMK AO2 PK WND 17033/1803 SLP021 T01670122 PNO $,FM-15,6,,,,,,,,,,,,,,,,,,,,,,,,,,,2021-11-22
A0002694297,2024-10-20 11:46:00,FM-15,6,,,,,,,,,,,,,,,,,,,,,,,,,,,,,,,,,,,,,,,29.75,53.0,63.0,,,,,70.0,29.59,FEW:02 24,29.54,10.00,57.0,VRB,36.0,10.0,,,,,,,,,,,,,,,,,,,,,,,,,,,,,,,,,,,,,MET12010/20/24 11:46:02 METAR KNRA 201946Z 16009G31KT 10SM FEW024 17/12 A2975 RMK AO2 PK WND 17031/1943 SLP020 T01720117 PNO $,FM-15,6,,,,,,,,,,,,,,,,,,,,,,,,,,,2021-11-22
A0002694297,2024-10-20 12:46:00,FM-15,6,,,,,,,,,,,,,,,,,,,,,,,,,,,,,,,,,,,,,,,29.74,53.0,63.0,,,0.03,6.0,70.0,29.58,FEW:02 110,29.52,10.00,57.0,170,43.0,23.0,,,,,,,,,,,,,,,,,,,,,,,,,,,,,,,,,,,,,MET13210/20/24 12:46:02 METAR KNRA 202046Z 17020G37KT 10SM FEW110 17/12 A2974 RMK AO2 PK WND 17037/2040 SLP016 6//// T01720117 56010 PNO $,FM-15,6,,,,,,,,,,,,,,,,,,,,,,,,,,,2021-11-22
A0002694297,2024-10-20 13:46:00,FM-15,6,,,,,,,,,,,,,,,,,,,,,,,,,,,,,,,,,,,,,,,29.73,53.0,63.0,,,,,70.0,29.56,SCT:04 110,29.52,10.00,57.0,170,40.0,24.0,,,,,,,,,,,,,,,,,,,,,,,,,,,,,,,,,,,,,MET12910/20/24 13:46:02 METAR KNRA 202146Z 17021G35KT 10SM SCT110 17/12 A2973 RMK AO2 PK WND 18043/2101 RAB24E34 SLP010 T01720117 PNO $,FM-15,6,,,,,,,,,,,,,,,,,,,,,,,,,,,2021-11-22
A0002694297,2024-10-20 14:46:00,FM-15,6,,,,,,,,,,,,,,,,,,,,,,,,,,,,,,,,,,,,,,,29.77,54.0,62.0,,,,,75.0,29.6,OVC:08 22,29.55,10.00,57.0,170,34.0,21.0,,,,,,,,,,,,,,,,,,,,,,,,,,,,,,,,,,,,,MET12010/20/24 14:46:02 METAR KNRA 202246Z 17018G30KT 10SM OVC022 17/12 A2977 RMK AO2 PK WND 16040/2213 SLP025 T01670122 PNO $,FM-15,6,,,,,,,,,,,,,,,,,,,,,,,,,,,2021-11-22
A0002694297,2024-10-20 15:46:00,FM-15,6,,,,,,,,,,,,,,,,,,,,,,,,,,,,,,,,,,,,,,,29.84,50.0,53.0,,,-0.1,3.0,89.0,29.68,FEW:02 6 BKN:07 23 OVC:08 31,29.62,10.00,51.0,,,,,,,,,,,,,,,,,,,,,,,,,,,,,,,,,,,,,,,,MET17510/20/24 15:46:02 METAR KNRA 202346Z      KT 10SM FEW006 BKN023 OVC031 12/10 A2984 RMK AO2 PK WND 15028/2248 WSHFT 2256 RAB08E41 SLP050 6//// T01170100 10178 20106 53034 PNO $,FM-15,6,,,,,,,,,,,,,,,,,,,,,,,,,,,2021-11-22
A0002694297,2024-10-20 16:46:00,FM-15,6,,,,,,,,,,,,,,,,,,,,,,,,,,,,,,,,,,,,,,,29.87,48.0,53.0,,-RA:02 |RA |RA,,,83.0,29.7,OVC:08 45,29.65,10.00,50.0,,,,,,,,,,,,,,,,,,,,,,,,,,,,,,,,,,,,,,,,MET10910/20/24 16:46:01 METAR KNRA 210046Z      KT 10SM -RA OVC045 12/09 A2987 RMK AO2 RAB31 SLP058 T01170089 PNO $,FM-15,6,,,,,,,,,,,,,,,,,,,,,,,,,,,2021-11-22
A0002694297,2024-10-20 17:46:00,FM-15,6,,,,,,,,,,,,,,,,,,,,,,,,,,,,,,,,,,,,,,,29.92,45.0,51.0,,,,,80.0,29.75,BKN:07 50 OVC:08 60,29.7,10.00,48.0,,,,,,,,,,,,,,,,,,,,,,,,,,,,,,,,,,,,,,,,MET11210/20/24 17:46:01 METAR KNRA 210146Z      KT 10SM BKN050 OVC060 11/07 A2992 RMK AO2 RAE01 SLP074 T01060072 PNO $,FM-15,6,,,,,,,,,,,,,,,,,,,,,,,,,,,2021-11-22
A0002694297,2024-10-20 18:46:00,FM-15,6,,,,,,,,,,,,,,,,,,,,,,,,,,,,,,,,,,,,,,,29.94,45.0,51.0,,,-0.09,1.0,80.0,29.77,OVC:08 43,29.72,10.00,48.0,,,,,,,,,,,,,,,,,,,,,,,,,,,,,,,,,,,,,,,,MET11110/20/24 18:46:01 METAR KNRA 210246Z      KT 10SM OVC043 11/07 A2994 RMK AO2 SLP081 6//// T01060072 51031 PNO $,FM-15,6,,,,,,,,,,,,,,,,,,,,,,,,,,,2021-11-22
A0002694297,2024-10-20 19:46:00,FM-15,6,,,,,,,,,,,,,,,,,,,,,,,,,,,,,,,,,,,,,,,29.95,45.0,51.0,,,,,80.0,29.78,OVC:08 35,29.73,10.00,48.0,,,,,,,,,,,,,,,,,,,,,,,,,,,,,,,,,,,,,,,,MET09910/20/24 19:46:01 METAR KNRA 210346Z      KT 10SM OVC035 11/07 A2995 RMK AO2 SLP085 T01060072 PNO $,FM-15,6,,,,,,,,,,,,,,,,,,,,,,,,,,,2021-11-22
A0002694297,2024-10-20 20:46:00,FM-15,6,,,,,,,,,,,,,,,,,,,,,,,,,,,,,,,,,,,,,,,29.97,45.0,50.0,,,,,83.0,29.8,OVC:08 38,29.75,10.00,48.0,,,,,,,,,,,,,,,,,,,,,,,,,,,,,,,,,,,,,,,,MET09910/20/24 20:46:02 METAR KNRA 210446Z      KT 10SM OVC038 10/07 A2997 RMK AO2 SLP092 T01000072 PNO $,FM-15,6,,,,,,,,,,,,,,,,,,,,,,,,,,,2021-11-22
A0002694297,2024-10-20 21:46:00,FM-15,6,,,,,,,,,,,,,,,,,,,,,,,,,,,,,,,,,,,,,,,29.97,46.0,50.0,,,-0.04,1.0,86.0,29.81,OVC:08 37,29.75,10.00,48.0,,,,,,,,,,,,,,,,,,,,,,,,,,,,,,,,,,,,,,,,MET13410/20/24 21:46:01 METAR KNRA 210546Z      KT 10SM OVC037 10/08 A2997 RMK AO2 RAB0448E20 SLP094 6//// T01000078 10117 20100 51013 PNO $,FM-15,6,,,,,,,,,,,,,,,,,,,,,,,,,,,2021-11-22
A0002694297,2024-10-20 22:46:00,FM-15,6,,,,,,,,,,,,,,,,,,,,,,,,,,,,,,,,,,,,,,,29.97,47.0,49.0,,,,,93.0,29.81,OVC:08 36,29.75,10.00,48.0,,,,,,,,,,,,,,,,,,,,,,,,,,,,,,,,,,,,,,,,MET09910/20/24 22:46:01 METAR KNRA 210646Z      KT 10SM OVC036 09/08 A2997 RMK AO2 SLP094 T00940083 PNO $,FM-15,6,,,,,,,,,,,,,,,,,,,,,,,,,,,2021-11-22
A0002694297,2024-10-20 23:46:00,FM-15,6,,,,,,,,,,,,,,,,,,,,,,,,,,,,,,,,,,,,,,,29.97,45.0,50.0,,,,,83.0,29.8,OVC:08 37,29.75,10.00,48.0,,,,,,,,,,,,,,,,,,,,,,,,,,,,,,,,,,,,,,,,MET11810/20/24 23:46:01 METAR KNRA 210746Z      KT 10SM OVC037 10/07 A2997 RMK AO2 RAB33E44 SLP091 T01000072 401780094 PNO $,FM-15,6,,,,,,,,,,,,,,,,,,,,,,,,,,,2021-11-22
A0002694297,2024-10-20 23:59:00,SOD  ,O,,,,,,,,,,,,,,,,,,,,,,,,,,,,,,,,,,,,RA BR,,,,,,,,,,,,,,,,,,,,,,,,,,,,,,,,,,,,,,,,,,,,,,,,,,,,,,,,SOD  ,O,,,,,,,,,,,,,,,,,,,,,,,,,639.0,1711.0,2021-11-22
A0002694297,2024-10-21 00:46:00,FM-15,6,,,,,,,,,,,,,,,,,,,,,,,,,,,,,,,,,,,,,,,29.97,46.0,49.0,,,0.01,5.0,90.0,29.8,OVC:08 38,29.75,10.00,48.0,,,,,,,,,,,,,,,,,,,,,,,,,,,,,,,,,,,,,,,,MET12010/21/24 00:46:01 METAR KNRA 210846Z      KT 10SM OVC038 09/08 A2997 RMK AO2 RAB32E41 SLP092 6//// T00940078 55002 PNO $,FM-15,6,,,,,,,,,,,,,,,,,,,,,,,,,,,2021-11-22
A0002694297,2024-10-21 01:46:00,FM-15,6,,,,,,,,,,,,,,,,,,,,,,,,,,,,,,,,,,,,,,,29.97,46.0,49.0,,,,,90.0,29.8,OVC:08 36,29.75,10.00,48.0,,,,,,,,,,,,,,,,,,,,,,,,,,,,,,,,,,,,,,,,MET11010/21/24 01:46:01 METAR KNRA 210946Z      KT 10SM OVC036 09/08 A2997 RMK AO2 RAB0857E09 SLP092 T00940078 PNO $,FM-15,6,,,,,,,,,,,,,,,,,,,,,,,,,,,2021-11-22
A0002694297,2024-10-21 02:46:00,FM-15,6,,,,,,,,,,,,,,,,,,,,,,,,,,,,,,,,,,,,,,,29.97,46.0,50.0,,,,,86.0,29.8,OVC:08 35,29.75,10.00,48.0,,,,,,,,,,,,,,,,,,,,,,,,,,,,,,,,,,,,,,,,MET09910/21/24 02:46:01 METAR KNRA 211046Z      KT 10SM OVC035 10/08 A2997 RMK AO2 SLP092 T01000078 PNO $,FM-15,6,,,,,,,,,,,,,,,,,,,,,,,,,,,2021-11-22
A0002694297,2024-10-21 03:46:00,FM-15,6,,,,,,,,,,,,,,,,,,,,,,,,,,,,,,,,,,,,,,,29.97,46.0,49.0,,,0.0,8.0,90.0,29.8,OVC:08 40,29.75,10.00,48.0,,,,,,,,,,,,,,,,,,,,,,,,,,,,,,,,,,,,,,,,MET12910/21/24 03:46:01 METAR KNRA 211146Z      KT 10SM OVC040 09/08 A2997 RMK AO2 SLP091 6//// 7//// T00940078 10100 20094 58001 PNO $,FM-15,6,,,,,,,,,,,,,,,,,,,,,,,,,,,2021-11-22
A0002694297,2024-10-21 04:46:00,FM-15,6,,,,,,,,,,,,,,,,,,,,,,,,,,,,,,,,,,,,,,,29.98,46.0,49.0,,,,,90.0,29.81,OVC:08 37,29.76,10.00,48.0,,,,,,,,,,,,,,,,,,,,,,,,,,,,,,,,,,,,,,,,MET09910/21/24 04:46:01 METAR KNRA 211246Z      KT 10SM OVC037 09/08 A2998 RMK AO2 SLP094 T00940078 PNO $,FM-15,6,,,,,,,,,,,,,,,,,,,,,,,,,,,2021-11-22
A0002694297,2024-10-21 05:46:00,FM-15,6,,,,,,,,,,,,,,,,,,,,,,,,,,,,,,,,,,,,,,,29.98,47.0,49.0,,,,,93.0,29.81,OVC:08 35,29.76,10.00,48.0,,,,,,,,,,,,,,,,,,,,,,,,,,,,,,,,,,,,,,,,MET09910/21/24 05:46:02 METAR KNRA 211346Z      KT 10SM OVC035 09/08 A2998 RMK AO2 SLP096 T00940083 PNO $,FM-15,6,,,,,,,,,,,,,,,,,,,,,,,,,,,2021-11-22
A0002694297,2024-10-21 06:46:00,FM-15,6,,,,,,,,,,,,,,,,,,,,,,,,,,,,,,,,,,,,,,,29.98,46.0,48.0,,,-0.01,1.0,93.0,29.81,OVC:08 35,29.76,10.00,47.0,,,,,,,,,,,,,,,,,,,,,,,,,,,,,,,,,,,,,,,,MET11110/21/24 06:46:02 METAR KNRA 211446Z      KT 10SM OVC035 09/08 A2998 RMK AO2 SLP096 6//// T00890078 51005 PNO $,FM-15,6,,,,,,,,,,,,,,,,,,,,,,,,,,,2021-11-22
A0002694297,2024-10-21 07:46:00,FM-15,6,,,,,,,,,,,,,,,,,,,,,,,,,,,,,,,,,,,,,,,30.0,46.0,48.0,,,,,93.0,29.84,OVC:08 36,29.78,10.00,47.0,,,,,,,,,,,,,,,,,,,,,,,,,,,,,,,,,,,,,,,,MET09910/21/24 07:46:01 METAR KNRA 211546Z      KT 10SM OVC036 09/08 A3000 RMK AO2 SLP104 T00890078 PNO $,FM-15,6,,,,,,,,,,,,,,,,,,,,,,,,,,,2021-11-22
A0002694297,2024-10-21 08:46:00,FM-15,6,,,,,,,,,,,,,,,,,,,,,,,,,,,,,,,,,,,,,,,30.0,47.0,51.0,,,,,86.0,29.83,OVC:08 42,29.78,10.00,49.0,,,,,,,,,,,,,,,,,,,,,,,,,,,,,,,,,,,,,,,,MET09910/21/24 08:46:01 METAR KNRA 211646Z      KT 10SM OVC042 11/08 A3000 RMK AO2 SLP102 T01060083 PNO $,FM-15,6,,,,,,,,,,,,,,,,,,,,,,,,,,,2021-11-22
A0002694297,2024-10-21 09:46:00,FM-15,6,,,,,,,,,,,,,,,,,,,,,,,,,,,,,,,,,,,,,,,30.01,48.0,51.0,,,-0.03,1.0,89.0,29.84,OVC:08 36,29.79,10.00,49.0,,,,,,,,,,,,,,,,,,,,,,,,,,,,,,,,,,,,,,,,MET12310/21/24 09:46:02 METAR KNRA 211746Z      KT 10SM OVC036 11/09 A3001 RMK AO2 SLP105 6//// T01060089 10111 20056 51009 PNO $,FM-15,6,,,,,,,,,,,,,,,,,,,,,,,,,,,2021-11-22
A0002694297,2024-10-21 10:46:00,FM-15,6,,,,,,,,,,,,,,,,,,,,,,,,,,,,,,,,,,,,,,,30.01,47.0,51.0,,,,,86.0,29.84,BKN:07 29 OVC:08 41,29.79,10.00,49.0,,,,,,,,,,,,,,,,,,,,,,,,,,,,,,,,,,,,,,,,MET10610/21/24 10:46:02 METAR KNRA 211846Z      KT 10SM BKN029 OVC041 11/08 A3001 RMK AO2 SLP106 T01060083 PNO $,FM-15,6,,,,,,,,,,,,,,,,,,,,,,,,,,,2021-11-22
A0002694297,2024-10-21 11:46:00,FM-15,6,,,,,,,,,,,,,,,,,,,,,,,,,,,,,,,,,,,,,,,30.02,48.0,53.0,,,,,83.0,29.85,FEW:02 15 BKN:07 29 BKN:07 37,29.8,10.00,50.0,,,,,,,,,,,,,,,,,,,,,,,,,,,,,,,,,,,,,,,,MET11310/21/24 11:46:02 METAR KNRA 211946Z      KT 10SM FEW015 BKN029 BKN037 12/09 A3002 RMK AO2 SLP109 T01170089 PNO $,FM-15,6,,,,,,,,,,,,,,,,,,,,,,,,,,,2021-11-22
A0002694297,2024-10-21 12:46:00,FM-15,6,,,,,,,,,,,,,,,,,,,,,,,,,,,,,,,,,,,,,,,30.03,48.0,53.0,,,-0.02,3.0,83.0,29.86,FEW:02 17 SCT:04 25 OVC:08 31,29.81,10.00,50.0,,,,,,,,,,,,,,,,,,,,,,,,,,,,,,,,,,,,,,,,MET12510/21/24 12:46:02 METAR KNRA 212046Z      KT 10SM FEW017 SCT025 OVC031 12/09 A3003 RMK AO2 SLP112 6//// T01170089 53006 PNO $,FM-15,6,,,,,,,,,,,,,,,,,,,,,,,,,,,2021-11-22
A0002694297,2024-10-21 13:46:00,FM-15,6,,,,,,,,,,,,,,,,,,,,,,,,,,,,,,,,,,,,,,,30.03,46.0,53.0,,,,,77.0,29.86,BKN:07 20 BKN:07 28 OVC:08 35,29.81,10.00,49.0,,,,,,,,,,,,,,,,,,,,,,,,,,,,,,,,,,,,,,,,MET11310/21/24 13:46:02 METAR KNRA 212146Z      KT 10SM BKN020 BKN028 OVC035 12/08 A3003 RMK AO2 SLP113 T01170078 PNO $,FM-15,6,,,,,,,,,,,,,,,,,,,,,,,,,,,2021-11-22
A0002694297,2024-10-21 15:46:00,FM-15,6,,,,,,,,,,,,,,,,,,,,,,,,,,,,,,,,,,,,,,,30.05,47.0,54.0,,,-0.02,3.0,77.0,29.88,FEW:02 45 BKN:07 80 OVC:08 100,29.83,10.00,50.0,,,,,,,,,,,,,,,,,,,,,,,,,,,,,,,,,,,,,,,,MET14610/21/24 15:46:02 METAR KNRA 212346Z      KT 10SM FEW045 BKN080 OVC100 12/08 A3005 RMK AO2 RAB02E17 SLP118 6//// T01220083 10122 20106 53006 PNO $,FM-15,6,,,,,,,,,,,,,,,,,,,,,,,,,,,2021-11-22
A0002694297,2024-10-21 16:46:00,FM-15,6,,,,,,,,,,,,,,,,,,,,,,,,,,,,,,,,,,,,,,,30.06,48.0,53.0,,,,,83.0,29.89,BKN:07 23 OVC:08 28,29.84,10.00,50.0,,,,,,,,,,,,,,,,,,,,,,,,,,,,,,,,,,,,,,,,MET10610/21/24 16:46:01 METAR KNRA 220046Z      KT 10SM BKN023 OVC028 12/09 A3006 RMK AO2 SLP121 T01170089 PNO $,FM-15,6,,,,,,,,,,,,,,,,,,,,,,,,,,,2021-11-22
A0002694297,2024-10-21 17:46:00,FM-15,6,,,,,,,,,,,,,,,,,,,,,,,,,,,,,,,,,,,,,,,30.07,49.0,51.0,,-RA:02 |RA |RA,,,92.0,29.9,SCT:04 14 BKN:07 22 OVC:08 27,29.85,10.00,50.0,,,,,,,,,,,,,,,,,,,,,,,,,,,,,,,,,,,,,,,,MET12510/21/24 17:46:01 METAR KNRA 220146Z      KT 10SM -RA SCT014 BKN022 OVC027 11/09 A3007 RMK AO2 RAB0051 SLP125 T01060094 PNO $,FM-15,6,,,,,,,,,,,,,,,,,,,,,,,,,,,2021-11-22
A0002694297,2024-10-21 18:46:00,FM-15,6,,,,,,,,,,,,,,,,,,,,,,,,,,,,,,,,,,,,,,,30.08,50.0,51.0,,,-0.03,3.0,96.0,29.91,FEW:02 10 BKN:07 13 OVC:08 36,29.86,10.00,50.0,,,,,,,,,,,,,,,,,,,,,,,,,,,,,,,,,,,,,,,,MET13910/21/24 18:46:01 METAR KNRA 220246Z      KT 10SM FEW010 BKN013 OVC036 11/10 A3008 RMK AO2 RAE0150B13E22 SLP129 6//// T01060100 53010 PNO $,FM-15,6,,,,,,,,,,,,,,,,,,,,,,,,,,,2021-11-22
A0002694297,2024-10-21 19:46:00,FM-15,6,,,,,,,,,,,,,,,,,,,,,,,,,,,,,,,,,,,,,,,30.09,49.0,51.0,,-RA:02 |RA |RA,,,92.0,29.92,BKN:07 10 BKN:07 22 BKN:07 55,29.87,9.00,50.0,,,,,,,,,,,,,,,,,,,,,,,,,,,,,,,,,,,,,,,,MET13410/21/24 19:46:01 METAR KNRA 220346Z      KT 9SM -RA BKN010 BKN022 BKN055 11/09 A3009 RMK AO2 RAB36 CIG 008V015 SLP132 T01060094 PNO $,FM-15,6,,,,,,,,,,,,,,,,,,,,,,,,,,,2021-11-22
A0002694297,2024-10-21 20:46:00,FM-15,6,,,,,,,,,,,,,,,,,,,,,,,,,,,,,,,,,,,,,,,30.12,49.0,51.0,,,,,92.0,29.95,BKN:07 5 OVC:08 10,29.9,10.00,50.0,,,,,,,,,,,,,,,,,,,,,,,,,,,,,,,,,,,,,,,,MET12410/21/24 20:46:01 METAR KNRA 220446Z      KT 10SM BKN005 OVC010 11/09 A3012 RMK AO2 RAE15 CIG 004V007 SLP141 T01060094 PNO $,FM-15,6,,,,,,,,,,,,,,,,,,,,,,,,,,,2021-11-22
A0002694297,2024-10-21 21:46:00,FM-15,6,,,,,,,,,,,,,,,,,,,,,,,,,,,,,,,,,,,,,,,30.14,48.0,50.0,,,-0.06,3.0,93.0,29.97,FEW:02 4 BKN:07 12 OVC:08 17,29.92,10.00,49.0,,,,,,,,,,,,,,,,,,,,,,,,,,,,,,,,,,,,,,,,MET14810/21/24 21:46:01 METAR KNRA 220546Z      KT 10SM FEW004 BKN012 OVC017 10/09 A3014 RMK AO2 RAB0447E44 SLP149 6//// T01000089 10122 20100 53020 PNO $,FM-15,6,,,,,,,,,,,,,,,,,,,,,,,,,,,2021-11-22
A0002694297,2024-10-21 22:46:00,FM-15,6,,,,,,,,,,,,,,,,,,,,,,,,,,,,,,,,,,,,,,,30.17,47.0,51.0,,,,,86.0,30.0,FEW:02 14 OVC:08 22,29.95,10.00,49.0,,,,,,,,,,,,,,,,,,,,,,,,,,,,,,,,,,,,,,,,MET10610/21/24 22:46:01 METAR KNRA 220646Z      KT 10SM FEW014 OVC022 11/08 A3017 RMK AO2 SLP159 T01060083 PNO $,FM-15,6,,,,,,,,,,,,,,,,,,,,,,,,,,,2021-11-22
A0002694297,2024-10-21 23:46:00,FM-15,6,,,,,,,,,,,,,,,,,,,,,,,,,,,,,,,,,,,,,,,30.19,47.0,50.0,,,,,89.0,30.02,BKN:07 16 OVC:08 22,29.97,10.00,48.0,,,,,,,,,,,,,,,,,,,,,,,,,,,,,,,,,,,,,,,,MET11610/21/24 23:46:01 METAR KNRA 220746Z      KT 10SM BKN016 OVC022 10/08 A3019 RMK AO2 SLP166 T01000083 401220056 PNO $,FM-15,6,,,,,,,,,,,,,,,,,,,,,,,,,,,2021-11-22
A0002694297,2024-10-21 23:59:00,SOD  ,O,,,,,,,,,,,,,,,,,,,,,,,,,,,,,,,,,,,,RA,,,,,,,,,,,,,,,,,,,,,,,,,,,,,,,,,,,,,,,,,,,,,,,,,,,,,,,,SOD  ,O,,,,,,,,,,,,,,,,,,,,,,,,,640.0,1709.0,2021-11-22
A0002694297,2024-10-22 00:46:00,FM-15,6,,,,,,,,,,,,,,,,,,,,,,,,,,,,,,,,,,,,,,,30.21,47.0,50.0,,,-0.07,1.0,89.0,30.04,FEW:02 15 OVC:08 28,29.99,10.00,48.0,,,,,,,,,,,,,,,,,,,,,,,,,,,,,,,,,,,,,,,,MET11810/22/24 00:46:01 METAR KNRA 220846Z      KT 10SM FEW015 OVC028 10/08 A3021 RMK AO2 SLP173 6//// T01000083 51024 PNO $,FM-15,6,,,,,,,,,,,,,,,,,,,,,,,,,,,2021-11-22
A0002694297,2024-10-22 01:46:00,FM-15,6,,,,,,,,,,,,,,,,,,,,,,,,,,,,,,,,,,,,,,,30.23,46.0,50.0,,,,,86.0,30.06,BKN:07 28 OVC:08 32,30.01,10.00,48.0,,,,,,,,,,,,,,,,,,,,,,,,,,,,,,,,,,,,,,,,MET10610/22/24 01:46:01 METAR KNRA 220946Z      KT 10SM BKN028 OVC032 10/08 A3023 RMK AO2 SLP179 T01000078 PNO $,FM-15,6,,,,,,,,,,,,,,,,,,,,,,,,,,,2021-11-22
A0002694297,2024-10-22 02:46:00,FM-15,6,,,,,,,,,,,,,,,,,,,,,,,,,,,,,,,,,,,,,,,30.24,46.0,50.0,,,,,86.0,30.08,OVC:08 18,30.02,10.00,48.0,,,,,,,,,,,,,,,,,,,,,,,,,,,,,,,,,,,,,,,,MET09910/22/24 02:46:01 METAR KNRA 221046Z      KT 10SM OVC018 10/08 A3024 RMK AO2 SLP185 T01000078 PNO $,FM-15,6,,,,,,,,,,,,,,,,,,,,,,,,,,,2021-11-22
A0002694297,2024-10-22 03:46:00,FM-15,6,,,,,,,,,,,,,,,,,,,,,,,,,,,,,,,,,,,,,,,30.27,45.0,50.0,,,-0.06,3.0,83.0,30.1,OVC:08 20,30.05,10.00,48.0,,,,,,,,,,,,,,,,,,,,,,,,,,,,,,,,,,,,,,,,MET12910/22/24 03:46:01 METAR KNRA 221146Z      KT 10SM OVC020 10/07 A3027 RMK AO2 SLP192 6//// 7//// T01000072 10106 20094 53019 PNO $,FM-15,6,,,,,,,,,,,,,,,,,,,,,,,,,,,2021-11-22
A0002694297,2024-10-22 04:46:00,FM-15,6,,,,,,,,,,,,,,,,,,,,,,,,,,,,,,,,,,,,,,,30.28,46.0,49.0,,,,,90.0,30.11,OVC:08 11,30.06,10.00,48.0,,,,,,,,,,,,,,,,,,,,,,,,,,,,,,,,,,,,,,,,MET09910/22/24 04:46:01 METAR KNRA 221246Z      KT 10SM OVC011 09/08 A3028 RMK AO2 SLP198 T00940078 PNO $,FM-15,6,,,,,,,,,,,,,,,,,,,,,,,,,,,2021-11-22
A0002694297,2024-10-22 05:46:00,FM-15,6,,,,,,,,,,,,,,,,,,,,,,,,,,,,,,,,,,,,,,,30.29,45.0,49.0,,,,,86.0,30.13,OVC:08 22,30.07,10.00,47.0,,,,,,,,,,,,,,,,,,,,,,,,,,,,,,,,,,,,,,,,MET09910/22/24 05:46:01 METAR KNRA 221346Z      KT 10SM OVC022 09/07 A3029 RMK AO2 SLP202 T00940072 PNO $,FM-15,6,,,,,,,,,,,,,,,,,,,,,,,,,,,2021-11-22
A0002694297,2024-10-22 06:46:00,FM-15,6,,,,,,,,,,,,,,,,,,,,,,,,,,,,,,,,,,,,,,,30.31,45.0,49.0,,,-0.04,1.0,86.0,30.14,SCT:04 27 OVC:08 33,30.09,10.00,47.0,,,,,,,,,,,,,,,,,,,,,,,,,,,,,,,,,,,,,,,,MET11810/22/24 06:46:01 METAR KNRA 221446Z      KT 10SM SCT027 OVC033 09/07 A3031 RMK AO2 SLP205 6//// T00940072 51013 PNO $,FM-15,6,,,,,,,,,,,,,,,,,,,,,,,,,,,2021-11-22
A0002694297,2024-10-22 07:46:00,FM-15,6,,,,,,,,,,,,,,,,,,,,,,,,,,,,,,,,,,,,,,,30.33,45.0,49.0,,,,,86.0,30.16,OVC:08 36,30.11,10.00,47.0,,,,,,,,,,,,,,,,,,,,,,,,,,,,,,,,,,,,,,,,MET09910/22/24 07:46:01 METAR KNRA 221546Z      KT 10SM OVC036 09/07 A3033 RMK AO2 SLP214 T00940072 PNO $,FM-15,6,,,,,,,,,,,,,,,,,,,,,,,,,,,2021-11-22
A0002694297,2024-10-22 08:46:00,FM-15,6,,,,,,,,,,,,,,,,,,,,,,,,,,,,,,,,,,,,,,,30.35,45.0,50.0,,,,,83.0,30.18,BKN:07 15 OVC:08 41,30.13,10.00,48.0,,,,,,,,,,,,,,,,,,,,,,,,,,,,,,,,,,,,,,,,MET10610/22/24 08:46:01 METAR KNRA 221646Z      KT 10SM BKN015 OVC041 10/07 A3035 RMK AO2 SLP219 T01000072 PNO $,FM-15,6,,,,,,,,,,,,,,,,,,,,,,,,,,,2021-11-22
A0002694297,2024-10-22 09:46:00,FM-15,6,,,,,,,,,,,,,,,,,,,,,,,,,,,,,,,,,,,,,,,30.36,46.0,51.0,,,-0.05,1.0,83.0,30.19,OVC:08 15,30.14,10.00,49.0,,,,,,,,,,,,,,,,,,,,,,,,,,,,,,,,,,,,,,,,MET12310/22/24 09:46:02 METAR KNRA 221746Z      KT 10SM OVC015 11/08 A3036 RMK AO2 SLP222 6//// T01060078 10106 20094 51017 PNO $,FM-15,6,,,,,,,,,,,,,,,,,,,,,,,,,,,2021-11-22
A0002694297,2024-10-22 10:46:00,FM-15,6,,,,,,,,,,,,,,,,,,,,,,,,,,,,,,,,,,,,,,,30.36,,52.0,,,,,,30.19,FEW:02 24 OVC:08 44,30.14,10.00,,,,,,,,,,,,,,,,,,,,,,,,,,,,,,,,,,,,,,,,,MET09910/22/24 10:46:01 METAR KNRA 221846Z      KT 10SM FEW024 OVC044 11/A3036 RMK AO2 SLP224 T0111 PNO $,FM-15,6,,,,,,,,,,,,,,,,,,,,,,,,,,,2021-11-22
A0002694297,2024-10-22 11:46:00,FM-15,6,,,,,,,,,,,,,,,,,,,,,,,,,,,,,,,,,,,,,,,30.36,45.0,52.0,,,,,77.0,30.19,OVC:08 40,30.14,10.00,49.0,200,,3.0,,,,,,,,,,,,,,,,,,,,,,,,,,,,,,,,,,,,,MET09910/22/24 11:46:02 METAR KNRA 221946Z 20003KT 10SM OVC040 11/07 A3036 RMK AO2 SLP222 T01110072 PNO $,FM-15,6,,,,,,,,,,,,,,,,,,,,,,,,,,,2021-11-22
A0002694297,2024-10-22 12:46:00,FM-15,6,,,,,,,,,,,,,,,,,,,,,,,,,,,,,,,,,,,,,,,30.34,45.0,53.0,,,0.01,8.0,74.0,30.17,OVC:08 43,30.12,10.00,49.0,230,,3.0,,,,,,,,,,,,,,,,,,,,,,,,,,,,,,,,,,,,,MET11110/22/24 12:46:01 METAR KNRA 222046Z 23003KT 10SM OVC043 12/07 A3034 RMK AO2 SLP217 6//// T01170072 58005 PNO $,FM-15,6,,,,,,,,,,,,,,,,,,,,,,,,,,,2021-11-22
A0002694297,2024-10-22 13:46:00,FM-15,6,,,,,,,,,,,,,,,,,,,,,,,,,,,,,,,,,,,,,,,30.33,45.0,55.0,,,,,69.0,30.16,SCT:04 40,30.11,10.00,50.0,230,,5.0,,,,,,,,,,,,,,,,,,,,,,,,,,,,,,,,,,,,,MET09910/22/24 13:46:02 METAR KNRA 222146Z 23004KT 10SM SCT040 13/07 A3033 RMK AO2 SLP213 T01280072 PNO $,FM-15,6,,,,,,,,,,,,,,,,,,,,,,,,,,,2021-11-22
A0002694297,2024-10-22 14:46:00,FM-15,6,,,,,,,,,,,,,,,,,,,,,,,,,,,,,,,,,,,,,,,30.32,46.0,57.0,,,,,67.0,30.15,FEW:02 34 FEW:02 43,30.1,10.00,51.0,010,,8.0,,,,,,,,,,,,,,,,,,,,,,,,,,,,,,,,,,,,,MET10610/22/24 14:46:02 METAR KNRA 222246Z 01007KT 10SM FEW034 FEW043 14/08 A3032 RMK AO2 SLP211 T01390078 PNO $,FM-15,6,,,,,,,,,,,,,,,,,,,,,,,,,,,2021-11-22
A0002694297,2024-10-22 15:46:00,FM-15,6,,,,,,,,,,,,,,,,,,,,,,,,,,,,,,,,,,,,,,,30.31,47.0,55.0,,,0.03,8.0,74.0,30.14,CLR:00,30.09,10.00,51.0,350,,6.0,,,,,,,,,,,,,,,,,,,,,,,,,,,,,,,,,,,,,MET12010/22/24 15:46:02 METAR KNRA 222346Z 35005KT 10SM CLR 13/08 A3031 RMK AO2 SLP206 6//// T01280083 10139 20106 58011 PNO $,FM-15,6,,,,,,,,,,,,,,,,,,,,,,,,,,,2021-11-22
A0002694297,2024-10-22 16:46:00,FM-15,6,,,,,,,,,,,,,,,,,,,,,,,,,,,,,,,,,,,,,,,30.3,45.0,50.0,,,,,83.0,30.13,CLR:00,30.08,10.00,48.0,270,,5.0,,,,,,,,,,,,,,,,,,,,,,,,,,,,,,,,,,,,,MET09610/22/24 16:46:01 METAR KNRA 230046Z 27004KT 10SM CLR 10/07 A3030 RMK AO2 SLP204 T01000072 PNO $,FM-15,6,,,,,,,,,,,,,,,,,,,,,,,,,,,2021-11-22
A0002694297,2024-10-22 17:46:00,FM-15,6,,,,,,,,,,,,,,,,,,,,,,,,,,,,,,,,,,,,,,,30.3,43.0,45.0,,,,,93.0,30.13,CLR:00,30.08,10.00,44.0,,,,,,,,,,,,,,,,,,,,,,,,,,,,,,,,,,,,,,,,MET09610/22/24 17:46:01 METAR KNRA 230146Z      KT 10SM CLR 07/06 A3030 RMK AO2 SLP204 T00720061 PNO $,FM-15,6,,,,,,,,,,,,,,,,,,,,,,,,,,,2021-11-22
A0002694297,2024-10-22 18:46:00,FM-15,6,,,,,,,,,,,,,,,,,,,,,,,,,,,,,,,,,,,,,,,30.3,44.0,46.0,,,0.01,6.0,93.0,30.13,CLR:00,30.08,10.00,45.0,,,,,,,,,,,,,,,,,,,,,,,,,,,,,,,,,,,,,,,,MET10810/22/24 18:46:01 METAR KNRA 230246Z      KT 10SM CLR 08/07 A3030 RMK AO2 SLP203 6//// T00780067 56003 PNO $,FM-15,6,,,,,,,,,,,,,,,,,,,,,,,,,,,2021-11-22
A0002694297,2024-10-22 19:46:00,FM-15,6,,,,,,,,,,,,,,,,,,,,,,,,,,,,,,,,,,,,,,,30.3,42.0,44.0,,,,,93.0,30.13,CLR:00,30.08,10.00,43.0,,,,,,,,,,,,,,,,,,,,,,,,,,,,,,,,,,,,,,,,MET09610/22/24 19:46:01 METAR KNRA 230346Z      KT 10SM CLR 07/06 A3030 RMK AO2 SLP203 T00670056 PNO $,FM-15,6,,,,,,,,,,,,,,,,,,,,,,,,,,,2021-11-22
A0002694297,2024-10-22 20:46:00,FM-15,6,,,,,,,,,,,,,,,,,,,,,,,,,,,,,,,,,,,,,,,30.3,42.0,46.0,,,,,86.0,30.13,CLR:00,30.08,10.00,44.0,,,,,,,,,,,,,,,,,,,,,,,,,,,,,,,,,,,,,,,,MET09610/22/24 20:46:01 METAR KNRA 230446Z      KT 10SM CLR 08/06 A3030 RMK AO2 SLP202 T00780056 PNO $,FM-15,6,,,,,,,,,,,,,,,,,,,,,,,,,,,2021-11-22
A0002694297,2024-10-22 21:46:00,FM-15,6,,,,,,,,,,,,,,,,,,,,,,,,,,,,,,,,,,,,,,,30.3,43.0,46.0,,,0.0,5.0,89.0,30.13,FEW:02 28,30.08,10.00,45.0,,,,,,,,,,,,,,,,,,,,,,,,,,,,,,,,,,,,,,,,MET12310/22/24 21:46:02 METAR KNRA 230546Z      KT 10SM FEW028 08/06 A3030 RMK AO2 SLP202 6//// T00780061 10128 20067 55001 PNO $,FM-15,6,,,,,,,,,,,,,,,,,,,,,,,,,,,2021-11-22
A0002694297,2024-10-22 23:46:00,FM-15,6,,,,,,,,,,,,,,,,,,,,,,,,,,,,,,,,,,,,,,,30.29,39.0,40.0,,BR:1 ||,,,97.0,30.12,CLR:00,30.07,3.00,40.0,,,,,,,,,,,,,,,,,,,,,,,,,,,,,,,,,,,,,,,,MET10810/22/24 23:46:02 METAR KNRA 230746Z      KT 3SM BR CLR 04/04 A3029 RMK AO2 SLP199 T00440039 401390044 PNO $,FM-15,6,,,,,,,,,,,,,,,,,,,,,,,,,,,2021-11-22
A0002694297,2024-10-22 23:59:00,SOD  ,O,,,,,,,,,,,,,,,,,,,,,,,,,,,,,,,,,,,,BR,,,,,,,,,,,,,,,,,,,,,,,,,,,,,,,,,,,,,,,,,,,,,,,,,,,,,,,,SOD  ,O,,,,,,,,,,,,,,,,,,,,,,,,,642.0,1707.0,2021-11-22
A0002694297,2024-10-23 00:46:00,FM-15,6,,,,,,,,,,,,,,,,,,,,,,,,,,,,,,,,,,,,,,,30.29,42.0,43.0,,FG:2 |FG |,0.01,7.0,97.0,30.11,VV:09 4,30.07,0.50,43.0,,,,,,,,,,,,,,,,,,,,,,,,,,,,,,,,,,,,,,,,MET11410/23/24 00:46:01 METAR KNRA 230846Z      KT 1/2SM FG VV004 06/06 A3029 RMK AO2 SLP198 6//// T00610056 57004 PNO $,FM-15,6,,,,,,,,,,,,,,,,,,,,,,,,,,,2021-11-22
A0002694297,2024-10-23 01:46:00,FM-15,6,,,,,,,,,,,,,,,,,,,,,,,,,,,,,,,,,,,,,,,30.27,44.0,45.0,,,,,97.0,30.1,OVC:08 21,30.05,10.00,45.0,,,,,,,,,,,,,,,,,,,,,,,,,,,,,,,,,,,,,,,,MET09910/23/24 01:46:01 METAR KNRA 230946Z      KT 10SM OVC021 07/07 A3027 RMK AO2 SLP194 T00720067 PNO $,FM-15,6,,,,,,,,,,,,,,,,,,,,,,,,,,,2021-11-22
A0002694297,2024-10-23 02:46:00,FM-15,6,,,,,,,,,,,,,,,,,,,,,,,,,,,,,,,,,,,,,,,30.26,46.0,47.0,,,,,97.0,30.09,SCT:04 9 OVC:08 24,30.04,8.00,47.0,,,,,,,,,,,,,,,,,,,,,,,,,,,,,,,,,,,,,,,,MET10510/23/24 02:46:02 METAR KNRA 231046Z      KT 8SM SCT009 OVC024 08/08 A3026 RMK AO2 SLP190 T00830078 PNO $,FM-15,6,,,,,,,,,,,,,,,,,,,,,,,,,,,2021-11-22
A0002694297,2024-10-23 03:46:00,FM-15,6,,,,,,,,,,,,,,,,,,,,,,,,,,,,,,,,,,,,,,,30.26,46.0,47.0,,,0.02,6.0,97.0,30.09,OVC:08 5,30.04,9.00,47.0,,,,,,,,,,,,,,,,,,,,,,,,,,,,,,,,,,,,,,,,MET12810/23/24 03:46:01 METAR KNRA 231146Z      KT 9SM OVC005 08/08 A3026 RMK AO2 SLP190 6//// 7//// T00830078 10083 20039 56008 PNO $,FM-15,6,,,,,,,,,,,,,,,,,,,,,,,,,,,2021-11-22
A0002694297,2024-10-23 04:46:00,FM-15,6,,,,,,,,,,,,,,,,,,,,,,,,,,,,,,,,,,,,,,,30.26,46.0,47.0,,,,,97.0,30.09,OVC:08 6,30.04,10.00,47.0,290,,5.0,,,,,,,,,,,,,,,,,,,,,,,,,,,,,,,,,,,,,MET11110/23/24 04:46:01 METAR KNRA 231246Z 29004KT 10SM OVC006 08/08 A3026 RMK AO2 CIG 005V009 SLP190 T00830078 PNO $,FM-15,6,,,,,,,,,,,,,,,,,,,,,,,,,,,2021-11-22
A0002694297,2024-10-23 05:46:00,FM-15,6,,,,,,,,,,,,,,,,,,,,,,,,,,,,,,,,,,,,,,,30.26,46.0,47.0,,,,,97.0,30.09,BKN:07 7 BKN:07 11 OVC:08 16,30.04,10.00,47.0,270,,5.0,,,,,,,,,,,,,,,,,,,,,,,,,,,,,,,,,,,,,MET11310/23/24 05:46:02 METAR KNRA 231346Z 27004KT 10SM BKN007 BKN011 OVC016 08/08 A3026 RMK AO2 SLP191 T00830078 PNO $,FM-15,6,,,,,,,,,,,,,,,,,,,,,,,,,,,2021-11-22
A0002694297,2024-10-23 06:46:00,FM-15,6,,,,,,,,,,,,,,,,,,,,,,,,,,,,,,,,,,,,,,,30.27,45.0,47.0,,,-0.01,3.0,93.0,30.1,OVC:08 5,30.05,10.00,46.0,250,,6.0,,,,,,,,,,,,,,,,,,,,,,,,,,,,,,,,,,,,,MET11110/23/24 06:46:01 METAR KNRA 231446Z 25005KT 10SM OVC005 08/07 A3027 RMK AO2 SLP193 6//// T00830072 53003 PNO $,FM-15,6,,,,,,,,,,,,,,,,,,,,,,,,,,,2021-11-22
A0002694297,2024-10-23 08:46:00,FM-15,6,,,,,,,,,,,,,,,,,,,,,,,,,,,,,,,,,,,,,,,30.29,45.0,48.0,,,,,89.0,30.12,BKN:07 8 BKN:07 28 OVC:08 65,30.07,10.00,47.0,270,,3.0,,,,,,,,,,,,,,,,,,,,,,,,,,,,,,,,,,,,,MET11310/23/24 08:46:02 METAR KNRA 231646Z 27003KT 10SM BKN008 BKN028 OVC065 09/07 A3029 RMK AO2 SLP200 T00890072 PNO $,FM-15,6,,,,,,,,,,,,,,,,,,,,,,,,,,,2021-11-22
A0002694297,2024-10-23 09:46:00,FM-15,6,,,,,,,,,,,,,,,,,,,,,,,,,,,,,,,,,,,,,,,30.3,45.0,49.0,,,-0.03,1.0,86.0,30.13,OVC:08 9,30.08,10.00,47.0,310,,3.0,,,,,,,,,,,,,,,,,,,,,,,,,,,,,,,,,,,,,MET12310/23/24 09:46:01 METAR KNRA 231746Z 31003KT 10SM OVC009 09/07 A3030 RMK AO2 SLP202 6//// T00940072 10094 20078 51009 PNO $,FM-15,6,,,,,,,,,,,,,,,,,,,,,,,,,,,2021-11-22
A0002694297,2024-10-23 10:46:00,FM-15,6,,,,,,,,,,,,,,,,,,,,,,,,,,,,,,,,,,,,,,,30.3,45.0,49.0,,,,,86.0,30.13,FEW:02 14 BKN:07 29 OVC:08 35,30.08,10.00,47.0,330,,3.0,,,,,,,,,,,,,,,,,,,,,,,,,,,,,,,,,,,,,MET11310/23/24 10:46:01 METAR KNRA 231846Z 33003KT 10SM FEW014 BKN029 OVC035 09/07 A3030 RMK AO2 SLP204 T00940072 PNO $,FM-15,6,,,,,,,,,,,,,,,,,,,,,,,,,,,2021-11-22
A0002694297,2024-10-23 11:46:00,FM-15,6,,,,,,,,,,,,,,,,,,,,,,,,,,,,,,,,,,,,,,,30.31,45.0,50.0,,,,,83.0,30.14,BKN:07 13 OVC:08 70,30.09,10.00,48.0,260,,8.0,,,,,,,,,,,,,,,,,,,,,,,,,,,,,,,,,,,,,MET10610/23/24 11:46:02 METAR KNRA 231946Z 26007KT 10SM BKN013 OVC070 10/07 A3031 RMK AO2 SLP206 T01000072 PNO $,FM-15,6,,,,,,,,,,,,,,,,,,,,,,,,,,,2021-11-22
A0002694297,2024-10-23 12:46:00,FM-15,6,,,,,,,,,,,,,,,,,,,,,,,,,,,,,,,,,,,,,,,30.3,44.0,51.0,,,-0.0,0.0,77.0,30.13,FEW:02 11,30.08,10.00,48.0,000,,0.0,,,,,,,,,,,,,,,,,,,,,,,,,,,,,,,,,,,,,MET11110/23/24 12:46:02 METAR KNRA 232046Z 00000KT 10SM FEW011 11/07 A3030 RMK AO2 SLP203 6//// T01060067 50001 PNO $,FM-15,6,,,,,,,,,,,,,,,,,,,,,,,,,,,2021-11-22
A0002694297,2024-10-23 13:46:00,FM-15,6,,,,,,,,,,,,,,,,,,,,,,,,,,,,,,,,,,,,,,,30.3,41.0,53.0,,,,,64.0,30.13,FEW:02 21,30.08,10.00,47.0,270,,7.0,,,,,,,,,,,,,,,,,,,,,,,,,,,,,,,,,,,,,MET09910/23/24 13:46:02 METAR KNRA 232146Z 27006KT 10SM FEW021 12/05 A3030 RMK AO2 SLP203 T01170050 PNO $,FM-15,6,,,,,,,,,,,,,,,,,,,,,,,,,,,2021-11-22
A0002694297,2024-10-23 14:46:00,FM-15,6,,,,,,,,,,,,,,,,,,,,,,,,,,,,,,,,,,,,,,,30.3,41.0,53.0,,,,,64.0,30.13,CLR:00,30.08,10.00,47.0,VRB,,5.0,,,,,,,,,,,,,,,,,,,,,,,,,,,,,,,,,,,,,MET09610/23/24 14:46:01 METAR KNRA 232246Z VRB04KT 10SM CLR 12/05 A3030 RMK AO2 SLP202 T01170050 PNO $,FM-15,6,,,,,,,,,,,,,,,,,,,,,,,,,,,2021-11-22
A0002694297,2024-10-23 15:46:00,FM-15,6,,,,,,,,,,,,,,,,,,,,,,,,,,,,,,,,,,,,,,,30.3,37.0,51.0,,,0.0,5.0,59.0,30.13,CLR:00,30.08,10.00,45.0,230,,6.0,,,,,,,,,,,,,,,,,,,,,,,,,,,,,,,,,,,,,MET12010/23/24 15:46:02 METAR KNRA 232346Z 23005KT 10SM CLR 11/03 A3030 RMK AO2 SLP203 6//// T01060028 10117 20094 55000 PNO $,FM-15,6,,,,,,,,,,,,,,,,,,,,,,,,,,,2021-11-22
A0002694297,2024-10-23 16:46:00,FM-15,6,,,,,,,,,,,,,,,,,,,,,,,,,,,,,,,,,,,,,,,30.3,38.0,48.0,,,,,68.0,30.14,SCT:04 75,30.08,10.00,43.0,,,,,,,,,,,,,,,,,,,,,,,,,,,,,,,,,,,,,,,,MET09910/23/24 16:46:01 METAR KNRA 240046Z      KT 10SM SCT075 09/03 A3030 RMK AO2 SLP205 T00890033 PNO $,FM-15,6,,,,,,,,,,,,,,,,,,,,,,,,,,,2021-11-22
A0002694297,2024-10-23 17:46:00,FM-15,6,,,,,,,,,,,,,,,,,,,,,,,,,,,,,,,,,,,,,,,30.33,42.0,49.0,,,,,77.0,30.16,SCT:04 38 BKN:07 47 OVC:08 70,30.11,10.00,46.0,230,,7.0,,,,,,,,,,,,,,,,,,,,,,,,,,,,,,,,,,,,,MET11310/23/24 17:46:01 METAR KNRA 240146Z 23006KT 10SM SCT038 BKN047 OVC070 09/06 A3033 RMK AO2 SLP212 T00940056 PNO $,FM-15,6,,,,,,,,,,,,,,,,,,,,,,,,,,,2021-11-22
A0002694297,2024-10-23 18:46:00,FM-15,6,,,,,,,,,,,,,,,,,,,,,,,,,,,,,,,,,,,,,,,30.34,43.0,48.0,,-RA:02 |RA |RA,-0.04,3.0,83.0,30.17,BKN:07 55 OVC:08 70,30.12,10.00,46.0,230,,8.0,,,,,,,,,,,,,,,,,,,,,,,,,,,,,,,,,,,,,MET12810/23/24 18:46:01 METAR KNRA 240246Z 23007KT 10SM -RA BKN055 OVC070 09/06 A3034 RMK AO2 RAB14 SLP216 6//// T00890061 53013 PNO $,FM-15,6,,,,,,,,,,,,,,,,,,,,,,,,,,,2021-11-22
A0002694297,2024-10-23 19:46:00,FM-15,6,,,,,,,,,,,,,,,,,,,,,,,,,,,,,,,,,,,,,,,30.35,43.0,48.0,,,,,83.0,30.18,FEW:02 43 SCT:04 55 OVC:08 80,30.13,10.00,46.0,190,,5.0,,,,,,,,,,,,,,,,,,,,,,,,,,,,,,,,,,,,,MET11910/23/24 19:46:01 METAR KNRA 240346Z 19004KT 10SM FEW043 SCT055 OVC080 09/06 A3035 RMK AO2 RAE03 SLP221 T00890061 PNO $,FM-15,6,,,,,,,,,,,,,,,,,,,,,,,,,,,2021-11-22
A0002694297,2024-10-23 20:46:00,FM-15,6,,,,,,,,,,,,,,,,,,,,,,,,,,,,,,,,,,,,,,,30.35,43.0,47.0,,,,,86.0,30.19,SCT:04 47 BKN:07 65 OVC:08 75,30.13,10.00,45.0,260,,5.0,,,,,,,,,,,,,,,,,,,,,,,,,,,,,,,,,,,,,MET11310/23/24 20:46:01 METAR KNRA 240446Z 26004KT 10SM SCT047 BKN065 OVC075 08/06 A3035 RMK AO2 SLP222 T00830061 PNO $,FM-15,6,,,,,,,,,,,,,,,,,,,,,,,,,,,2021-11-22
A0002694297,2024-10-23 21:46:00,FM-15,6,,,,,,,,,,,,,,,,,,,,,,,,,,,,,,,,,,,,,,,30.36,43.0,48.0,,,-0.02,1.0,83.0,30.19,SCT:04 50 OVC:08 70,30.14,10.00,46.0,000,,0.0,,,,,,,,,,,,,,,,,,,,,,,,,,,,,,,,,,,,,MET13010/23/24 21:46:01 METAR KNRA 240546Z 00000KT 10SM SCT050 OVC070 09/06 A3036 RMK AO2 SLP222 6//// T00890061 10106 20083 51006 PNO $,FM-15,6,,,,,,,,,,,,,,,,,,,,,,,,,,,2021-11-22
A0002694297,2024-10-23 22:46:00,FM-15,6,,,,,,,,,,,,,,,,,,,,,,,,,,,,,,,,,,,,,,,30.35,43.0,45.0,,,,,93.0,30.19,SCT:04 44 BKN:07 75,30.13,10.00,44.0,000,,0.0,,,,,,,,,,,,,,,,,,,,,,,,,,,,,,,,,,,,,MET10610/23/24 22:46:01 METAR KNRA 240646Z 00000KT 10SM SCT044 BKN075 07/06 A3035 RMK AO2 SLP222 T00720061 PNO $,FM-15,6,,,,,,,,,,,,,,,,,,,,,,,,,,,2021-11-22
A0002694297,2024-10-23 23:46:00,FM-15,6,,,,,,,,,,,,,,,,,,,,,,,,,,,,,,,,,,,,,,,30.35,40.0,41.0,,BR:1 ||,,,96.0,30.19,FEW:02 70,30.13,1.25,41.0,000,,0.0,,,,,,,,,,,,,,,,,,,,,,,,,,,,,,,,,,,,,MET11510/23/24 23:46:01 METAR KNRA 240746Z 00000KT 1 1/4SM BR FEW070 05/04 A3035 RMK AO2 SLP222 T00500044 401170039 PNO $,FM-15,6,,,,,,,,,,,,,,,,,,,,,,,,,,,2021-11-22
A0002694297,2024-10-23 23:59:00,SOD  ,O,,,,,,,,,,,,,,,,,,,,,,,,,,,,,,,,,,,,RA FG BR,,,,,,,,,,,,,,,,,,,,,,,,,,,,,,,,,,,,,,,,,,,,,,,,,,,,,,,,SOD  ,O,,,,,,,,,,,,,,,,,,,,,,,,,643.0,1705.0,2021-11-22
A0002694297,2024-10-24 00:46:00,FM-15,6,,,,,,,,,,,,,,,,,,,,,,,,,,,,,,,,,,,,,,,30.35,40.0,41.0,,,0.0,8.0,96.0,30.18,OVC:08 65,30.13,10.00,41.0,000,,0.0,,,,,,,,,,,,,,,,,,,,,,,,,,,,,,,,,,,,,MET11110/24/24 00:46:01 METAR KNRA 240846Z 00000KT 10SM OVC065 05/04 A3035 RMK AO2 SLP221 6//// T00500044 58001 PNO $,FM-15,6,,,,,,,,,,,,,,,,,,,,,,,,,,,2021-11-22
A0002694297,2024-10-24 01:46:00,FM-15,6,,,,,,,,,,,,,,,,,,,,,,,,,,,,,,,,,,,,,,,30.35,41.0,42.0,,,,,96.0,30.19,BKN:07 46 OVC:08 65,30.13,10.00,42.0,000,,0.0,,,,,,,,,,,,,,,,,,,,,,,,,,,,,,,,,,,,,MET10610/24/24 01:46:01 METAR KNRA 240946Z 00000KT 10SM BKN046 OVC065 06/05 A3035 RMK AO2 SLP222 T00560050 PNO $,FM-15,6,,,,,,,,,,,,,,,,,,,,,,,,,,,2021-11-22
A0002694297,2024-10-24 02:46:00,FM-15,6,,,,,,,,,,,,,,,,,,,,,,,,,,,,,,,,,,,,,,,30.36,39.0,40.0,,,,,97.0,30.19,BKN:07 65,30.14,7.00,40.0,000,,0.0,,,,,,,,,,,,,,,,,,,,,,,,,,,,,,,,,,,,,MET09810/24/24 02:46:01 METAR KNRA 241046Z 00000KT 7SM BKN065 04/04 A3036 RMK AO2 SLP225 T00440039 PNO $,FM-15,6,,,,,,,,,,,,,,,,,,,,,,,,,,,2021-11-22
A0002694297,2024-10-24 03:46:00,FM-15,6,,,,,,,,,,,,,,,,,,,,,,,,,,,,,,,,,,,,,,,30.37,42.0,43.0,,,-0.01,1.0,97.0,30.2,FEW:02 10 OVC:08 55,30.15,10.00,43.0,150,,5.0,,,,,,,,,,,,,,,,,,,,,,,,,,,,,,,,,,,,,MET13610/24/24 03:46:01 METAR KNRA 241146Z 15004KT 10SM FEW010 OVC055 06/06 A3037 RMK AO2 SLP226 6//// 7//// T00610056 10089 20039 51005 PNO $,FM-15,6,,,,,,,,,,,,,,,,,,,,,,,,,,,2021-11-22
A0002694297,2024-10-24 04:46:00,FM-15,6,,,,,,,,,,,,,,,,,,,,,,,,,,,,,,,,,,,,,,,30.37,41.0,43.0,,,,,93.0,30.19,FEW:02 8 BKN:07 60,30.15,10.00,42.0,160,,3.0,,,,,,,,,,,,,,,,,,,,,,,,,,,,,,,,,,,,,MET10610/24/24 04:46:01 METAR KNRA 241246Z 16003KT 10SM FEW008 BKN060 06/05 A3037 RMK AO2 SLP225 T00610050 PNO $,FM-15,6,,,,,,,,,,,,,,,,,,,,,,,,,,,2021-11-22
A0002694297,2024-10-24 05:46:00,FM-15,6,,,,,,,,,,,,,,,,,,,,,,,,,,,,,,,,,,,,,,,30.37,44.0,45.0,,,,,97.0,30.2,BKN:07 38 OVC:08 60,30.15,10.00,45.0,140,,5.0,,,,,,,,,,,,,,,,,,,,,,,,,,,,,,,,,,,,,MET10610/24/24 05:46:01 METAR KNRA 241346Z 14004KT 10SM BKN038 OVC060 07/07 A3037 RMK AO2 SLP228 T00720067 PNO $,FM-15,6,,,,,,,,,,,,,,,,,,,,,,,,,,,2021-11-22
A0002694297,2024-10-24 06:46:00,FM-15,6,,,,,,,,,,,,,,,,,,,,,,,,,,,,,,,,,,,,,,,30.37,44.0,46.0,,,-0.01,3.0,93.0,30.2,OVC:08 55,30.15,10.00,45.0,170,,3.0,,,,,,,,,,,,,,,,,,,,,,,,,,,,,,,,,,,,,MET11110/24/24 06:46:02 METAR KNRA 241446Z 17003KT 10SM OVC055 08/07 A3037 RMK AO2 SLP228 6//// T00780067 53003 PNO $,FM-15,6,,,,,,,,,,,,,,,,,,,,,,,,,,,2021-11-22
A0002694297,2024-10-24 07:46:00,FM-15,6,,,,,,,,,,,,,,,,,,,,,,,,,,,,,,,,,,,,,,,30.37,43.0,46.0,,,,,89.0,30.2,BKN:07 60,30.15,10.00,45.0,160,,3.0,,,,,,,,,,,,,,,,,,,,,,,,,,,,,,,,,,,,,MET09910/24/24 07:46:01 METAR KNRA 241546Z 16003KT 10SM BKN060 08/06 A3037 RMK AO2 SLP227 T00780061 PNO $,FM-15,6,,,,,,,,,,,,,,,,,,,,,,,,,,,2021-11-22
A0002694297,2024-10-24 08:46:00,FM-15,6,,,,,,,,,,,,,,,,,,,,,,,,,,,,,,,,,,,,,,,30.37,44.0,48.0,,,,,86.0,30.2,BKN:07 40 OVC:08 55,30.15,10.00,46.0,130,,5.0,,,,,,,,,,,,,,,,,,,,,,,,,,,,,,,,,,,,,MET10610/24/24 08:46:02 METAR KNRA 241646Z 13004KT 10SM BKN040 OVC055 09/07 A3037 RMK AO2 SLP226 T00890067 PNO $,FM-15,6,,,,,,,,,,,,,,,,,,,,,,,,,,,2021-11-22
A0002694297,2024-10-24 09:46:00,FM-15,6,,,,,,,,,,,,,,,,,,,,,,,,,,,,,,,,,,,,,,,30.36,44.0,49.0,,,0.01,7.0,83.0,30.19,SCT:04 13 BKN:07 40 OVC:08 55,30.14,10.00,47.0,160,,6.0,,,,,,,,,,,,,,,,,,,,,,,,,,,,,,,,,,,,,MET13710/24/24 09:46:01 METAR KNRA 241746Z 16005KT 10SM SCT013 BKN040 OVC055 09/07 A3036 RMK AO2 SLP225 6//// T00940067 10094 20056 57003 PNO $,FM-15,6,,,,,,,,,,,,,,,,,,,,,,,,,,,2021-11-22
A0002694297,2024-10-24 10:46:00,FM-15,6,,,,,,,,,,,,,,,,,,,,,,,,,,,,,,,,,,,,,,,30.35,44.0,51.0,,,,,77.0,30.18,BKN:07 14 BKN:07 50,30.13,10.00,48.0,150,,6.0,,,,,,,,,,,,,,,,,,,,,,,,,,,,,,,,,,,,,MET10610/24/24 10:46:01 METAR KNRA 241846Z 15005KT 10SM BKN014 BKN050 11/07 A3035 RMK AO2 SLP221 T01060067 PNO $,FM-15,6,,,,,,,,,,,,,,,,,,,,,,,,,,,2021-11-22
A0002694297,2024-10-24 11:46:00,FM-15,6,,,,,,,,,,,,,,,,,,,,,,,,,,,,,,,,,,,,,,,30.34,41.0,51.0,,,,,69.0,30.17,FEW:02 48,30.12,10.00,46.0,070,,5.0,,,,,,,,,,,,,,,,,,,,,,,,,,,,,,,,,,,,,MET09910/24/24 11:46:02 METAR KNRA 241946Z 07004KT 10SM FEW048 11/05 A3034 RMK AO2 SLP217 T01060050 PNO $,FM-15,6,,,,,,,,,,,,,,,,,,,,,,,,,,,2021-11-22
A0002694297,2024-10-24 12:46:00,FM-15,6,,,,,,,,,,,,,,,,,,,,,,,,,,,,,,,,,,,,,,,30.3,40.0,53.0,,,0.06,8.0,61.0,30.13,FEW:02 27 FEW:02 43,30.08,10.00,47.0,080,,5.0,,,,,,,,,,,,,,,,,,,,,,,,,,,,,,,,,,,,,MET11810/24/24 12:46:01 METAR KNRA 242046Z 08004KT 10SM FEW027 FEW043 12/04 A3030 RMK AO2 SLP204 6//// T01170044 58021 PNO $,FM-15,6,,,,,,,,,,,,,,,,,,,,,,,,,,,2021-11-22
A0002694297,2024-10-24 13:46:00,FM-15,6,,,,,,,,,,,,,,,,,,,,,,,,,,,,,,,,,,,,,,,30.28,40.0,54.0,,,,,59.0,30.11,CLR:00,30.06,10.00,47.0,010,,7.0,,,,,,,,,,,,,,,,,,,,,,,,,,,,,,,,,,,,,MET09610/24/24 13:46:02 METAR KNRA 242146Z 01006KT 10SM CLR 12/04 A3028 RMK AO2 SLP196 T01220044 PNO $,FM-15,6,,,,,,,,,,,,,,,,,,,,,,,,,,,2021-11-22
A0002694297,2024-10-24 14:46:00,FM-15,6,,,,,,,,,,,,,,,,,,,,,,,,,,,,,,,,,,,,,,,30.26,36.0,54.0,,,,,51.0,30.09,CLR:00,30.04,10.00,46.0,020,,3.0,,,,,,,,,,,,,,,,,,,,,,,,,,,,,,,,,,,,,MET09610/24/24 14:46:02 METAR KNRA 242246Z 02003KT 10SM CLR 12/02 A3026 RMK AO2 SLP190 T01220022 PNO $,FM-15,6,,,,,,,,,,,,,,,,,,,,,,,,,,,2021-11-22
A0002694297,2024-10-24 15:46:00,FM-15,6,,,,,,,,,,,,,,,,,,,,,,,,,,,,,,,,,,,,,,,30.24,39.0,50.0,,,0.06,6.0,66.0,30.07,CLR:00,30.02,10.00,45.0,360,,3.0,,,,,,,,,,,,,,,,,,,,,,,,,,,,,,,,,,,,,MET12010/24/24 15:46:02 METAR KNRA 242346Z 36003KT 10SM CLR 10/04 A3024 RMK AO2 SLP184 6//// T01000039 10128 20094 56020 PNO $,FM-15,6,,,,,,,,,,,,,,,,,,,,,,,,,,,2021-11-22
A0002694297,2024-10-24 16:46:00,FM-15,6,,,,,,,,,,,,,,,,,,,,,,,,,,,,,,,,,,,,,,,30.22,39.0,45.0,,,,,80.0,30.05,CLR:00,30.0,10.00,42.0,330,,5.0,,,,,,,,,,,,,,,,,,,,,,,,,,,,,,,,,,,,,MET09610/24/24 16:46:01 METAR KNRA 250046Z 33004KT 10SM CLR 07/04 A3022 RMK AO2 SLP177 T00720039 PNO $,FM-15,6,,,,,,,,,,,,,,,,,,,,,,,,,,,2021-11-22
A0002694297,2024-10-24 17:46:00,FM-15,6,,,,,,,,,,,,,,,,,,,,,,,,,,,,,,,,,,,,,,,30.21,39.0,44.0,,,,,83.0,30.04,CLR:00,29.99,10.00,42.0,360,,6.0,,,,,,,,,,,,,,,,,,,,,,,,,,,,,,,,,,,,,MET09610/24/24 17:46:01 METAR KNRA 250146Z 36005KT 10SM CLR 07/04 A3021 RMK AO2 SLP173 T00670039 PNO $,FM-15,6,,,,,,,,,,,,,,,,,,,,,,,,,,,2021-11-22
A0002694297,2024-10-24 18:46:00,FM-15,6,,,,,,,,,,,,,,,,,,,,,,,,,,,,,,,,,,,,,,,30.19,39.0,44.0,,,0.05,6.0,83.0,30.02,CLR:00,29.97,10.00,42.0,030,,3.0,,,,,,,,,,,,,,,,,,,,,,,,,,,,,,,,,,,,,MET10810/24/24 18:46:01 METAR KNRA 250246Z 03003KT 10SM CLR 07/04 A3019 RMK AO2 SLP167 6//// T00670039 56017 PNO $,FM-15,6,,,,,,,,,,,,,,,,,,,,,,,,,,,2021-11-22
A0002694297,2024-10-24 19:46:00,FM-15,6,,,,,,,,,,,,,,,,,,,,,,,,,,,,,,,,,,,,,,,30.17,39.0,42.0,,,,,89.0,30.0,CLR:00,29.95,10.00,41.0,000,,0.0,,,,,,,,,,,,,,,,,,,,,,,,,,,,,,,,,,,,,MET09610/24/24 19:46:01 METAR KNRA 250346Z 00000KT 10SM CLR 06/04 A3017 RMK AO2 SLP160 T00560039 PNO $,FM-15,6,,,,,,,,,,,,,,,,,,,,,,,,,,,2021-11-22
A0002694297,2024-10-24 20:46:00,FM-15,6,,,,,,,,,,,,,,,,,,,,,,,,,,,,,,,,,,,,,,,30.16,39.0,41.0,,,,,93.0,30.0,CLR:00,29.94,10.00,40.0,020,,5.0,,,,,,,,,,,,,,,,,,,,,,,,,,,,,,,,,,,,,MET09610/24/24 20:46:01 METAR KNRA 250446Z 02004KT 10SM CLR 05/04 A3016 RMK AO2 SLP158 T00500039 PNO $,FM-15,6,,,,,,,,,,,,,,,,,,,,,,,,,,,2021-11-22
A0002694297,2024-10-24 21:46:00,FM-15,6,,,,,,,,,,,,,,,,,,,,,,,,,,,,,,,,,,,,,,,30.15,38.0,40.0,,,0.04,6.0,93.0,29.98,CLR:00,29.93,10.00,39.0,010,,6.0,,,,,,,,,,,,,,,,,,,,,,,,,,,,,,,,,,,,,MET12010/24/24 21:46:01 METAR KNRA 250546Z 01005KT 10SM CLR 04/03 A3015 RMK AO2 SLP154 6//// T00440033 10106 20039 56013 PNO $,FM-15,6,,,,,,,,,,,,,,,,,,,,,,,,,,,2021-11-22
A0002694297,2024-10-24 22:46:00,FM-15,6,,,,,,,,,,,,,,,,,,,,,,,,,,,,,,,,,,,,,,,30.14,38.0,41.0,,,,,89.0,29.97,CLR:00,29.92,10.00,40.0,360,,3.0,,,,,,,,,,,,,,,,,,,,,,,,,,,,,,,,,,,,,MET09610/24/24 22:46:01 METAR KNRA 250646Z 36003KT 10SM CLR 05/03 A3014 RMK AO2 SLP150 T00500033 PNO $,FM-15,6,,,,,,,,,,,,,,,,,,,,,,,,,,,2021-11-22
A0002694297,2024-10-24 23:46:00,FM-15,6,,,,,,,,,,,,,,,,,,,,,,,,,,,,,,,,,,,,,,,30.12,37.0,39.0,,,,,93.0,29.95,CLR:00,29.9,10.00,38.0,000,,0.0,,,,,,,,,,,,,,,,,,,,,,,,,,,,,,,,,,,,,MET10610/24/24 23:46:01 METAR KNRA 250746Z 00000KT 10SM CLR 04/03 A3012 RMK AO2 SLP143 T00390028 401280039 PNO $,FM-15,6,,,,,,,,,,,,,,,,,,,,,,,,,,,2021-11-22
A0002694297,2024-10-25 01:46:00,FM-15,6,,,,,,,,,,,,,,,,,,,,,,,,,,,,,,,,,,,,,,,30.09,35.0,35.0,,FG:2 |FG |,,,100.0,29.93,CLR:00,29.87,0.50,35.0,000,,0.0,,,,,,,,,,,,,,,,,,,,,,,,,,,,,,,,,,,,,MET10710/25/24 01:46:01 METAR KNRA 250946Z 00000KT 1/2SM FG CLR 02/02 A3009 RMK AO2 SLP134 T00170017 FZRANO PNO $,FM-15,6,,,,,,,,,,,,,,,,,,,,,,,,,,,2021-11-22
A0002694297,2024-10-25 02:46:00,FM-15,6,,,,,,,,,,,,,,,,,,,,,,,,,,,,,,,,,,,,,,,30.06,37.0,38.0,,,,,97.0,29.9,CLR:00,29.84,10.00,38.0,060,,5.0,,,,,,,,,,,,,,,,,,,,,,,,,,,,,,,,,,,,,MET09610/25/24 02:46:01 METAR KNRA 251046Z 06004KT 10SM CLR 03/03 A3006 RMK AO2 SLP124 T00330028 PNO $,FM-15,6,,,,,,,,,,,,,,,,,,,,,,,,,,,2021-11-22
A0002694297,2024-10-25 03:46:00,FM-15,6,,,,,,,,,,,,,,,,,,,,,,,,,,,,,,,,,,,,,,,30.05,38.0,39.0,,,0.06,6.0,96.0,29.88,CLR:00,29.83,10.00,39.0,040,,3.0,,,,,,,,,,,,,,,,,,,,,,,,,,,,,,,,,,,,,MET12610/25/24 03:46:01 METAR KNRA 251146Z 04003KT 10SM CLR 04/03 A3005 RMK AO2 SLP120 6//// 7//// T00390033 10056 20017 56020 PNO $,FM-15,6,,,,,,,,,,,,,,,,,,,,,,,,,,,2021-11-22
A0002694297,2024-10-25 04:46:00,FM-15,6,,,,,,,,,,,,,,,,,,,,,,,,,,,,,,,,,,,,,,,30.03,39.0,40.0,,,,,97.0,29.86,CLR:00,29.81,10.00,40.0,,,,,,,,,,,,,,,,,,,,,,,,,,,,,,,,,,,,,,,,MET09610/25/24 04:46:01 METAR KNRA 251246Z      KT 10SM CLR 04/04 A3003 RMK AO2 SLP112 T00440039 PNO $,FM-15,6,,,,,,,,,,,,,,,,,,,,,,,,,,,2021-11-22
A0002694297,2024-10-25 05:46:00,FM-15,6,,,,,,,,,,,,,,,,,,,,,,,,,,,,,,,,,,,,,,,30.01,39.0,40.0,,,,,97.0,29.84,CLR:00,29.79,10.00,40.0,,,,,,,,,,,,,,,,,,,,,,,,,,,,,,,,,,,,,,,,MET09610/25/24 05:46:01 METAR KNRA 251346Z      KT 10SM CLR 04/04 A3001 RMK AO2 SLP106 T00440039 PNO $,FM-15,6,,,,,,,,,,,,,,,,,,,,,,,,,,,2021-11-22
A0002694297,2024-10-25 06:46:00,FM-15,6,,,,,,,,,,,,,,,,,,,,,,,,,,,,,,,,,,,,,,,30.0,37.0,39.0,,,0.05,6.0,93.0,29.83,CLR:00,29.78,10.00,38.0,000,,0.0,,,,,,,,,,,,,,,,,,,,,,,,,,,,,,,,,,,,,MET10810/25/24 06:46:02 METAR KNRA 251446Z 00000KT 10SM CLR 04/03 A3000 RMK AO2 SLP103 6//// T00390028 56017 PNO $,FM-15,6,,,,,,,,,,,,,,,,,,,,,,,,,,,2021-11-22
A0002694297,2024-10-25 07:46:00,FM-15,6,,,,,,,,,,,,,,,,,,,,,,,,,,,,,,,,,,,,,,,30.0,40.0,42.0,,,,,92.0,29.83,CLR:00,29.78,10.00,41.0,000,,0.0,,,,,,,,,,,,,,,,,,,,,,,,,,,,,,,,,,,,,MET09610/25/24 07:46:01 METAR KNRA 251546Z 00000KT 10SM CLR 06/04 A3000 RMK AO2 SLP101 T00560044 PNO $,FM-15,6,,,,,,,,,,,,,,,,,,,,,,,,,,,2021-11-22
A0002694297,2024-10-25 08:46:00,FM-15,6,,,,,,,,,,,,,,,,,,,,,,,,,,,,,,,,,,,,,,,29.98,40.0,46.0,,,,,79.0,29.81,CLR:00,29.76,10.00,43.0,040,,9.0,,,,,,,,,,,,,,,,,,,,,,,,,,,,,,,,,,,,,MET09610/25/24 08:46:02 METAR KNRA 251646Z 04008KT 10SM CLR 08/04 A2998 RMK AO2 SLP096 T00780044 PNO $,FM-15,6,,,,,,,,,,,,,,,,,,,,,,,,,,,2021-11-22
A0002694297,2024-10-25 09:46:00,FM-15,6,,,,,,,,,,,,,,,,,,,,,,,,,,,,,,,,,,,,,,,29.97,40.0,48.0,,,0.03,8.0,74.0,29.8,CLR:00,29.75,10.00,44.0,030,,3.0,,,,,,,,,,,,,,,,,,,,,,,,,,,,,,,,,,,,,MET12010/25/24 09:46:02 METAR KNRA 251746Z 03003KT 10SM CLR 09/04 A2997 RMK AO2 SLP093 6//// T00890044 10089 20033 58009 PNO $,FM-15,6,,,,,,,,,,,,,,,,,,,,,,,,,,,2021-11-22
A0002694297,2024-10-25 10:46:00,FM-15,6,,,,,,,,,,,,,,,,,,,,,,,,,,,,,,,,,,,,,,,29.95,40.0,50.0,,,,,68.0,29.78,CLR:00,29.73,10.00,45.0,030,,6.0,,,,,,,,,,,,,,,,,,,,,,,,,,,,,,,,,,,,,MET09610/25/24 10:46:02 METAR KNRA 251846Z 03005KT 10SM CLR 10/04 A2995 RMK AO2 SLP085 T01000044 PNO $,FM-15,6,,,,,,,,,,,,,,,,,,,,,,,,,,,2021-11-22
A0002694297,2024-10-25 11:46:00,FM-15,6,,,,,,,,,,,,,,,,,,,,,,,,,,,,,,,,,,,,,,,29.92,38.0,52.0,,,,,59.0,29.75,CLR:00,29.7,10.00,45.0,VRB,,3.0,,,,,,,,,,,,,,,,,,,,,,,,,,,,,,,,,,,,,MET09610/25/24 11:46:02 METAR KNRA 251946Z VRB03KT 10SM CLR 11/03 A2992 RMK AO2 SLP076 T01110033 PNO $,FM-15,6,,,,,,,,,,,,,,,,,,,,,,,,,,,2021-11-22
A0002694297,2024-10-25 12:46:00,FM-15,6,,,,,,,,,,,,,,,,,,,,,,,,,,,,,,,,,,,,,,,29.89,43.0,51.0,,,0.08,8.0,74.0,29.73,CLR:00,29.67,10.00,47.0,040,,5.0,,,,,,,,,,,,,,,,,,,,,,,,,,,,,,,,,,,,,MET10810/25/24 12:46:02 METAR KNRA 252046Z 04004KT 10SM CLR 11/06 A2989 RMK AO2 SLP067 6//// T01060061 58026 PNO $,FM-15,6,,,,,,,,,,,,,,,,,,,,,,,,,,,2021-11-22
A0002694297,2024-10-25 13:46:00,FM-15,6,,,,,,,,,,,,,,,,,,,,,,,,,,,,,,,,,,,,,,,29.87,40.0,53.0,,,,,61.0,29.7,CLR:00,29.65,10.00,47.0,070,,5.0,,,,,,,,,,,,,,,,,,,,,,,,,,,,,,,,,,,,,MET09610/25/24 13:46:02 METAR KNRA 252146Z 07004KT 10SM CLR 12/04 A2987 RMK AO2 SLP058 T01170044 PNO $,FM-15,6,,,,,,,,,,,,,,,,,,,,,,,,,,,2021-11-22
A0002694297,2024-10-25 14:46:00,FM-15,6,,,,,,,,,,,,,,,,,,,,,,,,,,,,,,,,,,,,,,,29.83,41.0,53.0,,,,,64.0,29.67,CLR:00,29.62,10.00,47.0,VRB,,3.0,,,,,,,,,,,,,,,,,,,,,,,,,,,,,,,,,,,,,MET09610/25/24 14:46:02 METAR KNRA 252246Z VRB03KT 10SM CLR 12/05 A2983 RMK AO2 SLP046 T01170050 PNO $,FM-15,6,,,,,,,,,,,,,,,,,,,,,,,,,,,2021-11-22
A0002694297,2024-10-25 15:46:00,FM-15,6,,,,,,,,,,,,,,,,,,,,,,,,,,,,,,,,,,,,,,,29.82,40.0,55.0,,,0.08,6.0,57.0,29.65,CLR:00,29.6,10.00,48.0,000,,0.0,,,,,,,,,,,,,,,,,,,,,,,,,,,,,,,,,,,,,MET12010/25/24 15:46:02 METAR KNRA 252346Z 00000KT 10SM CLR 13/04 A2982 RMK AO2 SLP041 6//// T01280044 10133 20089 56026 PNO $,FM-15,6,,,,,,,,,,,,,,,,,,,,,,,,,,,2021-11-22
A0002694297,2024-10-25 16:46:00,FM-15,6,,,,,,,,,,,,,,,,,,,,,,,,,,,,,,,,,,,,,,,29.8,40.0,57.0,,,,,53.0,29.63,CLR:00,29.59,10.00,49.0,VRB,,3.0,,,,,,,,,,,,,,,,,,,,,,,,,,,,,,,,,,,,,MET09610/25/24 16:46:01 METAR KNRA 260046Z VRB03KT 10SM CLR 14/04 A2980 RMK AO2 SLP035 T01390044 PNO $,FM-15,6,,,,,,,,,,,,,,,,,,,,,,,,,,,2021-11-22
A0002694297,2024-10-25 17:46:00,FM-15,6,,,,,,,,,,,,,,,,,,,,,,,,,,,,,,,,,,,,,,,29.79,40.0,56.0,,,,,55.0,29.63,CLR:00,29.57,10.00,48.0,170,,7.0,,,,,,,,,,,,,,,,,,,,,,,,,,,,,,,,,,,,,MET09610/25/24 17:46:02 METAR KNRA 260146Z 17006KT 10SM CLR 13/04 A2979 RMK AO2 SLP033 T01330044 PNO $,FM-15,6,,,,,,,,,,,,,,,,,,,,,,,,,,,2021-11-22
A0002694297,2024-10-25 18:46:00,FM-15,6,,,,,,,,,,,,,,,,,,,,,,,,,,,,,,,,,,,,,,,29.79,39.0,55.0,,,0.03,6.0,55.0,29.62,CLR:00,29.57,10.00,47.0,150,,5.0,,,,,,,,,,,,,,,,,,,,,,,,,,,,,,,,,,,,,MET10810/25/24 18:46:01 METAR KNRA 260246Z 15004KT 10SM CLR 13/04 A2979 RMK AO2 SLP031 6//// T01280039 56010 PNO $,FM-15,6,,,,,,,,,,,,,,,,,,,,,,,,,,,2021-11-22
A0002694297,2024-10-25 19:46:00,FM-15,6,,,,,,,,,,,,,,,,,,,,,,,,,,,,,,,,,,,,,,,29.76,37.0,56.0,,,,,49.0,29.59,CLR:00,29.54,10.00,47.0,170,,6.0,,,,,,,,,,,,,,,,,,,,,,,,,,,,,,,,,,,,,MET09610/25/24 19:46:01 METAR KNRA 260346Z 17005KT 10SM CLR 13/03 A2976 RMK AO2 SLP022 T01330028 PNO $,FM-15,6,,,,,,,,,,,,,,,,,,,,,,,,,,,2021-11-22
A0002694297,2024-10-25 20:46:00,FM-15,6,,,,,,,,,,,,,,,,,,,,,,,,,,,,,,,,,,,,,,,29.78,39.0,55.0,,,,,55.0,29.61,FEW:02 85,29.57,10.00,47.0,160,,7.0,,,,,,,,,,,,,,,,,,,,,,,,,,,,,,,,,,,,,MET09910/25/24 20:46:01 METAR KNRA 260446Z 16006KT 10SM FEW085 13/04 A2978 RMK AO2 SLP027 T01280039 PNO $,FM-15,6,,,,,,,,,,,,,,,,,,,,,,,,,,,2021-11-22
A0002694297,2024-10-25 21:46:00,FM-15,6,,,,,,,,,,,,,,,,,,,,,,,,,,,,,,,,,,,,,,,29.75,35.0,58.0,,-RA:02 |RA |RA,0.04,6.0,42.0,29.59,SCT:04 50 BKN:07 80 OVC:08 100,29.54,10.00,47.0,150,16.0,9.0,,,,,,,,,,,,,,,,,,,,,,,,,,,,,,,,,,,,,MET15610/25/24 21:46:01 METAR KNRA 260546Z 15008G14KT 10SM -RA SCT050 BKN080 OVC100 14/02 A2975 RMK AO2 RAB00E24B46 SLP019 6//// T01440017 10144 20106 56012 PNO $,FM-15,6,,,,,,,,,,,,,,,,,,,,,,,,,,,2021-11-22
A0002694297,2024-10-25 22:46:00,FM-15,6,,,,,,,,,,,,,,,,,,,,,,,,,,,,,,,,,,,,,,,29.71,41.0,53.0,,-RA:02 |RA |RA,,,64.0,29.55,FEW:02 70 BKN:07 80 OVC:08 110,29.49,10.00,47.0,VRB,22.0,11.0,,,,,,,,,,,,,,,,,,,,,,,,,,,,,,,,,,,,,MET12010/25/24 22:46:01 METAR KNRA 260646Z 14010G19KT 10SM -RA FEW070 BKN080 OVC110 12/05 A2971 RMK AO2 SLP006 T01170050 PNO $,FM-15,6,,,,,,,,,,,,,,,,,,,,,,,,,,,2021-11-22
A0002694297,2024-10-25 23:46:00,FM-15,6,,,,,,,,,,,,,,,,,,,,,,,,,,,,,,,,,,,,,,,29.76,45.0,53.0,,,,,74.0,29.6,SCT:04 46 OVC:08 60,29.54,10.00,49.0,140,26.0,13.0,,,,,,,,,,,,,,,,,,,,,,,,,,,,,,,,,,,,,MET14310/25/24 23:46:01 METAR KNRA 260746Z 14011G23KT 10SM SCT046 OVC060 12/07 A2976 RMK AO2 PK WND 16027/0709 RAE28 SLP023 T01170072 401440017 PNO $,FM-15,6,,,,,,,,,,,,,,,,,,,,,,,,,,,2021-11-22
A0002694297,2024-10-25 23:59:00,SOD  ,O,,,,,,,,,,,,,,,,,,,,,,,,,,,,,,,,,,,,RA FG,,,,,,,,,,,,,,,,,,,,,,,,,,,,,,,,,,,,,,,,,,,,,,,,,,,,,,,,SOD  ,O,,,,,,,,,,,,,,,,,,,,,,,,,647.0,1702.0,2021-11-22
A0002694297,2024-10-26 00:46:00,FM-15,6,,,,,,,,,,,,,,,,,,,,,,,,,,,,,,,,,,,,,,,29.78,47.0,51.0,,,-0.02,3.0,86.0,29.61,FEW:02 20 BKN:07 27 OVC:08 110,29.57,9.00,49.0,VRB,31.0,16.0,,,,,,,,,,,,,,,,,,,,,,,,,,,,,,,,,,,,,MET15610/26/24 00:46:01 METAR KNRA 260846Z 14014G27KT 9SM FEW020 BKN027 OVC110 11/08 A2978 RMK AO2 PK WND 13030/0832 RAB0748E35 SLP027 6//// T01060083 53008 PNO $,FM-15,6,,,,,,,,,,,,,,,,,,,,,,,,,,,2021-11-22
A0002694297,2024-10-26 01:46:00,FM-15,6,,,,,,,,,,,,,,,,,,,,,,,,,,,,,,,,,,,,,,,29.77,49.0,52.0,,,,,89.0,29.6,SCT:04 7,29.55,10.00,50.0,150,28.0,14.0,,,,,,,,,,,,,,,,,,,,,,,,,,,,,,,,,,,,,MET12010/26/24 01:46:01 METAR KNRA 260946Z 15012G24KT 10SM SCT007 11/09 A2977 RMK AO2 PK WND 12027/0848 SLP025 T01110094 PNO $,FM-15,6,,,,,,,,,,,,,,,,,,,,,,,,,,,2021-11-22
A0002694297,2024-10-26 02:46:00,FM-15,6,,,,,,,,,,,,,,,,,,,,,,,,,,,,,,,,,,,,,,,29.81,50.0,55.0,,,,,83.0,29.64,BKN:07 100,29.59,10.00,52.0,160,26.0,16.0,,,,,,,,,,,,,,,,,,,,,,,,,,,,,,,,,,,,,MET12010/26/24 02:46:01 METAR KNRA 261046Z 16014G23KT 10SM BKN100 13/10 A2981 RMK AO2 PK WND 13026/1020 SLP038 T01280100 PNO $,FM-15,6,,,,,,,,,,,,,,,,,,,,,,,,,,,2021-11-22
A0002694297,2024-10-26 03:46:00,FM-15,6,,,,,,,,,,,,,,,,,,,,,,,,,,,,,,,,,,,,,,,29.86,52.0,56.0,,,-0.09,3.0,87.0,29.7,OVC:08 14,29.65,10.00,54.0,180,33.0,20.0,,,,,,,,,,,,,,,,,,,,,,,,,,,,,,,,,,,,,MET15710/26/24 03:46:01 METAR KNRA 261146Z 18017G29KT 10SM OVC014 13/11 A2986 RMK AO2 PK WND 17031/1109 PRESRR SLP057 6//// 7//// T01330111 10144 20106 53029 PNO $,FM-15,6,,,,,,,,,,,,,,,,,,,,,,,,,,,2021-11-22
A0002694297,2024-10-26 04:46:00,FM-15,6,,,,,,,,,,,,,,,,,,,,,,,,,,,,,,,,,,,,,,,29.92,52.0,56.0,,,,,87.0,29.75,OVC:08 10,29.7,10.00,54.0,230,,5.0,,,,,,,,,,,,,,,,,,,,,,,,,,,,,,,,,,,,,MET09910/26/24 04:46:02 METAR KNRA 261246Z 23004KT 10SM OVC010 13/11 A2992 RMK AO2 SLP075 T01330111 PNO $,FM-15,6,,,,,,,,,,,,,,,,,,,,,,,,,,,2021-11-22
A0002694297,2024-10-26 06:46:00,FM-15,6,,,,,,,,,,,,,,,,,,,,,,,,,,,,,,,,,,,,,,,29.97,53.0,55.0,,,-0.1,1.0,93.0,29.8,BKN:07 17 BKN:07 23 OVC:08 35,29.75,10.00,54.0,000,,0.0,,,,,,,,,,,,,,,,,,,,,,,,,,,,,,,,,,,,,MET12510/26/24 06:46:01 METAR KNRA 261446Z 00000KT 10SM BKN017 BKN023 OVC035 13/12 A2997 RMK AO2 SLP091 6//// T01280117 51035 PNO $,FM-15,6,,,,,,,,,,,,,,,,,,,,,,,,,,,2021-11-22
A0002694297,2024-10-26 07:46:00,FM-15,6,,,,,,,,,,,,,,,,,,,,,,,,,,,,,,,,,,,,,,,29.99,53.0,55.0,,-RA:02 |RA |RA,,,93.0,29.82,FEW:02 15 OVC:08 22,29.78,10.00,54.0,VRB,,3.0,,,,,,,,,,,,,,,,,,,,,,,,,,,,,,,,,,,,,MET12210/26/24 07:46:02 METAR KNRA 261546Z VRB03KT 10SM -RA FEW015 OVC022 13/12 A2999 RMK AO2 RAB01E13B31 SLP097 T01280117 PNO $,FM-15,6,,,,,,,,,,,,,,,,,,,,,,,,,,,2021-11-22
A0002694297,2024-10-26 08:46:00,FM-15,6,,,,,,,,,,,,,,,,,,,,,,,,,,,,,,,,,,,,,,,30.0,52.0,55.0,,,,,90.0,29.83,SCT:04 8 OVC:08 15,29.78,10.00,53.0,000,,0.0,,,,,,,,,,,,,,,,,,,,,,,,,,,,,,,,,,,,,MET11210/26/24 08:46:01 METAR KNRA 261646Z 00000KT 10SM SCT008 OVC015 13/11 A3000 RMK AO2 RAE10 SLP102 T01280111 PNO $,FM-15,6,,,,,,,,,,,,,,,,,,,,,,,,,,,2021-11-22
A0002694297,2024-10-26 09:46:00,FM-15,6,,,,,,,,,,,,,,,,,,,,,,,,,,,,,,,,,,,,,,,29.99,52.0,56.0,,,-0.02,0.0,87.0,29.82,SCT:04 28 OVC:08 80,29.78,10.00,54.0,VRB,,6.0,,,,,,,,,,,,,,,,,,,,,,,,,,,,,,,,,,,,,MET13010/26/24 09:46:02 METAR KNRA 261746Z VRB05KT 10SM SCT028 OVC080 13/11 A2999 RMK AO2 SLP099 6//// T01330111 10133 20122 50008 PNO $,FM-15,6,,,,,,,,,,,,,,,,,,,,,,,,,,,2021-11-22
A0002694297,2024-10-26 10:46:00,FM-15,6,,,,,,,,,,,,,,,,,,,,,,,,,,,,,,,,,,,,,,,29.99,52.0,56.0,,-RA:02 |RA |RA,,,87.0,29.82,FEW:02 24 OVC:08 75,29.78,10.00,54.0,VRB,,6.0,,,,,,,,,,,,,,,,,,,,,,,,,,,,,,,,,,,,,MET11610/26/24 10:46:01 METAR KNRA 261846Z VRB05KT 10SM -RA FEW024 OVC075 13/11 A2999 RMK AO2 RAB44 SLP098 T01330111 PNO $,FM-15,6,,,,,,,,,,,,,,,,,,,,,,,,,,,2021-11-22
A0002694297,2024-10-26 11:46:00,FM-15,6,,,,,,,,,,,,,,,,,,,,,,,,,,,,,,,,,,,,,,,29.99,51.0,55.0,,-RA:02 |RA |RA,,,87.0,29.82,BKN:07 18 OVC:08 60,29.78,7.00,53.0,150,,7.0,,,,,,,,,,,,,,,,,,,,,,,,,,,,,,,,,,,,,MET12010/26/24 11:46:02 METAR KNRA 261946Z 15006KT 7SM -RA BKN018 OVC060 13/11 A2999 RMK AO2 RAE1855B12 SLP099 T01280106 PNO $,FM-15,6,,,,,,,,,,,,,,,,,,,,,,,,,,,2021-11-22
A0002694297,2024-10-26 12:46:00,FM-15,6,,,,,,,,,,,,,,,,,,,,,,,,,,,,,,,,,,,,,,,29.96,51.0,55.0,,-RA:02 |RA |RA,0.04,8.0,87.0,29.79,BKN:07 46 OVC:08 65,29.74,10.00,53.0,VRB,,6.0,,,,,,,,,,,,,,,,,,,,,,,,,,,,,,,,,,,,,MET13310/26/24 12:46:01 METAR KNRA 262046Z VRB05KT 10SM -RA BKN046 OVC065 13/11 A2996 RMK AO2 RAE1958B42 SLP087 6//// T01280106 58012 PNO $,FM-15,6,,,,,,,,,,,,,,,,,,,,,,,,,,,2021-11-22
A0002694297,2024-10-26 13:46:00,FM-15,6,,,,,,,,,,,,,,,,,,,,,,,,,,,,,,,,,,,,,,,29.92,50.0,56.0,,,,,81.0,29.75,BKN:07 43 BKN:07 50 BKN:07 75,29.7,10.00,53.0,VRB,,7.0,,,,,,,,,,,,,,,,,,,,,,,,,,,,,,,,,,,,,MET11910/26/24 13:46:01 METAR KNRA 262146Z VRB06KT 10SM BKN043 BKN050 BKN075 13/10 A2992 RMK AO2 RAE00 SLP075 T01330100 PNO $,FM-15,6,,,,,,,,,,,,,,,,,,,,,,,,,,,2021-11-22
A0002694297,2024-10-26 14:46:00,FM-15,6,,,,,,,,,,,,,,,,,,,,,,,,,,,,,,,,,,,,,,,29.89,51.0,58.0,,,,,78.0,29.72,BKN:07 41,29.67,10.00,54.0,,,,,,,,,,,,,,,,,,,,,,,,,,,,,,,,,,,,,,,,MET09910/26/24 14:46:02 METAR KNRA 262246Z      KT 10SM BKN041 14/11 A2989 RMK AO2 SLP065 T01440106 PNO $,FM-15,6,,,,,,,,,,,,,,,,,,,,,,,,,,,2021-11-22
A0002694297,2024-10-26 15:46:00,FM-15,6,,,,,,,,,,,,,,,,,,,,,,,,,,,,,,,,,,,,,,,29.89,51.0,56.0,,,0.06,6.0,84.0,29.72,BKN:07 25,29.67,10.00,53.0,VRB,,8.0,,,,,,,,,,,,,,,,,,,,,,,,,,,,,,,,,,,,,MET12310/26/24 15:46:02 METAR KNRA 262346Z 14007KT 10SM BKN025 13/11 A2989 RMK AO2 SLP065 6//// T01330106 10144 20128 56022 PNO $,FM-15,6,,,,,,,,,,,,,,,,,,,,,,,,,,,2021-11-22
A0002694297,2024-10-26 16:46:00,FM-15,6,,,,,,,,,,,,,,,,,,,,,,,,,,,,,,,,,,,,,,,29.86,51.0,55.0,,,,,87.0,29.69,BKN:07 18,29.65,10.00,53.0,VRB,17.0,5.0,,,,,,,,,,,,,,,,,,,,,,,,,,,,,,,,,,,,,MET10210/26/24 16:46:01 METAR KNRA 270046Z VRB04G15KT 10SM BKN018 13/11 A2986 RMK AO2 SLP055 T01280106 PNO $,FM-15,6,,,,,,,,,,,,,,,,,,,,,,,,,,,2021-11-22
A0002694297,2024-10-26 17:46:00,FM-15,6,,,,,,,,,,,,,,,,,,,,,,,,,,,,,,,,,,,,,,,29.84,52.0,56.0,,,,,87.0,29.68,OVC:08 15,29.62,10.00,54.0,VRB,18.0,8.0,,,,,,,,,,,,,,,,,,,,,,,,,,,,,,,,,,,,,MET10210/26/24 17:46:01 METAR KNRA 270146Z 16007G16KT 10SM OVC015 13/11 A2984 RMK AO2 SLP050 T01330111 PNO $,FM-15,6,,,,,,,,,,,,,,,,,,,,,,,,,,,2021-11-22
A0002694297,2024-10-26 19:46:00,FM-15,6,,,,,,,,,,,,,,,,,,,,,,,,,,,,,,,,,,,,,,,29.77,53.0,57.0,,,,,87.0,29.6,SCT:04 110,29.55,10.00,55.0,VRB,22.0,10.0,,,,,,,,,,,,,,,,,,,,,,,,,,,,,,,,,,,,,MET10210/26/24 19:46:01 METAR KNRA 270346Z 14009G19KT 10SM SCT110 14/12 A2977 RMK AO2 SLP024 T01390117 PNO $,FM-15,6,,,,,,,,,,,,,,,,,,,,,,,,,,,2021-11-22
A0002694297,2024-10-26 21:46:00,FM-15,6,,,,,,,,,,,,,,,,,,,,,,,,,,,,,,,,,,,,,,,29.77,54.0,58.0,,,0.05,6.0,87.0,29.6,BKN:07 11 OVC:08 18,29.55,10.00,56.0,180,21.0,10.0,,,,,,,,,,,,,,,,,,,,,,,,,,,,,,,,,,,,,MET13310/26/24 21:46:01 METAR KNRA 270546Z 18009G18KT 10SM BKN011 OVC018 14/12 A2977 RMK AO2 SLP025 6//// T01440122 10144 20128 56017 PNO $,FM-15,6,,,,,,,,,,,,,,,,,,,,,,,,,,,2021-11-22
A0002694297,2024-10-26 23:59:00,SOD  ,O,,,,,,,,,,,,,,,,,,,,,,,,,,,,,,,,,,,,RA,,,,,,,,,,,,,,,,,,,,,,,,,,,,,,,,,,,,,,,,,,,,,,,,,,,,,,,,SOD  ,O,,,,,,,,,,,,,,,,,,,,,,,,,648.0,1700.0,2021-11-22
A0002694297,2024-10-27 06:46:00,FM-15,6,,,,,,,,,,,,,,,,,,,,,,,,,,,,,,,,,,,,,,,29.75,48.0,50.0,,,-0.11,1.0,93.0,29.59,CLR:00,29.54,10.00,49.0,150,,5.0,,,,,,,,,,,,,,,,,,,,,,,,,,,,,,,,,,,,,MET11410/27/24 06:46:01 METAR KNRA 271446Z 15004KT 10SM CLR 10/09 A2975 RMK AO2 RAE11 SLP020 6//// T01000089 51038 PNO $,FM-15,6,,,,,,,,,,,,,,,,,,,,,,,,,,,2021-11-22
A0002694297,2024-10-27 08:46:00,FM-15,6,,,,,,,,,,,,,,,,,,,,,,,,,,,,,,,,,,,,,,,29.81,48.0,51.0,,,,,89.0,29.64,BKN:07 15,29.59,10.00,49.0,150,,7.0,,,,,,,,,,,,,,,,,,,,,,,,,,,,,,,,,,,,,MET09910/27/24 08:46:01 METAR KNRA 271646Z 15006KT 10SM BKN015 11/09 A2981 RMK AO2 SLP038 T01060089 PNO $,FM-15,6,,,,,,,,,,,,,,,,,,,,,,,,,,,2021-11-22
A0002694297,2024-10-27 17:46:00,FM-15,6,,,,,,,,,,,,,,,,,,,,,,,,,,,,,,,,,,,,,,,29.81,48.0,51.0,,,,,89.0,29.64,SCT:04 24 OVC:08 30,29.59,10.00,49.0,160,,5.0,,,,,,,,,,,,,,,,,,,,,,,,,,,,,,,,,,,,,MET11710/27/24 17:46:01 METAR KNRA 280146Z 16004KT 10SM SCT024 OVC030 11/09 A2981 RMK AO2 RAB0055E07 SLP038 T01060089 PNO $,FM-15,6,,,,,,,,,,,,,,,,,,,,,,,,,,,2021-11-22
